{"type":"FeatureCollection","features":[{"type":"Feature","geometry":{"type":"LineString","coordinates":[[119.7377425432205,40.20586540566174],[120.23094177246094,40.3836897366636],[120.92342376708984,40.95928940673555],[121.1165428161621,41.40011918484133],[121.0689926147461,41.53145510756294],[121.38381958007812,41.62262881463783],[121.53625488281249,41.77796872322689],[121.94515228271484,41.80970819375622],[122.11990356445312,41.6908605241911],[122.24349975585938,41.380930388318],[122.39593505859376,41.37474755643594],[122.37945556640624,41.14815503879421],[122.41996765136719,41.07572789469521]]},"properties":{"name":"Mt.Zhuizishan to Liaohetao"}},{"type":"Feature","geometry":{"type":"LineString","coordinates":[[122.47970581054688,41.055537533528636],[122.60330200195312,41.14246722711793],[122.79144287109375,41.50857729743935],[123.28857421875,42.15271426381815],[123.33869934082031,42.13896840458089],[123.75411987304688,42.367676308265196],[123.84338378906249,42.75306280054229],[123.92578125,42.90413649491736],[124.09194946289061,42.99661231842139],[124.26635742187501,43.002638523957906],[124.442138671875,42.94234987312984],[124.44488525390625,42.81051429991593],[124.51904296875,42.68647341541784],[124.5245361328125,42.51867517417283],[124.60693359374999,42.332153998913704],[124.51354980468749,42.25495072629938],[124.53826904296875,42.13693172716147],[124.45587158203125,42.06356771883277],[124.48333740234374,41.932933275212996],[124.398193359375,41.74672584176937],[124.43664550781249,41.668808555620586],[124.9859619140625,41.50446357504803],[124.9310302734375,41.343824581185686],[124.95849609375,41.19518982948959],[124.84313964843749,40.9964840143779],[124.56298828125001,40.76806170936614],[124.50531005859375,40.58058466412761],[124.58770751953125,40.371658891506094],[124.51512157917021,40.22177615657473]]},"properties":{"name":"Liaohetao to Yalujiang"}},{"type":"Feature","geometry":{"type":"LineString","coordinates":[[119.795467,39.966536],[119.726715,40.044763],[119.748062,40.097901]]},"properties":{"name":"Dragon's head to Sieryu Pass"}},{"type":"Feature","geometry":{"type":"LineString","coordinates":[[119.742512,40.095297],[119.737745,40.205863]]},"properties":{"name":"Sieryu pass to Mt. Zhuizihan"}},{"type":"Feature","geometry":{"type":"LineString","coordinates":[[119.793766,39.968887],[119.794554,39.967382]]},"properties":{"name":"Ninghaicheng"}},{"type":"Feature","geometry":{"type":"LineString","coordinates":[[119.794633,39.971947],[119.794239,39.972664]]},"properties":{"name":"Tiemenguan"}},{"type":"Feature","geometry":{"type":"LineString","coordinates":[[119.792536,39.975144],[119.790887,39.976673]]},"properties":{"name":"Jingyuancheng"}},{"type":"Feature","geometry":{"type":"LineString","coordinates":[[119.771075,39.99858],[119.775258,39.996768]]},"properties":{"name":"Nanyicheng"}},{"type":"Feature","geometry":{"type":"LineString","coordinates":[[119.756096,40.00815],[119.750876,40.011386]]},"properties":{"name":"Shanhaiguan1"}},{"type":"Feature","geometry":{"type":"LineString","coordinates":[[119.75004,40.013252],[119.760883,40.004836]]},"properties":{"name":"Shanhaiguan2"}},{"type":"Feature","geometry":{"type":"LineString","coordinates":[[119.741029,40.027135],[119.742988,40.023591]]},"properties":{"name":"Beiyicheng"}},{"type":"Feature","geometry":{"type":"LineString","coordinates":[[119.744442,40.122742],[119.743816,40.118371]]},"properties":{"name":"Jiumenkou"}},{"type":"Feature","geometry":{"type":"LineString","coordinates":[[119.737745,40.205863],[119.612904,40.230914]]},"properties":{"name":"Mt. Zhuizishan to Hekou Pass"}},{"type":"Feature","geometry":{"type":"LineString","coordinates":[[119.612904,40.230914],[119.548123,40.225228],[119.520388,40.149017]]},"properties":{"name":"Hekou Pass to Huachangyu"}},{"type":"Feature","geometry":{"type":"LineString","coordinates":[[119.518605,40.165659],[119.518445,40.147107]]},"properties":{"name":"Qingshuiguan"}},{"type":"Feature","geometry":{"type":"LineString","coordinates":[[119.519809,40.14526],[119.38015580177306,40.07239852298593],[119.41807419061662,40.08566671470546]]},"properties":{"name":"Qingshuiguan to Ganquankou"}},{"type":"Feature","geometry":{"type":"LineString","coordinates":[[119.37935113906859,40.08027150055061],[119.35336053371428,40.11661372237698]]},"properties":{"name":"Ganquankou to Liangjiawan"}},{"type":"Feature","geometry":{"type":"LineString","coordinates":[[119.34852316975594,40.116522444893505],[119.29162949323654,40.16253638722446]]},"properties":{"name":"Liangjiawan to Jielingkou Pass"}},{"type":"Feature","geometry":{"type":"LineString","coordinates":[[119.28839206695558,40.15996384932817],[119.28817614912987,40.159252540771995]]},"properties":{"name":"Jielingkou nearby"}},{"type":"Feature","geometry":{"type":"LineString","coordinates":[[119.28516235202551,40.158194788620804],[119.19871240854265,40.14577726837059]]},"properties":{"name":"Jielingkou to Qingshankou Pass"}},{"type":"Feature","geometry":{"type":"LineString","coordinates":[[119.19063091278076,40.140868677454044],[119.1202899813652,40.08720372865231],[119.13873251527548,40.11580478423094]]},"properties":{"name":"Qingshankou to Ganjiankou"}},{"type":"Feature","geometry":{"type":"LineString","coordinates":[[119.1147069633007,40.09722219806974],[119.03738021850586,40.11520044603028]]},"properties":{"name":"Ganjiankou to Taolinkou"}},{"type":"Feature","geometry":{"type":"LineString","coordinates":[[119.1147069633007,40.09722219806974],[118.87512803077696,40.16865474109198],[118.90319701284172,40.157126513970724]]},"properties":{"name":"Taolinkou to Heliukou"}},{"type":"Feature","geometry":{"type":"LineString","coordinates":[[118.87550354003906,40.1691878931274],[118.83959412574767,40.17839787535515]]},"properties":{"name":"Heliukou to Lenkou"}},{"type":"Feature","geometry":{"type":"LineString","coordinates":[[118.83229047060013,40.1743667565955],[118.83690185844898,40.17363971566166]]},"properties":{"name":"Lenkou"}},{"type":"Feature","geometry":{"type":"LineString","coordinates":[[118.82635876536368,40.18159985164189],[118.79380211234091,40.2008577031483]]},"properties":{"name":"Lenkou to Shimenzi"}},{"type":"Feature","geometry":{"type":"LineString","coordinates":[[118.78196686506271,40.20495996997258],[118.7255412340164,40.19786970363194]]},"properties":{"name":"Shimenzi to Baiyangyu"}},{"type":"Feature","geometry":{"type":"LineString","coordinates":[[118.72246876358986,40.19813501299539],[118.59987974166869,40.25728739876057]]},"properties":{"name":"Baiyangyu to Cayazi"}},{"type":"Feature","geometry":{"type":"LineString","coordinates":[[118.59453141689299,40.25887272636611],[118.59144452959298,40.256265973694354]]},"properties":{"name":"Cayazi"}},{"type":"Feature","geometry":{"type":"LineString","coordinates":[[118.58819335699081,40.26018783437724],[118.52684855461119,40.29743621788237],[118.53182405233383,40.36079087082827]]},"properties":{"name":"Cayazi to Yumulin"}},{"type":"Feature","geometry":{"type":"LineString","coordinates":[[118.53224515914916,40.36572389825983],[118.54661107063293,40.40638066485431]]},"properties":{"name":"Yumulin to Qingshankou"}},{"type":"Feature","geometry":{"type":"LineString","coordinates":[[118.54569777846336,40.40761018523105],[118.31904977560042,40.42842692539929]]},"properties":{"name":"Qinghsankou to Xifengkou"}},{"type":"Feature","geometry":{"type":"LineString","coordinates":[[118.32155227661131,40.42638515223744],[118.26512932777405,40.42307734817472]]},"properties":{"name":"Xifengkou to Panjiakou"}},{"type":"Feature","geometry":{"type":"LineString","coordinates":[[118.2696971297264,40.43214687674872],[118.22578668594359,40.452323312207014]]},"properties":{"name":"Panjiakou"}},{"type":"Feature","geometry":{"type":"LineString","coordinates":[[118.2572311110758,40.43070303470631],[117.9505893588066,40.28122608589009]]},"properties":{"name":"Panjiakou to Luowenyu"}},{"type":"Feature","geometry":{"type":"LineString","coordinates":[[117.94578552246094,40.28174377357154],[117.76759833097456,40.24384593097218]]},"properties":{"name":"Luowenyu to Da'ankou"}},{"type":"Feature","geometry":{"type":"LineString","coordinates":[[117.76759833097456,40.24384593097218],[117.56804466247559,40.18991403794759]]},"properties":{"name":"Da'ankou to Guqiangyu"}},{"type":"Feature","geometry":{"type":"LineString","coordinates":[[117.56804466247559,40.18991403794759],[117.41970241069794,40.24376403751692]]},"properties":{"name":"Guqiangyu to Huangyaguan"}},{"type":"Feature","geometry":{"type":"LineString","coordinates":[[117.41970241069794,40.24376403751692],[117.38284081220627,40.2264966377687]]},"properties":{"name":"Huangyaguan to Zhangzuoguan"}},{"type":"Feature","geometry":{"type":"LineString","coordinates":[[117.38271206617354,40.22651916422221],[117.31340110301971,40.27595690474382]]},"properties":{"name":"Zhangzuoguan to Jiangjunguan"}},{"type":"Feature","geometry":{"type":"LineString","coordinates":[[117.31167912483214,40.275785009976545],[117.30096101760863,40.27762671688511]]},"properties":{"name":"Jiangjunguan Nearby"}},{"type":"Feature","geometry":{"type":"LineString","coordinates":[[117.28832244873045,40.269007096591515],[117.1937584877014,40.251731806565374]]},"properties":{"name":"Jiangjunguan to Beizhaikou"}},{"type":"Feature","geometry":{"type":"LineString","coordinates":[[117.1937584877014,40.251731806565374],[117.16981172561646,40.31135790935978],[117.23019361495972,40.31008981645806],[117.23677039146423,40.39187389680094]]},"properties":{"name":"Beizhaikou to Qiangziluguan"}},{"type":"Feature","geometry":{"type":"LineString","coordinates":[[117.23369121551512,40.393120024652404],[117.24281072616577,40.41911797870537]]},"properties":{"name":"Qiangziluguan"}},{"type":"Feature","geometry":{"type":"LineString","coordinates":[[117.23843336105347,40.420475911457686],[117.26021826267242,40.442882947707716]]},"properties":{"name":"Qiangziluguan to Quanshuihekou"}},{"type":"Feature","geometry":{"type":"LineString","coordinates":[[117.25781500339507,40.43986685450424],[117.20170855522157,40.49841405685149],[117.24082589149477,40.538716991738966]]},"properties":{"name":"Quanshuikouguan to Dahuangyankou"}},{"type":"Feature","geometry":{"type":"LineString","coordinates":[[117.24300384521486,40.53777524886451],[117.34454959630965,40.60696011059212]]},"properties":{"name":"Dahuangyankou to Dachongyukou"}},{"type":"Feature","geometry":{"type":"LineString","coordinates":[[117.34649419784544,40.6123561203057],[117.49781370162965,40.645687687415]]},"properties":{"name":"Dachongyukou to Daheiguan"}},{"type":"Feature","geometry":{"type":"LineString","coordinates":[[117.49783784151077,40.648015837614345],[117.4239456653595,40.6809716111541]]},"properties":{"name":"Daheiguan to Qitouyakou"}},{"type":"Feature","geometry":{"type":"LineString","coordinates":[[117.39428579807281,40.68309106330647],[117.31035947799681,40.657490408167234]]},"properties":{"name":"Qitouyakou to Wangjinglou"}},{"type":"Feature","geometry":{"type":"LineString","coordinates":[[117.3099195957184,40.65729913933646],[117.23512083292007,40.67841678846631]]},"properties":{"name":"Wangjinglou to Zhuanduokou"}},{"type":"Feature","geometry":{"type":"LineString","coordinates":[[117.23441272974013,40.67610393858413],[117.15929612517355,40.69766708147344]]},"properties":{"name":"Zhuanduokou to Gubeikou"}},{"type":"Feature","geometry":{"type":"LineString","coordinates":[[117.17135667800903,40.69173496379824],[117.16755867004395,40.6877528072758]]},"properties":{"name":"Gubeikoucheng"}},{"type":"Feature","geometry":{"type":"LineString","coordinates":[[117.15198576450346,40.699243060955304],[117.10561037063597,40.7036962724028]]},"properties":{"name":"Gubeikou nearby"}},{"type":"Feature","geometry":{"type":"LineString","coordinates":[[117.1570336818695,40.68279409998223],[117.11199939250946,40.68918868889945]]},"properties":{"name":"Gubeikoucheng to Chaoheguan"}},{"type":"Feature","geometry":{"type":"LineString","coordinates":[[117.11108207702637,40.69825884072131],[117.00821399688722,40.658650218056074]]},"properties":{"name":"Chaoheguan to Xitaizikou"}},{"type":"Feature","geometry":{"type":"LineString","coordinates":[[117.00820326805113,40.658650218056074],[116.91268980503081,40.71819663072641]]},"properties":{"name":"Xitaizikou to Baimaguan"}},{"type":"Feature","geometry":{"type":"LineString","coordinates":[[116.91071033477782,40.71916022743469],[116.89635917544365,40.71092041544373]]},"properties":{"name":"Baimaguan nearby"}},{"type":"Feature","geometry":{"type":"LineString","coordinates":[[116.8959528207779,40.71013358509352],[116.85368657112122,40.65996057549443]]},"properties":{"name":"Baimaguan to Fengjiayu"}},{"type":"Feature","geometry":{"type":"LineString","coordinates":[[116.85656189918517,40.65033983661555],[116.84686571359636,40.6359671900545]]},"properties":{"name":"Fengjiayu nearby"}},{"type":"Feature","geometry":{"type":"LineString","coordinates":[[116.84663236141205,40.642602356255814],[116.79641604423522,40.55690104015645]]},"properties":{"name":"Fengjiayu to Lupiguan"}},{"type":"Feature","geometry":{"type":"LineString","coordinates":[[116.79618537425996,40.55682360231416],[116.70218467712401,40.46122563656765]]},"properties":{"name":"Lupiguan to Xiaoshuiyuguan"}},{"type":"Feature","geometry":{"type":"LineString","coordinates":[[116.70581102371214,40.47032674766018],[116.63448840379715,40.42506511289886]]},"properties":{"name":"Xiaoshuiyuguan to Guandihekou"}},{"type":"Feature","geometry":{"type":"LineString","coordinates":[[116.622576713562,40.422611792322755],[116.56885206699371,40.42264446301398]]},"properties":{"name":"Guandihekou to Mutianyu"}},{"type":"Feature","geometry":{"type":"LineString","coordinates":[[116.56816005706786,40.429112947269516],[116.47980272769927,40.45155180352712]]},"properties":{"name":"Mutianyu to Beijingjie"}},{"type":"Feature","geometry":{"type":"LineString","coordinates":[[116.47348880767824,40.45753994797212],[116.31164968013762,40.42122531523914],[116.35038681328297,40.42129678382858]]},"properties":{"name":"Beijingjie to Huanghuacheng"}},{"type":"Feature","geometry":{"type":"LineString","coordinates":[[116.31946563720702,40.43052580359807],[116.30863487720491,40.43350250489556]]},"properties":{"name":"Erdaoguan nearby"}},{"type":"Feature","geometry":{"type":"LineString","coordinates":[[116.31354331970213,40.41867485787588],[116.25109076499939,40.395726604409106]]},"properties":{"name":"Huanghuacheng to Xishuiyu"}},{"type":"Feature","geometry":{"type":"LineString","coordinates":[[116.49453341960907,40.46315207328188],[116.2398684024811,40.495905282324266]]},"properties":{"name":"Beijingjie to Shijinkou"}},{"type":"Feature","geometry":{"type":"LineString","coordinates":[[116.23813033103941,40.495819615196254],[116.07687592506409,40.441109031783114],[115.96335679292679,40.32490865388823]]},"properties":{"name":"Shijinkou to Chadaocheng"}},{"type":"Feature","geometry":{"type":"LineString","coordinates":[[115.96335679292679,40.32491069876968],[116.02468013763428,40.36901255295347]]},"properties":{"name":"Chadaocheng to Badaling"}},{"type":"Feature","geometry":{"type":"LineString","coordinates":[[116.02026522159578,40.37020392903872],[116.01214349269867,40.371585326742064]]},"properties":{"name":"Badaling nearby 1"}},{"type":"Feature","geometry":{"type":"LineString","coordinates":[[116.01837158203126,40.3730566067647],[116.02347850799559,40.37575387004359]]},"properties":{"name":"Badaling nearby 2"}},{"type":"Feature","geometry":{"type":"LineString","coordinates":[[116.01577520370483,40.360647805091766],[116.0700885951519,40.29375178742892]]},"properties":{"name":"Badaling to Juyongguan"}},{"type":"Feature","geometry":{"type":"LineString","coordinates":[[115.96334874629974,40.32490865388823],[115.92784166336058,40.30170139588873],[115.95358818769454,40.271016802386505],[115.86116597056389,40.248487080631065],[115.933857858181,40.290138763821275]]},"properties":{"name":"Chaodaocheng to Juhuguan"}},{"type":"Feature","geometry":{"type":"LineString","coordinates":[[115.85977792739868,40.25232136782612],[115.79351127147675,40.25882462465465],[115.74873447418214,40.16262042865094],[115.78167736530303,40.18861907950359]]},"properties":{"name":"Juhuguan to Shuikouguan"}},{"type":"Feature","geometry":{"type":"LineString","coordinates":[[116.5023922920227,40.481940096341305],[116.30468130111693,40.595364342629736]]},"properties":{"name":"Beijingjie to Yingpankou"}},{"type":"Feature","geometry":{"type":"LineString","coordinates":[[116.31011009216309,40.59691219054059],[116.1940562725067,40.59223187761596],[116.16289973258972,40.67566251484444]]},"properties":{"name":"Yingpankou to Baihekou"}},{"type":"Feature","geometry":{"type":"LineString","coordinates":[[115.6950044631958,40.06426188292743],[115.72241663932799,40.07973790726116]]},"properties":{"name":"Yanhecheng"}},{"type":"Feature","geometry":{"type":"LineString","coordinates":[[115.56977748870848,40.07201264980169],[115.56177377700806,40.048593445454834]]},"properties":{"name":"Tianjinguan"}},{"type":"Feature","geometry":{"type":"LineString","coordinates":[[115.47289609909058,39.99531189680598],[115.50936341285706,40.00330883613875]]},"properties":{"name":"Hongshuikou"}},{"type":"Feature","geometry":{"type":"LineString","coordinates":[[115.45082688331604,39.94940796479056],[115.51943778991699,39.99168707630658]]},"properties":{"name":"Xiaolongmen"}},{"type":"Feature","geometry":{"type":"LineString","coordinates":[[116.16288900375366,40.67565437797389],[116.1729472875595,40.707417220754444]]},"properties":{"name":"Baihekou nearby"}},{"type":"Feature","geometry":{"type":"LineString","coordinates":[[116.164208650589,40.71013358509352],[116.15799129009245,40.75467955939938],[116.07027232646942,40.707384688773566]]},"properties":{"name":"Ningyuanbao nearby"}},{"type":"Feature","geometry":{"type":"LineString","coordinates":[[116.04568719863893,40.71739972164534],[116.06809973716736,40.6937117171544]]},"properties":{"name":"Dishuiya nearby"}},{"type":"Feature","geometry":{"type":"LineString","coordinates":[[116.03212594985962,40.73219790515421],[115.91256380081175,40.74182715312056]]},"properties":{"name":"Jiepaisikou nearby"}},{"type":"Feature","geometry":{"type":"LineString","coordinates":[[115.88687896728516,40.74529805563639],[115.82473754882812,40.72304699912822],[115.67972660064697,40.79631647535796],[115.4692107439041,40.80220475593126],[115.43957233428954,40.756668666371866],[115.49428939819336,40.69407777615496]]},"properties":{"name":"Diao'ebao to Longmenguan"}},{"type":"Feature","geometry":{"type":"LineString","coordinates":[[116.15798592567444,40.75468159120397],[116.04786247015001,40.91430105216077],[116.02849423885345,40.81608278768728]]},"properties":{"name":"Lanmadaokou to Hongshaliangkou"}},{"type":"Feature","geometry":{"type":"LineString","coordinates":[[116.04786515235901,40.91429902524213],[115.983028113842,41.033479600377845]]},"properties":{"name":"Mayingkou to Qingyangkou"}},{"type":"Feature","geometry":{"type":"LineString","coordinates":[[115.98202228546141,41.03434555007271],[115.91686069965363,41.084029543483226],[115.91279983520508,41.16015922606052]]},"properties":{"name":"Qingyangkou to Lianghekou"}},{"type":"Feature","geometry":{"type":"LineString","coordinates":[[115.9321653842926,41.136714279434294],[115.9639012813568,41.12988603925506]]},"properties":{"name":"Lianghekou nearby"}},{"type":"Feature","geometry":{"type":"LineString","coordinates":[[115.91277837753294,41.16019153584573],[115.74480772018433,41.36604390268261],[115.68526804447173,41.3429707698419]]},"properties":{"name":"Lianghekou to Xizhazikou"}},{"type":"Feature","geometry":{"type":"LineString","coordinates":[[115.68526770919563,41.3429710215568],[115.48227310180663,41.21258914699988],[115.51740467548369,41.14727846929495],[115.4617166519165,41.099218885922035],[115.50370931625368,41.0684686528854],[115.47081470489502,40.98885564582918],[115.49987912178038,40.916974503722074],[115.429927110672,40.85656746844603],[115.4515027999878,40.78548067439837]]},"properties":{"name":"Xizhazikou to Qingyanggoukou"}},{"type":"Feature","geometry":{"type":"LineString","coordinates":[[115.42749166488647,40.7919709954519],[115.15568733215332,40.7994109334422]]},"properties":{"name":"Qingyanggoukou to Changyukou"}},{"type":"Feature","geometry":{"type":"LineString","coordinates":[[115.1556859910488,40.7994109334422],[115.02345979213715,40.81605842855966]]},"properties":{"name":"Changyukou to Qingbiankou"}},{"type":"Feature","geometry":{"type":"LineString","coordinates":[[115.0223222002387,40.81600996401872],[114.86679464578629,40.847202384432]]},"properties":{"name":"Qingbiankou to Dajingmen"}},{"type":"Feature","geometry":{"type":"LineString","coordinates":[[114.86679464578629,40.847202384432],[114.81099665164948,40.85911139390017],[114.76495385169983,41.0064028124382],[114.52714920043945,40.9969577215317],[114.36270833015442,40.86506306745198],[114.38329696655273,40.782710519458966],[114.34131503105164,40.74223359134973]]},"properties":{"name":"Dajingmen to Dongyanghekou"}},{"type":"Feature","geometry":{"type":"LineString","coordinates":[[114.34478044509888,40.739835569897686],[114.12747591733932,40.74617388122188],[114.19732332229613,40.645431260312385]]},"properties":{"name":"Dongyanghekou to Xiyanghebao"}},{"type":"Feature","geometry":{"type":"LineString","coordinates":[[115.45082688331604,39.94940796479056],[115.37386894226076,39.926588421909436],[115.3528618812561,39.85840534079027]]},"properties":{"name":"Dalongmenkou"}},{"type":"Feature","geometry":{"type":"LineString","coordinates":[[115.2619618177414,39.87974505356237],[115.3111696243286,39.81131346005211]]},"properties":{"name":"Mashuikou"}},{"type":"Feature","geometry":{"type":"LineString","coordinates":[[114.99986171722412,39.551483146449044],[114.84089992940426,39.37279887840153]]},"properties":{"name":"Zijingguan to Futuyu"}},{"type":"Feature","geometry":{"type":"LineString","coordinates":[[114.83330860733984,39.36313649334663],[114.83613297343253,39.32454101853461]]},"properties":{"name":"Futuyu to Ningjing'ankou"}},{"type":"Feature","geometry":{"type":"LineString","coordinates":[[114.840534478426,39.324151978701735],[114.79108124971391,39.275464471712596]]},"properties":{"name":"Ningjing'ankou to Huangcaoankou"}},{"type":"Feature","geometry":{"type":"LineString","coordinates":[[114.7843824326992,39.27661890084309],[114.7308737039566,39.25923400879039]]},"properties":{"name":"Huangcaoankou to Yingelingkou"}},{"type":"Feature","geometry":{"type":"LineString","coordinates":[[114.76242184638977,39.27334243185931],[114.73117411136626,39.26500989697447]]},"properties":{"name":"Waizuilingkou to Yingeling"}},{"type":"Feature","geometry":{"type":"LineString","coordinates":[[114.75367784500122,39.27236859753605],[114.74421501159667,39.276841063978765]]},"properties":{"name":"Xishuigoukou nearby 1"}},{"type":"Feature","geometry":{"type":"LineString","coordinates":[[114.74442020058632,39.272095547743056],[114.7414845228195,39.27607698594025]]},"properties":{"name":"Xishuigoukou nearby 2"}},{"type":"Feature","geometry":{"type":"LineString","coordinates":[[114.74112376570702,39.271006452622025],[114.74276125431061,39.26922897980595]]},"properties":{"name":"Xishuigoukou nearby 3"}},{"type":"Feature","geometry":{"type":"LineString","coordinates":[[114.72170859575273,39.26070229766033],[114.64432150125504,39.23806812687764]]},"properties":{"name":"Yingelingkou to Chajianlingguan"}},{"type":"Feature","geometry":{"type":"LineString","coordinates":[[114.64525457471608,39.23865811630516],[114.64225620031355,39.24078743828678]]},"properties":{"name":"Chajianlingguan nearby1"}},{"type":"Feature","geometry":{"type":"LineString","coordinates":[[114.64345246553421,39.24018084777884],[114.63919311761855,39.24150827703597]]},"properties":{"name":"Chajianlingguan"}},{"type":"Feature","geometry":{"type":"LineString","coordinates":[[114.63703393936157,39.241584359368005],[114.48131024837494,39.21175454104354]]},"properties":{"name":"Chajianlingguan to Shicheng'anshan"}},{"type":"Feature","geometry":{"type":"LineString","coordinates":[[113.99276733398438,39.06984603648688],[113.84857177734375,38.99730766542481],[113.82728576660156,38.93057071847416],[113.89114379882812,38.8057377665913],[113.63639831542969,38.60506646289451],[113.54507446289062,38.41916639395372],[113.88702392578125,38.10754709314396],[113.99208068847656,37.81737834565083],[114.13009643554688,37.71152898951815],[114.11430358886719,37.529331802815086],[113.7915802001953,37.10557463437788],[113.82797241210938,36.857098179191205]]},"properties":{"name":"Hebei Shanxi boundary"}},{"type":"Feature","geometry":{"type":"LineString","coordinates":[[114.12725329399109,40.745127359747705],[114.05558466911316,40.721916768838135],[114.0650475025177,40.68049157232353],[114.15679983794689,40.71420385776083]]},"properties":{"name":"Mashikou nearby"}},{"type":"Feature","geometry":{"type":"LineString","coordinates":[[114.06504683196545,40.68049208084108],[113.99022191762924,40.58338563959252],[113.98182392120361,40.47978569852799],[114.10240530967712,40.53987071063674]]},"properties":{"name":"Ximashikou to Shuimokou"}},{"type":"Feature","geometry":{"type":"LineString","coordinates":[[114.03465807437897,40.60786422713363],[114.0939348936081,40.525457990323766]]},"properties":{"name":"Ximashikou to Li'erkou"}},{"type":"Feature","geometry":{"type":"LineString","coordinates":[[113.98182358592749,40.47978620857352],[113.82925383746624,40.4331064356424]]},"properties":{"name":"Shuimokou to Zhenmenbao nearby"}},{"type":"Feature","geometry":{"type":"LineString","coordinates":[[113.82891856133938,40.43508471703903],[113.66215288639069,40.42250561246668],[113.52914214134216,40.332592881060265],[113.31604063510895,40.3149984308642]]},"properties":{"name":"Zhenmenbao nearby to Zhenchuankou"}},{"type":"Feature","geometry":{"type":"LineString","coordinates":[[113.31219971179962,40.31848333049937],[113.28718543052673,40.3519651904285]]},"properties":{"name":"Hongcibao nearby"}},{"type":"Feature","geometry":{"type":"LineString","coordinates":[[113.28410625457764,40.36357037345829],[113.24805200099944,40.413479712136954],[112.85410523414612,40.32061017616083]]},"properties":{"name":"Hongcibao nearby to Dahukou nearby"}},{"type":"Feature","geometry":{"type":"LineString","coordinates":[[112.88987785577774,40.32631577329105],[112.8473299741745,40.20284587394993],[112.77357459068298,40.175454997814384]]},"properties":{"name":"Dahukou to Weilukou"}},{"type":"Feature","geometry":{"type":"LineString","coordinates":[[113.30172300338745,40.32550166691296],[113.24162006378174,40.27562948576297],[112.84565895795822,40.20166998193173]]},"properties":{"name":"Hongcibao to Weilukou"}},{"type":"Feature","geometry":{"type":"LineString","coordinates":[[112.77357526123524,40.17545525398965],[112.45624780654907,40.298782283953315],[112.29706406593323,40.237760977475276]]},"properties":{"name":"Weilukou to Shahukou"}},{"type":"Feature","geometry":{"type":"LineString","coordinates":[[112.29706406593323,40.237760977475276],[112.1734182536602,40.07159188133782]]},"properties":{"name":"Shahukou to Yunshibao"}},{"type":"Feature","geometry":{"type":"LineString","coordinates":[[112.21925452351569,40.15295600771224],[112.17752605676651,40.085256291225626]]},"properties":{"name":"Erfenguan nearby to Yunshibao nearby"}},{"type":"Feature","geometry":{"type":"LineString","coordinates":[[112.15966489166021,40.050092542314935],[111.96444869041443,39.79478740342338],[111.94834470748901,39.685021370844794],[111.82972133159637,39.63433024972066]]},"properties":{"name":"Yunshibao to Baiyangling"}},{"type":"Feature","geometry":{"type":"LineString","coordinates":[[111.87566723674536,39.649175019438324],[111.82807981967926,39.6224455285244]]},"properties":{"name":"Wuyanjingbao to Baiyanglingbao"}},{"type":"Feature","geometry":{"type":"LineString","coordinates":[[111.86861839145422,39.6409051682275],[111.855229139328,39.61104461771253]]},"properties":{"name":"Wuyanjingbao to Cuihuabao"}},{"type":"Feature","geometry":{"type":"LineString","coordinates":[[111.82853043079376,39.62037974831043],[111.77498817443848,39.58637190289363],[111.65483057498932,39.63714154602673]]},"properties":{"name":"Baiyangling to Caoduoshan"}},{"type":"Feature","geometry":{"type":"LineString","coordinates":[[111.64756715297699,39.63763340785528],[111.48557245731354,39.65759591426694]]},"properties":{"name":"Caoduoshan to Laoniuwan nearby"}},{"type":"Feature","geometry":{"type":"LineString","coordinates":[[111.49226859211922,39.65902691525091],[111.44084393978119,39.64110732448014]]},"properties":{"name":"Laoniuwan nearby to Laoniuwan"}},{"type":"Feature","geometry":{"type":"LineString","coordinates":[[111.43602669239044,39.63712089033533],[111.43602669239044,39.6371002346378]]},"properties":{"name":"Laoniuwanbao"}},{"type":"Feature","geometry":{"type":"LineString","coordinates":[[111.39437198638916,39.49082751858809],[111.36164903640747,39.452481819559026]]},"properties":{"name":"Hualinbao"}},{"type":"Feature","geometry":{"type":"LineString","coordinates":[[111.29319369792938,39.41719837498669],[111.12994909286499,39.385475263894705]]},"properties":{"name":"Hequbei"}},{"type":"Feature","geometry":{"type":"LineString","coordinates":[[111.12943410873413,39.38186441043629],[111.15284442901611,39.340222190286845]]},"properties":{"name":"Hequnan"}},{"type":"Feature","geometry":{"type":"LineString","coordinates":[[111.87447633594275,39.60452291641902],[111.86018586158752,39.517069295862036]]},"properties":{"name":"Cuihuabao to Laoyingkou"}},{"type":"Feature","geometry":{"type":"LineString","coordinates":[[111.85022950172423,39.52968168931273],[111.84017658233643,39.5260808942702]]},"properties":{"name":"Laoyingbao"}},{"type":"Feature","geometry":{"type":"LineString","coordinates":[[111.8584156036377,39.5198336253221],[111.87742173671722,39.479241146684856]]},"properties":{"name":"Laoyingkou to Yangzigou"}},{"type":"Feature","geometry":{"type":"LineString","coordinates":[[111.87953397631645,39.48674549381808],[111.90946340560913,39.4790072050567]]},"properties":{"name":"Yangzigou nearby"}},{"type":"Feature","geometry":{"type":"LineString","coordinates":[[111.87874037772417,39.47792857905452],[111.99652791023254,39.38230340316998]]},"properties":{"name":"Yangzigou to Yezhukou"}},{"type":"Feature","geometry":{"type":"LineString","coordinates":[[111.99629120528698,39.38240602444983],[112.0045530796051,39.37337995781653]]},"properties":{"name":"Yezhukou nearby"}},{"type":"Feature","geometry":{"type":"LineString","coordinates":[[112.01759364455938,39.36511920827822],[112.0344865322113,39.33882817417124]]},"properties":{"name":"Shihuling1"}},{"type":"Feature","geometry":{"type":"LineString","coordinates":[[112.03431989997625,39.33818561050787],[112.05738186836243,39.30469100171012]]},"properties":{"name":"Shihuling2"}},{"type":"Feature","geometry":{"type":"LineString","coordinates":[[112.0545494556427,39.31007869390569],[112.05531120300293,39.309588920845584]]},"properties":{"name":"Shihuling3"}},{"type":"Feature","geometry":{"type":"LineString","coordinates":[[112.06774558871984,39.30611501364861],[112.1662849187851,39.27643826300789]]},"properties":{"name":"Shihuling4"}},{"type":"Feature","geometry":{"type":"LineString","coordinates":[[112.16610755771399,39.275416975682234],[112.22347497940063,39.213215511175534]]},"properties":{"name":"Shihuling5"}},{"type":"Feature","geometry":{"type":"LineString","coordinates":[[112.22550239413977,39.21470320681417],[112.27931320667267,39.11347149958028]]},"properties":{"name":"Shihuling to Dashuikou"}},{"type":"Feature","geometry":{"type":"LineString","coordinates":[[112.28012323379517,39.113708746960995],[112.4411791563034,39.05813359860098]]},"properties":{"name":"Dashuikou to Huangcaoliang"}},{"type":"Feature","geometry":{"type":"LineString","coordinates":[[112.4454864487052,39.06749730075306],[112.63853073120117,39.08970941891837],[112.83579111099243,39.23738049209346]]},"properties":{"name":"Huangcaoliang to Guangwucheng"}},{"type":"Feature","geometry":{"type":"LineString","coordinates":[[113.25423717498778,39.391366664444995],[113.26247155666351,39.40784833432666]]},"properties":{"name":"Ruyuekou"}},{"type":"Feature","geometry":{"type":"LineString","coordinates":[[113.27605962753296,39.42909133960585],[113.35757732391357,39.50051412320727]]},"properties":{"name":"Xiaoshikou to Dashikou"}},{"type":"Feature","geometry":{"type":"LineString","coordinates":[[113.50024938583374,39.50548936714678],[113.5550844669342,39.57016820310163]]},"properties":{"name":"Dayukou to Lingyunkou"}},{"type":"Feature","geometry":{"type":"LineString","coordinates":[[113.66665363311768,39.55228557414026],[113.74178767204285,39.50155721550465],[113.70720863342285,39.5943462547026]]},"properties":{"name":"Hulutou1"}},{"type":"Feature","geometry":{"type":"LineString","coordinates":[[113.74684095382689,39.50715322116501],[113.7840485572815,39.509479238858574]]},"properties":{"name":"Hulutou2"}},{"type":"Feature","geometry":{"type":"LineString","coordinates":[[113.82416367530823,39.41678394938818],[113.9720070362091,39.30233323706632]]},"properties":{"name":"Xihekou to Pingxingguan"}},{"type":"Feature","geometry":{"type":"LineString","coordinates":[[113.95849943161011,39.274017255807365],[113.96980762481688,39.22247939088178],[113.88322591781616,39.15904162564514]]},"properties":{"name":"Dazhaikou"}},{"type":"Feature","geometry":{"type":"LineString","coordinates":[[113.94177854061127,39.13126283651709],[114.00609254837036,39.12358502118854],[114.03233528137207,39.050985224446876]]},"properties":{"name":"Niubangkou to Wuwangkou"}},{"type":"Feature","geometry":{"type":"LineString","coordinates":[[113.76707553863525,38.92575488576117],[113.77301931381226,38.90467655551809]]},"properties":{"name":"Changchengling"}},{"type":"Feature","geometry":{"type":"LineString","coordinates":[[113.55676889419554,38.32336830660521],[113.54376554489136,38.25904214682653]]},"properties":{"name":"Chengqiangya to Liulingguan"}},{"type":"Feature","geometry":{"type":"LineString","coordinates":[[113.8728940486908,38.05526382452837],[113.86646747589111,38.00864102172909],[113.77550840377808,37.96595562915752]]},"properties":{"name":"L\u00fcqiaoguan"}},{"type":"Feature","geometry":{"type":"LineString","coordinates":[[113.87763619422913,37.96700445849168],[113.87253999710083,37.941879186529384]]},"properties":{"name":"Niangziguan"}},{"type":"Feature","geometry":{"type":"LineString","coordinates":[[113.88442754745483,37.89571767318124],[113.91541242599487,37.88013776357575]]},"properties":{"name":"Guguan"}},{"type":"Feature","geometry":{"type":"LineString","coordinates":[[111.10244572162628,39.37734423141372],[111.06307625770569,39.37629927737627]]},"properties":{"name":"Zulutai to Mazhen"}},{"type":"Feature","geometry":{"type":"LineString","coordinates":[[111.04871571063995,39.37630757072387],[111.00864350795744,39.35978112103511]]},"properties":{"name":"Yangjiamao to Jiubazhou"}},{"type":"Feature","geometry":{"type":"LineString","coordinates":[[111.00980758666992,39.359403683409475],[111.01932406425476,39.33159212010144]]},"properties":{"name":"Jiubazhou to Qingshuichuan"}},{"type":"Feature","geometry":{"type":"LineString","coordinates":[[111.01428151130676,39.32150437548625],[110.9210667014122,39.29246961412673]]},"properties":{"name":"Qingshuichuan to Huobaliang"}},{"type":"Feature","geometry":{"type":"LineString","coordinates":[[110.91300129890442,39.29180534715193],[110.79719424247742,39.19401473368061]]},"properties":{"name":"Huobaliang to Gushanchuan"}},{"type":"Feature","geometry":{"type":"LineString","coordinates":[[110.78518867492676,39.19519544817752],[110.47040462493896,38.95348526132807],[110.48388004302979,38.85043684357205]]},"properties":{"name":"Gushanchuan to Shenmu"}},{"type":"Feature","geometry":{"type":"LineString","coordinates":[[110.47679901123047,38.84930049083712],[110.44690847396849,38.747222191268065],[110.34905076026917,38.67588227278632]]},"properties":{"name":"Shenmu to Kouzeshang"}},{"type":"Feature","geometry":{"type":"LineString","coordinates":[[110.34905076026917,38.67588253453418],[110.25586009025574,38.58666914176747]]},"properties":{"name":"Kouzeshang to Tuweihe"}},{"type":"Feature","geometry":{"type":"LineString","coordinates":[[110.24630069732665,38.57797195759187],[109.7270518541336,38.337246650812865]]},"properties":{"name":"Tuweihe to Zhenbeitai"}},{"type":"Feature","geometry":{"type":"LineString","coordinates":[[109.7253030538559,38.33654448642544],[109.37183618545532,38.06140530876164]]},"properties":{"name":"Zhenbeitai to Boluobao"}},{"type":"Feature","geometry":{"type":"LineString","coordinates":[[109.35743808746336,38.032070217513215],[109.24525737762451,38.02158209887922],[109.16467308998108,37.858489767059325]]},"properties":{"name":"Wudinghe to Longchimao"}},{"type":"Feature","geometry":{"type":"LineString","coordinates":[[109.15719509124754,37.856880311479905],[109.02862071990965,37.62940857918547]]},"properties":{"name":"Longchimao to Yangqiaopan"}},{"type":"Feature","geometry":{"type":"LineString","coordinates":[[109.01519894599915,37.605536717171454],[108.95653367042542,37.53013158936784],[108.80011796951294,37.53598933900143]]},"properties":{"name":"Yangqiaopan to Luhe"}},{"type":"Feature","geometry":{"type":"LineString","coordinates":[[108.79548311233519,37.53508326837541],[108.75739574432373,37.534589816831485]]},"properties":{"name":"Zhenjingbao 1"}},{"type":"Feature","geometry":{"type":"LineString","coordinates":[[108.79139542579651,37.52261836271598],[108.79142761230469,37.52262687189442]]},"properties":{"name":"Zhenjingbao 2"}},{"type":"Feature","geometry":{"type":"LineString","coordinates":[[108.78642797470093,37.525060457100736],[108.7502907307897,37.33683326655387],[108.6742167336498,37.30686008445009]]},"properties":{"name":"Zhenjingbao to Jingbianbao"}},{"type":"Feature","geometry":{"type":"LineString","coordinates":[[108.67220342159271,37.30554086704729],[108.59659999608994,37.302157109170174]]},"properties":{"name":"Jingbianbao to Jingtaitan"}},{"type":"Feature","geometry":{"type":"LineString","coordinates":[[108.59379172325134,37.30327935595845],[108.44937488436699,37.30048437565023]]},"properties":{"name":"Jingtaitan to Ying'ermao"}},{"type":"Feature","geometry":{"type":"LineString","coordinates":[[108.44810988754034,37.301278075275114],[108.31942319869995,37.354023241271534]]},"properties":{"name":"Ying'ermao to Hongliuhe"}},{"type":"Feature","geometry":{"type":"LineString","coordinates":[[108.3092737197876,37.35702516768343],[108.0887746810913,37.48365317305528]]},"properties":{"name":"Hongliuhe to Balihe"}},{"type":"Feature","geometry":{"type":"LineString","coordinates":[[108.08784127235413,37.484632233055045],[108.06405544281006,37.53013158936784],[107.60386347770691,37.53357738016616],[107.59346723556519,37.580917475651056]]},"properties":{"name":"Balihe to Dingbianying"}},{"type":"Feature","geometry":{"type":"LineString","coordinates":[[107.79702812433243,37.530414490536735],[107.79703080654144,37.530361313707175]]},"properties":{"name":"Zhuanjingbao"}},{"type":"Feature","geometry":{"type":"LineString","coordinates":[[107.58686900138855,37.594469267558985],[107.48763799667358,37.73147213488731]]},"properties":{"name":"Yanchibao nearby"}},{"type":"Feature","geometry":{"type":"LineString","coordinates":[[111.14237308502197,39.36361759655913],[111.08851432800293,39.29013634857134]]},"properties":{"name":"Qiangtouxiang to Huangfuchuan"}},{"type":"Feature","geometry":{"type":"LineString","coordinates":[[111.08272075653076,39.28236377155509],[111.05950355529785,39.2581104459007]]},"properties":{"name":"Huangfuchuan to Qingshuichuan"}},{"type":"Feature","geometry":{"type":"LineString","coordinates":[[111.05864524841309,39.25206241914452],[110.9499192237854,39.18726266123085],[110.88930130004883,39.079974145329246]]},"properties":{"name":"Qingshuichuan to Gushanchuan"}},{"type":"Feature","geometry":{"type":"LineString","coordinates":[[110.88397979736328,39.07597638128319],[110.57653427124023,38.961644588153575],[110.50465106964111,38.80416593464791]]},"properties":{"name":"Gushanchuan to Shenmu"}},{"type":"Feature","geometry":{"type":"LineString","coordinates":[[110.50293445587158,38.801640897976846],[110.2818775177002,38.552125798527385]]},"properties":{"name":"Shenmu to Tuweihe"}},{"type":"Feature","geometry":{"type":"LineString","coordinates":[[110.28024673461914,38.55078332280415],[109.99863624572754,38.40585023894925],[109.82182502746582,38.223279822433256]]},"properties":{"name":"Tuweihe to Liuqianhe"}},{"type":"Feature","geometry":{"type":"LineString","coordinates":[[109.82242584228514,38.217952731169305],[109.83358383178711,38.01009499931989]]},"properties":{"name":"Liuqianhe to Yuluanhe"}},{"type":"Feature","geometry":{"type":"LineString","coordinates":[[109.83160972595215,38.010636006876105],[109.60604667663573,38.04782070244462]]},"properties":{"name":"Yuluanhe to Wudinghe"}},{"type":"Feature","geometry":{"type":"LineString","coordinates":[[109.60089683532715,38.0470096014159],[109.37301635742188,38.013949591037104],[109.08805847167969,37.53150992479082],[108.81786346435547,37.28743833818718],[108.41720581054688,37.2576591253159],[108.04349899291992,37.16127417758073]]},"properties":{"name":"Wudinghe to Xin'anbian"}},{"type":"Feature","geometry":{"type":"LineString","coordinates":[[108.03723335266113,37.1602481440694],[107.808837890625,37.25110065221123],[107.68077850341797,37.198338844230676],[107.63442993164062,37.231421807404715],[107.66876220703125,37.345050859282736],[107.60370254516602,37.53368798315969]]},"properties":{"name":"Xin'anbian to Gangoukou"}},{"type":"Feature","geometry":{"type":"LineString","coordinates":[[107.48763263225555,37.73147213488731],[107.17785358428955,37.965160538872325]]},"properties":{"name":"Yanchibao nearby to Andingbao"}},{"type":"Feature","geometry":{"type":"LineString","coordinates":[[107.40018725395203,37.78931080153099],[107.40007996559143,37.78917938202553]]},"properties":{"name":"Ningxiahouwei"}},{"type":"Feature","geometry":{"type":"LineString","coordinates":[[107.22679853439331,37.939180035127265],[107.2267958521843,37.939165227596945]]},"properties":{"name":"Andingbao"}},{"type":"Feature","geometry":{"type":"LineString","coordinates":[[107.16188907623291,37.98182206490465],[107.03433394432066,38.11246862778319],[106.88446551561356,38.14603258209324],[107.02895879745482,38.115646766814386]]},"properties":{"name":"Andingbao to Maobulabao"}},{"type":"Feature","geometry":{"type":"LineString","coordinates":[[107.03596472740173,38.11174265896036],[107.50549077987671,37.84033476531444]]},"properties":{"name":"Yanchibao out1"}},{"type":"Feature","geometry":{"type":"LineString","coordinates":[[107.490057349205,37.84618924624982],[107.52614378929138,37.79193914255643]]},"properties":{"name":"Yanchibao out2"}},{"type":"Feature","geometry":{"type":"LineString","coordinates":[[107.22309708595274,37.9968052478355],[107.26575493812561,37.9747137400771]]},"properties":{"name":"Yanchibao out3"}},{"type":"Feature","geometry":{"type":"LineString","coordinates":[[107.02715635299683,38.11240953756736],[107.0271509885788,38.1123715509748]]},"properties":{"name":"Xingwuying"}},{"type":"Feature","geometry":{"type":"LineString","coordinates":[[107.11534202098846,38.01756308668554],[107.11530983448027,38.01755463427202]]},"properties":{"name":"Yingxiongbao"}},{"type":"Feature","geometry":{"type":"LineString","coordinates":[[107.12351202964783,38.00747443746348],[107.11620569229126,38.016586826477884]]},"properties":{"name":"Yingxiongbao nearby"}},{"type":"Feature","geometry":{"type":"LineString","coordinates":[[106.88094377517699,38.14507069215482],[106.88095986843109,38.14502428486339]]},"properties":{"name":"Maobulabao"}},{"type":"Feature","geometry":{"type":"LineString","coordinates":[[106.88496708869934,38.14465724433671],[106.90299153327942,38.13977163249549]]},"properties":{"name":"Maobulabao nearby1"}},{"type":"Feature","geometry":{"type":"LineString","coordinates":[[106.87942028045654,38.14522257035669],[106.83742761611938,38.15620758833308]]},"properties":{"name":"Maobulabao nearby2"}},{"type":"Feature","geometry":{"type":"LineString","coordinates":[[106.89059972763062,38.14780445141138],[106.92259311676025,38.13675065873859]]},"properties":{"name":"Maobulabao out"}},{"type":"Feature","geometry":{"type":"LineString","coordinates":[[106.88025712966919,38.14567820306516],[106.73011779785156,38.19223897573719]]},"properties":{"name":"Maobulabao to Qingshuibao nearby"}},{"type":"Feature","geometry":{"type":"LineString","coordinates":[[106.88445746898651,38.146036800880836],[106.5469229221344,38.26397030531377],[106.43905520439148,38.37279304385418]]},"properties":{"name":"Maobulabao to the Yellow River"}},{"type":"Feature","geometry":{"type":"LineString","coordinates":[[106.79980158805847,38.16811880996301],[106.74589991569519,38.18305570011386]]},"properties":{"name":"Qingshuiying nearby1"}},{"type":"Feature","geometry":{"type":"LineString","coordinates":[[106.82469248771667,38.159134959830794],[106.81221485137938,38.16142953198237]]},"properties":{"name":"Qingshuiying nearby2"}},{"type":"Feature","geometry":{"type":"LineString","coordinates":[[106.80436134338377,38.16304918649583],[106.75494432449341,38.17623284781176]]},"properties":{"name":"Qingshuiying nearby3"}},{"type":"Feature","geometry":{"type":"LineString","coordinates":[[106.71380460262299,38.20459957347269],[106.71752214431761,38.200687578505274]]},"properties":{"name":"Qingshuiying nearby4"}},{"type":"Feature","geometry":{"type":"LineString","coordinates":[[106.71961963176727,38.19855444096966],[106.72120749950408,38.19748784876656]]},"properties":{"name":"Qingshuiying nearby5"}},{"type":"Feature","geometry":{"type":"LineString","coordinates":[[106.71273708343506,38.19700724480234],[106.71473801136017,38.19523235530665]]},"properties":{"name":"Qingshuiying nearby6"}},{"type":"Feature","geometry":{"type":"LineString","coordinates":[[106.70021653175354,38.20325906438885],[106.70023798942564,38.20322534057158]]},"properties":{"name":"Qingshuiyingbao"}},{"type":"Feature","geometry":{"type":"LineString","coordinates":[[106.51952147483826,38.27767472497423],[106.51952147483826,38.27764524682248]]},"properties":{"name":"Hongshanbao"}},{"type":"Feature","geometry":{"type":"LineString","coordinates":[[106.43368005752563,38.36846951565932],[106.43365323543549,38.36844428030074]]},"properties":{"name":"Hengchengbao"}},{"type":"Feature","geometry":{"type":"LineString","coordinates":[[106.44001543521881,38.37208228701974],[106.56532287597656,38.48782665154157],[106.56326293945312,38.63038231909558],[106.88753128051756,38.97622558452135],[106.90692901611327,39.07624290593323],[106.85697555541991,39.14131139505497]]},"properties":{"name":"The Yellow River"}},{"type":"Feature","geometry":{"type":"LineString","coordinates":[[106.64209842681885,39.20525566122042],[106.77947044372559,39.201464543481954]]},"properties":{"name":"Zhenyuanguan"}},{"type":"Feature","geometry":{"type":"LineString","coordinates":[[106.568284034729,39.14244306831442],[106.43299341201782,39.07489361454031]]},"properties":{"name":"Zhenyuanguan to Zhenbeimen"}},{"type":"Feature","geometry":{"type":"LineString","coordinates":[[106.38602256774901,39.04998539415897],[106.5223217010498,38.977159733683465]]},"properties":{"name":"Zhenbeimen"}},{"type":"Feature","geometry":{"type":"LineString","coordinates":[[105.81803798675537,38.35965342836408],[105.86251974105834,38.2959741356036],[105.77695190906523,38.210420806115856],[105.7609176635742,38.12130629745081],[105.84061950445175,38.00430216428236],[105.794917345047,37.95219258540643],[105.78385591506958,37.729444119843485],[105.73277592658997,37.64320640107836],[105.57484745979309,37.59861337871647],[105.57084023952484,37.532399022706365]]},"properties":{"name":"Chimuguan to Shengjinguan nearby"}},{"type":"Feature","geometry":{"type":"LineString","coordinates":[[105.56831359863281,37.5355979859032],[105.45444846153259,37.50968328967973]]},"properties":{"name":"Shengjinguan nearby1"}},{"type":"Feature","geometry":{"type":"LineString","coordinates":[[105.45488767325878,37.5127130210056],[105.43888326734304,37.52709192941126]]},"properties":{"name":"Shengjinguan"}},{"type":"Feature","geometry":{"type":"LineString","coordinates":[[105.43830625712872,37.52759181202197],[105.13877391815184,37.57663207950651]]},"properties":{"name":"Shengjinguan to Zhongwei"}},{"type":"Feature","geometry":{"type":"LineString","coordinates":[[105.13500809669495,37.57504625035719],[105.11242926120758,37.52102712928708]]},"properties":{"name":"Shengjinguan nearby2"}},{"type":"Feature","geometry":{"type":"LineString","coordinates":[[105.11419415473938,37.52199506275551],[105.1031219959259,37.51462356081504]]},"properties":{"name":"Shengjinguan nearby3"}},{"type":"Feature","geometry":{"type":"LineString","coordinates":[[105.09079456329346,37.49420080481394],[105.05866169929503,37.45731590324433]]},"properties":{"name":"Yinshuicun"}},{"type":"Feature","geometry":{"type":"LineString","coordinates":[[105.05693435668945,37.45176286004802],[104.78283405303955,37.334234814101436],[104.71833229064941,37.3509529650799],[104.60246086120605,37.265617338809804]]},"properties":{"name":"Daliushu to Suoqiaobao nearby"}},{"type":"Feature","geometry":{"type":"LineString","coordinates":[[106.61299645900726,37.10112511459195],[106.44836783409117,37.11511455052203]]},"properties":{"name":"Xiamaguan"}},{"type":"Feature","geometry":{"type":"LineString","coordinates":[[106.44318580627441,37.11628663668718],[105.92880249023438,36.914764288955936],[105.33485412597656,36.77161743431175]]},"properties":{"name":"Xiamaguan to Hongchengbao nearby"}},{"type":"Feature","geometry":{"type":"LineString","coordinates":[[104.6024601906538,37.26561787246011],[104.49869155883789,37.196697989220105],[104.30831909179688,37.170781425619985],[104.37071800231934,37.12357540758584],[104.29527282714842,37.097223012922335]]},"properties":{"name":"Suoqiaobao nearby"}},{"type":"Feature","geometry":{"type":"LineString","coordinates":[[104.29263353347777,37.092721654796826],[104.11657333374023,37.1876042712622],[103.88311386108398,37.44373917687616]]},"properties":{"name":"Suoqiaobao nearby to Hongshuibao"}},{"type":"Feature","geometry":{"type":"LineString","coordinates":[[103.88062477111815,37.443910604793544],[103.37955594062805,37.50234674544545],[103.13431620597838,37.57892785811468],[103.03160905838013,37.68654581057189]]},"properties":{"name":"Hongshuibao to Gulanghe"}},{"type":"Feature","geometry":{"type":"LineString","coordinates":[[103.02880883216858,37.68825237098285],[102.93637454509735,37.68992917691904],[102.89517045021057,37.742756727055514],[102.91570544242859,37.87548855420415],[102.83227801322937,38.01103330675752]]},"properties":{"name":"Gulanghe to Hongshuihe"}},{"type":"Feature","geometry":{"type":"LineString","coordinates":[[102.83983111381531,38.01378053424689],[102.77581214904785,38.16307449331213]]},"properties":{"name":"Hongshuihe"}},{"type":"Feature","geometry":{"type":"LineString","coordinates":[[102.75922536849976,38.17611477057842],[102.75240182876587,38.208545079598174]]},"properties":{"name":"Caiqibao nearby"}},{"type":"Feature","geometry":{"type":"LineString","coordinates":[[102.77584299445152,38.1630059539977],[102.93502807617188,38.314723507247336],[102.97897338867188,38.4546641418137],[103.22479248046875,38.5632002667659],[103.19320678710938,38.64476310916202],[103.13261032104492,38.69013250365778],[103.01493644714355,38.68604574559684],[102.94807434082031,38.480066580224396],[102.81572341918945,38.37005932551045],[102.6161241531372,38.31325875558195],[102.67781496047974,38.28508599475867]]},"properties":{"name":"Zhenfanwei nearby"}},{"type":"Feature","geometry":{"type":"LineString","coordinates":[[102.61612381786108,38.31325875558195],[102.48003959655762,38.24984202323856],[101.91146492958069,38.3269707034853]]},"properties":{"name":"Zhenfanwei nearby to Yongchangwei nearby"}},{"type":"Feature","geometry":{"type":"LineString","coordinates":[[101.90317656844854,38.33232346721515],[101.70302510261536,38.35740717342451],[101.74801647663116,38.35555417096505]]},"properties":{"name":"Sandaowantan nearby1"}},{"type":"Feature","geometry":{"type":"LineString","coordinates":[[101.79246872663498,38.3592033416656],[101.58937454223633,38.40504312038236],[101.70304924249649,38.35713585139693]]},"properties":{"name":"Sandaowantan nearby2"}},{"type":"Feature","geometry":{"type":"LineString","coordinates":[[101.58937454223633,38.40504312038236],[101.53152465820312,38.43296754484482],[101.63004219532013,38.40199952971214]]},"properties":{"name":"Sandaowantan nearby3"}},{"type":"Feature","geometry":{"type":"LineString","coordinates":[[101.53152398765086,38.43296754484482],[101.13387107849121,38.75791515549391]]},"properties":{"name":"Sandaowantan nearby to Shandanwei nearby"}},{"type":"Feature","geometry":{"type":"LineString","coordinates":[[101.13387107849121,38.75791437115094],[101.06675148010254,38.81963192146885],[100.71613311767578,38.89343778664929],[100.57914733886719,39.04745242741611],[100.35221099853516,39.1837034259929]]},"properties":{"name":"Shandanwei nearby to Gansuzhen nearby"}},{"type":"Feature","geometry":{"type":"LineString","coordinates":[[100.34631013870239,39.180742803306245],[100.29221534729004,39.340603880327656],[100.09624242782593,39.38437653107324],[100.13111114501953,39.43957369848022]]},"properties":{"name":"Gansuzhen nearby"}},{"type":"Feature","geometry":{"type":"LineString","coordinates":[[100.09624242782593,39.38437704934753],[99.8906672000885,39.395727887567716]]},"properties":{"name":"Gansuzhen nearby to Wubabao"}},{"type":"Feature","geometry":{"type":"LineString","coordinates":[[99.88478746265172,39.3967811007377],[99.84865307807922,39.41191011950157],[99.87104415893553,39.39100183494568]]},"properties":{"name":"Wubabao nearby"}},{"type":"Feature","geometry":{"type":"LineString","coordinates":[[99.84865307807922,39.41191037853645],[99.77130889892578,39.42953884011591],[99.68178749084473,39.537708069627946],[99.69983875751495,39.489978841487066]]},"properties":{"name":"Jiubabao nearby"}},{"type":"Feature","geometry":{"type":"LineString","coordinates":[[99.6817871555686,39.53770832819485],[99.65517997741699,39.65648908799105],[99.51375246047974,39.764626390069324]]},"properties":{"name":"Xiaojiazhuang nearby"}},{"type":"Feature","geometry":{"type":"LineString","coordinates":[[99.51921343803406,39.76026357490492],[99.48176443576813,39.79317991915651]]},"properties":{"name":"Zhenyisuo nearby1"}},{"type":"Feature","geometry":{"type":"LineString","coordinates":[[99.50246572494507,39.76616856673157],[99.50427889823914,39.76990428465333]]},"properties":{"name":"Zhenyisuo nearby2"}},{"type":"Feature","geometry":{"type":"LineString","coordinates":[[99.48323428630829,39.79171666363684],[99.47414159774779,39.798191848623404]]},"properties":{"name":"Zhenyisuo nearby3"}},{"type":"Feature","geometry":{"type":"LineString","coordinates":[[99.4830733537674,39.7916012506095],[99.46979641914368,39.80022784064546]]},"properties":{"name":"Zhenyisuo nearby4"}},{"type":"Feature","geometry":{"type":"LineString","coordinates":[[99.4691526889801,39.79485335069366],[99.46916878223419,39.79478328171692]]},"properties":{"name":"Zhenyisuo"}},{"type":"Feature","geometry":{"type":"LineString","coordinates":[[99.41839456558228,39.78940424427065],[99.46156740188599,39.730532994192885],[99.42982077598572,39.717998421202985]]},"properties":{"name":"Heihexi 1"}},{"type":"Feature","geometry":{"type":"LineString","coordinates":[[99.4182550907135,39.78939600021228],[99.45949137210846,39.73334243936073]]},"properties":{"name":"Heihexi 2"}},{"type":"Feature","geometry":{"type":"LineString","coordinates":[[99.42119479179382,39.79589613349981],[99.32703316211699,39.76523666731692],[98.87512922286987,39.84198122453028]]},"properties":{"name":"Heihexi to Yuanyangchi"}},{"type":"Feature","geometry":{"type":"LineString","coordinates":[[99.42121624946594,39.79604039074594],[99.3284922838211,39.76526140817235],[99.18043971061707,39.79710788496337]]},"properties":{"name":"Heihexi to Yanchibao nearby"}},{"type":"Feature","geometry":{"type":"LineString","coordinates":[[99.15421843528748,39.798863650225044],[99.05126452445984,39.80837944773777]]},"properties":{"name":"Yanchibao nearby to Shuangjingzibao neary"}},{"type":"Feature","geometry":{"type":"LineString","coordinates":[[98.84516358375551,39.857948253308045],[98.69084000587465,39.82027543279068],[98.38484823703766,39.91850844723661]]},"properties":{"name":"Yuanyangchi to Yemawan"}},{"type":"Feature","geometry":{"type":"LineString","coordinates":[[98.38277488946915,39.917771986655616],[98.17718893289566,39.84577666468031]]},"properties":{"name":"Yemawan to Shiguan"}},{"type":"Feature","geometry":{"type":"LineString","coordinates":[[98.17903697490692,39.84973611688741],[98.16906452178955,39.854534413585775]]},"properties":{"name":"Shiguan nearby"}},{"type":"Feature","geometry":{"type":"LineString","coordinates":[[98.20663154125214,39.82458500445632],[98.21927547454833,39.80406061753682]]},"properties":{"name":"Shiguan nearby to Jiayuguan"}},{"type":"Feature","geometry":{"type":"LineString","coordinates":[[98.2151797413826,39.80190522198238],[98.21518778800964,39.80187637301775]]},"properties":{"name":"Jiayuguan"}},{"type":"Feature","geometry":{"type":"LineString","coordinates":[[98.2156652212143,39.80033911782437],[98.20043563842773,39.74336227378032]]},"properties":{"name":"Jiayuguan to Diyidun"}},{"type":"Feature","geometry":{"type":"LineString","coordinates":[[105.33485412597656,36.77162602840945],[104.81300354003906,36.65575035624347],[104.40170288085938,36.38370163392931],[104.18540954589844,36.33116860760173],[104.1064453125,36.21824109074759],[104.00688171386717,36.17058546525473],[104.051513671875,36.10681461011844],[104.01031494140625,36.05312377936524]]},"properties":{"name":"Hongchengbao to the Yellow River"}},{"type":"Feature","geometry":{"type":"LineString","coordinates":[[104.01615142822266,36.06214418069573],[103.61068725585938,36.14480610055561],[103.5516357421875,36.12040491952555],[103.44863891601562,36.180839414525735],[103.39061737060545,36.57059663633864],[103.2330322265625,36.78014230571485],[103.13518524169922,37.01913878493987],[102.87348747253418,37.160213942712495],[102.85331726074217,37.252876961720574],[102.93721675872803,37.38028602635932],[102.92670249938965,37.48514304187474],[103.00935745239258,37.55845891987078],[102.93635845184326,37.68996738218216]]},"properties":{"name":"Lanzhou to Zhuanglangwei"}}]}