{"type":"FeatureCollection","features":[{"type":"Feature","geometry":{"type":"LineString","coordinates":[[119.11471,40.09722],[119.10212,40.10001],[119.0909,40.09052],[119.06928,40.09525],[119.03489,40.11923],[119.03325,40.11379],[119.01759,40.139],[118.98506,40.13335],[118.93321,40.14123],[118.9032,40.15712],[118.90359,40.16859],[118.87513,40.16865],[118.87906,40.1563],[118.9032,40.15713],[118.85712,40.18099],[118.82636,40.1816],[118.83027,40.17458],[118.83959,40.1784],[118.83229,40.17437],[118.78099,40.21187],[118.7938,40.20086],[118.77141,40.19294],[118.74916,40.1892],[118.72554,40.19787],[118.65809,40.24544],[118.59415,40.25763],[118.59988,40.25729],[118.58819,40.26019],[118.59144,40.25627],[118.56562,40.26601],[118.56112,40.28297],[118.52685,40.29744],[118.53182,40.36079],[118.53419,40.37771],[118.55508,40.39792],[118.54661,40.40638],[118.53797,40.41757],[118.51236,40.40295],[118.47113,40.40152],[118.46667,40.41017],[118.45176,40.41279],[118.39754,40.41302],[118.38378,40.43427],[118.36283,40.42611],[118.3507,40.43209],[118.31905,40.42843],[118.32088,40.41902],[118.30409,40.41629],[118.26513,40.42308],[118.21903,40.43362],[118.21454,40.41602],[118.17566,40.40569],[118.13197,40.38002],[118.11476,40.35295],[118.0696,40.34981],[118.0588,40.31808],[117.99545,40.29106],[117.96191,40.29264],[117.94513,40.28071],[117.95059,40.28123],[117.94003,40.28875],[117.92868,40.28228],[117.90443,40.28571],[117.89418,40.26749],[117.88127,40.27221],[117.84485,40.261],[117.80263,40.26037],[117.7676,40.24385],[117.75978,40.24421],[117.744,40.22602],[117.70685,40.23992],[117.68737,40.23716],[117.6804,40.22481],[117.64954,40.21446],[117.63923,40.20349],[117.61031,40.20671],[117.6034,40.19442],[117.56804,40.18991],[117.53189,40.18028],[117.51933,40.20456],[117.48741,40.21142],[117.49637,40.22769],[117.47062,40.23247],[117.44599,40.24981],[117.4197,40.24376],[117.40917,40.24757],[117.40597,40.23206],[117.39085,40.23383],[117.38284,40.2265],[117.36308,40.23231],[117.34458,40.22794],[117.33325,40.24503],[117.32916,40.27806],[117.3134,40.27596],[117.30096,40.27763],[117.28969,40.24995],[117.27576,40.24234],[117.24541,40.2402],[117.19376,40.25173],[117.17878,40.25184],[117.18021,40.26926],[117.1673,40.27854],[117.17644,40.30401],[117.16981,40.31136],[117.19043,40.32203],[117.21268,40.30692],[117.23019,40.31009],[117.21678,40.32538],[117.23157,40.34124],[117.20668,40.36223],[117.21931,40.36724],[117.22025,40.38188],[117.23677,40.39187],[117.22969,40.42136],[117.24281,40.41912],[117.26022,40.44288],[117.22885,40.45602],[117.23076,40.46728],[117.20171,40.49841],[117.20679,40.51066],[117.22706,40.5115],[117.23941,40.52244],[117.23599,40.52812],[117.24627,40.53241],[117.24083,40.53872],[117.24312,40.54693],[117.30708,40.57847],[117.34119,40.57671],[117.33583,40.58661],[117.34455,40.60696],[117.4311,40.62382],[117.45211,40.63605],[117.4936,40.63364],[117.49781,40.64569],[117.50794,40.65951],[117.48977,40.67348],[117.47548,40.67743],[117.46078,40.67092],[117.41211,40.68539],[117.39428,40.6831],[117.42395,40.68097],[117.33599,40.67192],[117.3304,40.66162],[117.31036,40.65749],[117.27889,40.6597],[117.2549,40.6797],[117.23512,40.67842],[117.20076,40.69347],[117.1593,40.69767],[117.13316,40.69516],[117.10561,40.7037],[117.11062,40.68508],[117.08454,40.68002],[117.0681,40.68845],[117.06324,40.68113],[117.03707,40.67716],[117.03452,40.66339],[117.00821,40.65865],[116.99635,40.67609],[116.97767,40.68078],[116.95409,40.70154],[116.94739,40.69004],[116.93388,40.69165],[116.9291,40.70786],[116.91269,40.7182],[116.89625,40.72044],[116.89636,40.71092],[116.88243,40.68497],[116.88622,40.67813],[116.87591,40.67683],[116.88,40.6622],[116.8598,40.66324],[116.85657,40.65033],[116.85369,40.65996],[116.84687,40.63597],[116.81887,40.64174],[116.83806,40.60722],[116.81669,40.60175],[116.82258,40.58777],[116.80014,40.57186],[116.79642,40.5569],[116.81006,40.54876],[116.80456,40.53585],[116.78967,40.53167],[116.79362,40.52254],[116.77095,40.50628],[116.76156,40.48735],[116.73845,40.49311],[116.73335,40.47191],[116.71753,40.46471],[116.70582,40.47031],[116.70218,40.46123],[116.68849,40.47384],[116.68721,40.45132],[116.66396,40.45316],[116.66625,40.44002],[116.64008,40.43974],[116.63279,40.42155],[116.62267,40.42219],[116.63449,40.42507],[116.58767,40.44181],[116.56818,40.42914],[116.56885,40.42264],[116.54468,40.45474],[116.50001,40.45442],[116.49465,40.46316],[116.47462,40.45895],[116.4798,40.45155],[116.45757,40.45334],[116.4475,40.46303],[116.43019,40.45474],[116.41724,40.46869],[116.40812,40.4526],[116.37468,40.44451],[116.37802,40.42919],[116.37021,40.42122],[116.32255,40.41397],[116.31165,40.42123],[116.33773,40.43433],[116.35039,40.4213],[116.30863,40.4335],[116.30153,40.40899],[116.26461,40.4102],[116.25109,40.39573]]},"properties":{}},{"type":"Feature","geometry":{"type":"LineString","coordinates":[[111.10245,39.37734],[111.06308,39.3763],[111.00864,39.35978],[111.01144,39.33613],[111.01932,39.33159],[110.92107,39.29247],[110.90136,39.28377],[110.89516,39.26598],[110.85986,39.27062],[110.83848,39.26133],[110.83824,39.22994],[110.80894,39.21293],[110.79719,39.19401],[110.77823,39.19158],[110.78017,39.17683],[110.76028,39.17351],[110.71798,39.14204],[110.70814,39.11852],[110.6862,39.11534],[110.66517,39.09615],[110.65316,39.09501],[110.6279,39.05411],[110.58413,39.02352],[110.56692,38.99651],[110.5172,38.98415],[110.4704,38.95349],[110.4668,38.92247],[110.49871,38.87189],[110.48388,38.85044],[110.44882,38.84195],[110.45296,38.82739],[110.44257,38.79642],[110.45032,38.77269],[110.44691,38.74722],[110.42745,38.7234],[110.40571,38.72099],[110.3696,38.68212],[110.34905,38.67588],[110.33728,38.67167],[110.33372,38.65924],[110.26545,38.62733],[110.24995,38.59413],[110.25586,38.58667],[110.23083,38.56121],[110.21579,38.56125],[110.1904,38.53575],[110.12727,38.50559],[110.08146,38.49901],[110.04798,38.48432],[110.02469,38.49264],[109.9683,38.45785],[109.86195,38.42888],[109.85493,38.40356],[109.76258,38.34465],[109.72705,38.33725],[109.66,38.27629],[109.57416,38.24483],[109.51784,38.18194],[109.50638,38.15568],[109.45237,38.13008],[109.43587,38.11045],[109.40086,38.09335],[109.37184,38.06141],[109.32252,38.04503],[109.27723,38.03836],[109.24526,38.02158],[109.24416,38.00545],[109.23045,37.99956],[109.22089,37.97703],[109.2235,37.96019],[109.20377,37.91013],[109.16467,37.85849],[109.11149,37.81309],[109.09233,37.74179],[109.07804,37.71623],[109.05197,37.69747],[109.05379,37.68574],[109.04157,37.66976],[109.04863,37.6549],[109.02862,37.62941],[108.9965,37.57343],[108.97315,37.56026],[108.95128,37.53453],[108.95653,37.53013],[108.80012,37.53599],[108.78953,37.53652],[108.78643,37.52509],[108.7574,37.53459],[108.79224,37.47057],[108.7993,37.46829],[108.75504,37.37975],[108.76065,37.37222],[108.75292,37.36607],[108.75967,37.36038],[108.75029,37.33683],[108.71174,37.33356],[108.67422,37.30686],[108.65271,37.30983],[108.5966,37.30216],[108.55611,37.30832],[108.53255,37.29646],[108.46933,37.28529],[108.44937,37.30048],[108.36517,37.32193],[108.31942,37.35402],[108.24684,37.38351],[108.22802,37.40247],[108.1937,37.40869],[108.13784,37.43932],[108.10287,37.46304],[108.08877,37.48365],[108.06406,37.53013],[107.93499,37.52362],[107.87871,37.53301],[107.7956,37.5308],[107.70909,37.5479],[107.60386,37.53358],[107.5898,37.56111],[107.59383,37.59424],[107.57778,37.59475],[107.57744,37.58091],[107.59347,37.58092],[107.56066,37.65834],[107.48764,37.73147],[107.38857,37.79951],[107.25915,37.86707],[107.2327,37.93983],[107.22199,37.93763],[107.18882,37.95469],[107.16189,37.98182],[107.17785,37.96516],[107.13521,37.99506],[107.03433,38.11247],[106.88447,38.14603],[107.02896,38.11565],[107.03293,38.10733],[107.02715,38.11237],[107.14646,38.061],[107.23733,37.98723],[107.50549,37.84033],[107.5065,37.83333],[107.52614,37.79194]]},"properties":{}},{"type":"Feature","geometry":{"type":"LineString","coordinates":[[105.81804,38.35965],[105.86252,38.29597],[105.8287,38.22712],[105.77695,38.21042],[105.76092,38.12131],[105.77776,38.07859],[105.84062,38.0043],[105.79492,37.95219],[105.79974,37.93796],[105.792,37.90942],[105.80249,37.86119],[105.76914,37.81967],[105.76533,37.78673],[105.78386,37.72944],[105.73872,37.69086],[105.74968,37.67852],[105.73258,37.66853],[105.72633,37.65142],[105.73278,37.64321],[105.6553,37.62286],[105.65473,37.61239],[105.64254,37.6058],[105.6091,37.60804],[105.57485,37.59861],[105.57084,37.5324],[105.55082,37.51534],[105.47337,37.51629],[105.45445,37.50968],[105.43888,37.52709],[105.40197,37.52531],[105.35757,37.56359],[105.28356,37.58195],[105.20786,37.59149],[105.18469,37.58138],[105.13877,37.57663],[105.12031,37.52602],[105.11243,37.52103],[105.10312,37.51462],[105.07101,37.48187],[105.05866,37.45732],[105.03172,37.43531],[105.01386,37.43642],[104.9627,37.41608],[104.95248,37.38799],[104.93053,37.39762],[104.90832,37.38407],[104.82732,37.37908],[104.8286,37.36039],[104.8203,37.35071],[104.78283,37.33423],[104.75116,37.33539],[104.71833,37.35095],[104.72116,37.33577],[104.71359,37.32606],[104.68589,37.30751],[104.67748,37.30929],[104.6743,37.29591],[104.60246,37.26562],[104.58006,37.25739],[104.56512,37.22923],[104.49869,37.1967],[104.41097,37.18644],[104.38454,37.17441],[104.33368,37.18012],[104.30832,37.17078],[104.37072,37.12358],[104.32428,37.09715],[104.29527,37.09722],[104.26319,37.13021],[104.22456,37.13103],[104.2067,37.15164],[104.14346,37.17097],[104.11657,37.1876],[103.97963,37.31377],[103.9317,37.41239],[103.90543,37.43698],[103.88311,37.44374],[103.78459,37.45485],[103.70211,37.47848],[103.44573,37.48808],[103.37956,37.50235],[103.27707,37.55684],[103.13432,37.57893],[103.11877,37.60049],[103.08092,37.61806],[103.08834,37.63768],[103.0736,37.66544],[103.03161,37.68655],[102.99098,37.70047],[102.93637,37.68993],[102.89517,37.74276],[102.8902,37.75588],[102.91571,37.87549],[102.89867,37.90723],[102.88396,37.96497],[102.83228,38.01103],[102.82887,38.01595],[102.81218,38.05317],[102.81519,38.11283],[102.80512,38.13433],[102.77581,38.16307],[102.93503,38.31472],[102.97897,38.45466],[103.0751,38.48047],[103.22479,38.5632],[103.19321,38.64476],[103.13261,38.69013],[103.03322,38.69278],[103.01494,38.68605],[102.98425,38.64423],[102.95949,38.51594],[102.94327,38.49344],[102.94807,38.48007],[102.89967,38.46233],[102.81572,38.37006],[102.79633,38.36131],[102.72062,38.36723],[102.61612,38.31326],[102.67781,38.28509]]},"properties":{}},{"type":"Feature","geometry":{"type":"LineString","coordinates":[[116.04787,40.9143],[116.0288,40.9268],[116.02927,40.95319],[116.00394,40.98644],[116.00604,41.01056],[115.98289,41.01807],[115.98805,41.0268],[115.98303,41.03348],[115.97939,41.05498],[115.9632,41.06937],[115.94566,41.08054],[115.91686,41.08403],[115.93215,41.13671],[115.9311,41.14778],[115.91246,41.15277],[115.9128,41.16016],[115.89319,41.17119],[115.8796,41.19346],[115.86463,41.19535],[115.84622,41.21195],[115.85216,41.22036],[115.83116,41.25445],[115.82925,41.27323],[115.81609,41.27988],[115.79267,41.32672],[115.74481,41.36604],[115.7189,41.36937],[115.70977,41.35714],[115.68948,41.35452],[115.68527,41.34297],[115.65618,41.31714],[115.61789,41.31666],[115.61175,41.3008],[115.58544,41.28293],[115.58892,41.26551],[115.57476,41.26414],[115.56332,41.25096],[115.5097,41.24115],[115.48227,41.21259],[115.51122,41.17592],[115.5174,41.14728],[115.50853,41.11289],[115.49276,41.11369],[115.48703,41.10076],[115.46172,41.09922],[115.49245,41.08318],[115.50371,41.06847],[115.47081,40.98886],[115.48309,40.94274],[115.49988,40.91697],[115.47773,40.89084],[115.45998,40.88565],[115.42993,40.85657],[115.43707,40.83533],[115.42319,40.80497],[115.43141,40.79802],[115.4275,40.79197],[115.44537,40.79309],[115.4515,40.78548],[115.37416,40.77533],[115.34624,40.79154],[115.30637,40.79383],[115.27174,40.80861],[115.25746,40.79682],[115.23016,40.79094],[115.15569,40.79941],[115.14878,40.80968],[115.11551,40.81809],[115.10445,40.8311],[115.04427,40.80925],[115.02346,40.81606],[115.0051,40.82368],[114.96877,40.81317],[114.89551,40.84588],[114.86679,40.8472],[114.811,40.85911],[114.80223,40.89686],[114.79101,40.90245],[114.7926,40.94049],[114.80287,40.95022],[114.79895,40.98126],[114.76495,41.0064],[114.66542,41.02028],[114.58424,40.99359],[114.52715,40.99696],[114.51962,40.97999],[114.47921,40.95386],[114.43692,40.94656],[114.40169,40.88465],[114.38331,40.86978],[114.36271,40.86506],[114.36384,40.81805],[114.37794,40.80874],[114.3833,40.78271],[114.3717,40.76639],[114.37266,40.74514],[114.34132,40.74223],[114.31882,40.73236],[114.30438,40.74653],[114.28777,40.74287],[114.25239,40.7555],[114.22288,40.75225],[114.19554,40.76868],[114.12748,40.74617],[114.15696,40.71594],[114.17273,40.67268],[114.19732,40.64543]]},"properties":{}},{"type":"Feature","geometry":{"type":"LineString","coordinates":[[115.49429,40.69408],[115.4833,40.70486],[115.48627,40.73221],[115.43957,40.75667],[115.44326,40.77417],[115.46921,40.8022],[115.50208,40.79368],[115.57319,40.80671],[115.62854,40.79599],[115.67973,40.79632],[115.75771,40.73542],[115.78448,40.72981],[115.79429,40.73461],[115.82474,40.72305],[115.85815,40.74108],[115.88688,40.7453],[115.92118,40.72082],[115.94516,40.72217],[115.95823,40.71409],[115.98259,40.72648],[116.03213,40.7322],[116.06672,40.71982],[116.06193,40.71056],[116.07148,40.69989],[116.0681,40.69371],[116.08613,40.71004],[116.0924,40.72619],[116.12524,40.72883],[116.13246,40.75042],[116.15799,40.75468],[116.16714,40.73695],[116.16421,40.71013],[116.16289,40.67565],[116.18065,40.65918],[116.1938,40.66221],[116.19185,40.63694],[116.20631,40.62721],[116.19047,40.61086],[116.18703,40.59942],[116.19406,40.59223],[116.23917,40.59381],[116.27198,40.61382],[116.31011,40.59691],[116.32219,40.59592],[116.36791,40.55858],[116.39874,40.5524],[116.41221,40.53735],[116.43036,40.53887],[116.47044,40.51268],[116.49162,40.51683],[116.51716,40.49701],[116.50239,40.48194],[116.50275,40.48177],[116.47363,40.47591],[116.47753,40.48337],[116.42987,40.49618],[116.40124,40.491],[116.38633,40.49791],[116.31938,40.49934],[116.28549,40.48387],[116.25722,40.50102],[116.23987,40.49591],[116.1862,40.48356],[116.18278,40.4728],[116.1885,40.46933],[116.17782,40.46153],[116.12612,40.46407],[116.07688,40.44111],[116.0151,40.38932],[115.99314,40.38703],[115.99145,40.37042],[115.9665,40.35873],[115.96336,40.32491],[115.99626,40.33783],[116.02468,40.36901],[116.01214,40.37159],[116.02348,40.37575],[116.02297,40.33941],[116.04443,40.3356],[116.04335,40.32788],[116.05833,40.3161],[116.07057,40.31785],[116.07208,40.28808],[116.0589,40.28842],[116.07009,40.29375]]},"properties":{}},{"type":"Feature","geometry":{"type":"LineString","coordinates":[[112.15966,40.05009],[112.13583,40.02643],[112.12512,39.99534],[112.08659,39.95209],[112.06613,39.91323],[112.04657,39.90058],[112.01314,39.83072],[111.96445,39.79479],[111.95897,39.71989],[111.96523,39.70968],[111.94834,39.68502],[111.92841,39.6703],[111.89777,39.66335],[111.89015,39.65343],[111.84535,39.64449],[111.82564,39.63128],[111.82809,39.62244],[111.82972,39.63433],[111.85523,39.61104],[111.87567,39.64918],[111.87777,39.61121],[111.87034,39.60266],[111.85523,39.61104],[111.88432,39.59349],[111.86485,39.57982],[111.87153,39.55833],[111.84573,39.543],[111.86019,39.51707],[111.87545,39.51142],[111.87742,39.47924],[111.88036,39.44416],[111.92727,39.43291],[111.96015,39.39973],[111.95941,39.38808],[111.99653,39.3823],[112.01759,39.36512],[112.00455,39.37338],[112.03007,39.36098],[112.03449,39.33883],[112.05738,39.30469],[112.06775,39.30611],[112.05455,39.31008],[112.09813,39.30902],[112.16628,39.27644],[112.17413,39.26497],[112.19704,39.26063],[112.20948,39.23475],[112.22359,39.22629],[112.22347,39.21322],[112.23478,39.20446],[112.22809,39.18058],[112.2624,39.14367],[112.25937,39.12212],[112.27931,39.11347],[112.29022,39.09797],[112.34769,39.09881],[112.38382,39.07907],[112.41151,39.05099],[112.44549,39.0675],[112.44118,39.05813],[112.46918,39.0741],[112.48193,39.06253],[112.49492,39.06263],[112.51311,39.07481],[112.54514,39.07368],[112.55628,39.0843],[112.57712,39.07992],[112.61309,39.0908],[112.63853,39.08971],[112.67943,39.11078],[112.68683,39.12488],[112.73415,39.14757],[112.75112,39.17423],[112.79482,39.18345],[112.78677,39.19645],[112.79052,39.21513],[112.83579,39.23738]]},"properties":{}},{"type":"Feature","geometry":{"type":"LineString","coordinates":[[106.613,37.10113],[106.57461,37.09197],[106.4443,37.11628],[106.44274,37.11116],[106.44837,37.11511],[106.0675,36.9861],[105.99403,36.93672],[105.9288,36.91476],[105.79697,36.90818],[105.37537,36.77739],[105.33485,36.77162],[105.10002,36.69485],[104.813,36.65575],[104.59911,36.5066],[104.49715,36.44614],[104.41818,36.41797],[104.4017,36.3837],[104.2218,36.33172],[104.18541,36.33117],[104.14146,36.28469],[104.13734,36.25258],[104.10645,36.21824],[104.03435,36.19663],[104.00688,36.17059],[104.00826,36.15451],[104.04945,36.14176],[104.05151,36.10681],[104.03503,36.06464],[104.01031,36.05312],[103.95126,36.05715],[103.88706,36.08296],[103.68862,36.10127],[103.66253,36.13177],[103.61069,36.14481],[103.55164,36.1204],[103.51284,36.15201],[103.50494,36.17253],[103.44864,36.18084],[103.41019,36.35993],[103.39062,36.5706],[103.36555,36.61883],[103.23303,36.78014],[103.20145,36.87523],[103.17329,36.89994],[103.13519,37.01914],[102.94962,37.13336],[102.87349,37.16021],[102.87503,37.18649],[102.86001,37.20907],[102.85332,37.25288],[102.86362,37.26995],[102.89967,37.29072],[102.92404,37.36552],[102.93722,37.38029],[102.92215,37.46042],[102.9267,37.48514],[102.95443,37.49747],[102.9697,37.53246],[103.00936,37.55846],[102.93636,37.68997]]},"properties":{}},{"type":"Feature","geometry":{"type":"LineString","coordinates":[[113.98182,40.47979],[113.94664,40.46955],[113.91076,40.47103],[113.85413,40.44245],[113.82841,40.43922],[113.82925,40.43311],[113.82166,40.42848],[113.76059,40.42241],[113.73213,40.43226],[113.66215,40.42251],[113.58431,40.3709],[113.56807,40.34927],[113.52914,40.33259],[113.5047,40.33543],[113.36195,40.31184],[113.31062,40.31752],[113.31604,40.315],[113.29461,40.33496],[113.28397,40.36354],[113.28719,40.35197],[113.25187,40.39958],[113.24805,40.41348],[113.11948,40.3754],[113.02148,40.36366],[112.85411,40.32061],[112.88728,40.29759],[112.84733,40.20285],[112.77357,40.17545],[112.74025,40.16236],[112.72466,40.16456],[112.62003,40.2374],[112.51829,40.26233],[112.45625,40.29878],[112.40534,40.29434],[112.38448,40.27152],[112.36449,40.26788],[112.35216,40.2551],[112.30871,40.24874],[112.29706,40.23776],[112.28332,40.22214],[112.29287,40.21048],[112.28095,40.19861],[112.22653,40.16897],[112.21879,40.15502],[112.22538,40.13198],[112.17673,40.08339],[112.17554,40.06075],[112.15967,40.05009],[112.17342,40.07159],[112.17708,40.10582],[112.19001,40.12121],[112.1897,40.13285],[112.21925,40.15296]]},"properties":{}},{"type":"Feature","geometry":{"type":"LineString","coordinates":[[111.29319,39.4172],[111.25833,39.41097],[111.19064,39.41622],[111.12988,39.38543],[111.13542,39.38148],[111.12995,39.38548],[111.11489,39.37326],[111.15557,39.37034],[111.15284,39.34022],[111.11396,39.34356],[111.08851,39.29014],[111.0595,39.25811],[110.94992,39.18726],[110.8893,39.07997],[110.57653,38.96164],[110.52195,38.82874],[110.50465,38.80417],[110.40985,38.66916],[110.28188,38.55213],[110.13013,38.48369],[109.99864,38.40585],[109.81762,38.25517],[109.82183,38.22328],[109.84989,38.0055],[109.83358,38.01009],[109.66227,38.05593],[109.60605,38.04782],[109.37302,38.01395],[109.31242,37.9488],[109.08806,37.53151],[108.81786,37.28744],[108.70354,37.26312],[108.45566,37.24126],[108.41721,37.25766],[108.18563,37.1822],[108.0435,37.16127],[107.80884,37.2511],[107.76901,37.24345],[107.74498,37.22158],[107.68078,37.19834],[107.63443,37.23142],[107.6564,37.28389],[107.66876,37.34505],[107.65503,37.40726],[107.63718,37.45633],[107.60542,37.50741],[107.6037,37.53369]]},"properties":{}},{"type":"Feature","geometry":{"type":"LineString","coordinates":[[119.74103,40.02714],[119.74299,40.02359],[119.75787,40.01359],[119.75088,40.01139],[119.74197,40.01086],[119.74714,40.00118],[119.76088,40.00484],[119.77526,39.99677],[119.79254,39.97514],[119.79463,39.97195],[119.79455,39.96738],[119.7873,39.9928],[119.75085,40.01125],[119.72671,40.04476],[119.74938,40.05647],[119.76571,40.08097],[119.74253,40.0939],[119.74806,40.0979],[119.7301,40.10217],[119.75643,40.14256],[119.74832,40.1491],[119.74701,40.18886],[119.73775,40.20586],[119.76355,40.20875],[119.78431,40.22188],[119.80737,40.21473],[119.85086,40.22197],[119.86188,40.23261],[120.23094,40.38369],[120.92342,40.95929],[121.11654,41.40012],[121.06899,41.53146],[121.10161,41.56357],[121.38382,41.62263],[121.53625,41.77797],[121.94515,41.80971],[121.99699,41.75441],[122.1199,41.69086],[122.2435,41.38093],[122.39594,41.37475],[122.39799,41.27316],[122.37946,41.14816],[122.41997,41.07573]]},"properties":{}},{"type":"Feature","geometry":{"type":"LineString","coordinates":[[119.73775,40.20586],[119.70029,40.2037],[119.67027,40.22381],[119.62154,40.2219],[119.6129,40.23091],[119.54812,40.22523],[119.55545,40.19282],[119.51839,40.16551],[119.52039,40.14902],[119.49174,40.15565],[119.50891,40.17242],[119.5186,40.16566],[119.50445,40.13878],[119.4828,40.10551],[119.44468,40.09178],[119.43324,40.09874],[119.40828,40.07208],[119.38016,40.0724],[119.38297,40.08277],[119.41807,40.08567],[119.36115,40.08347],[119.36076,40.09697],[119.34765,40.10506],[119.35336,40.11661],[119.33061,40.13237],[119.33808,40.15712],[119.30493,40.16629],[119.29163,40.16254],[119.28818,40.15925],[119.21404,40.15821],[119.19063,40.1407],[119.19871,40.14578],[119.13112,40.11215],[119.1147,40.09726],[119.12029,40.0872],[119.13894,40.08636],[119.13761,40.09807],[119.14425,40.10116],[119.13873,40.1158],[119.07416,40.09402],[119.03222,40.1164],[119.03738,40.1152]]},"properties":{}},{"type":"Feature","geometry":{"type":"LineString","coordinates":[[114.99986,39.55148],[114.97218,39.54337],[114.9502,39.49734],[114.92886,39.48272],[114.9318,39.46809],[114.89616,39.46409],[114.90408,39.45034],[114.8941,39.43672],[114.87844,39.43611],[114.83217,39.36383],[114.84205,39.36606],[114.8409,39.3728],[114.82626,39.33924],[114.83613,39.32454],[114.8429,39.305],[114.82073,39.27276],[114.78435,39.27662],[114.79108,39.27546],[114.76305,39.27411],[114.73968,39.25818],[114.72166,39.26087],[114.72914,39.2669],[114.73087,39.25923],[114.76242,39.27334],[114.74422,39.27684],[114.74442,39.2721],[114.74276,39.26923],[114.69137,39.26603],[114.67418,39.2391],[114.64432,39.23807],[114.64226,39.24079],[114.63919,39.24151],[114.60306,39.22802],[114.58854,39.23584],[114.57549,39.23714],[114.57056,39.22993],[114.54504,39.23428],[114.48131,39.21175]]},"properties":{}},{"type":"Feature","geometry":{"type":"LineString","coordinates":[[106.85698,39.14131],[106.90247,39.09197],[106.90693,39.07624],[106.88118,39.00585],[106.88753,38.97623],[106.8611,38.94779],[106.82899,38.87874],[106.78247,38.85281],[106.75432,38.82032],[106.71965,38.79905],[106.72308,38.77229],[106.70815,38.75502],[106.6351,38.7048],[106.58648,38.64714],[106.56326,38.63038],[106.56485,38.57427],[106.5562,38.54476],[106.57839,38.5243],[106.56532,38.48783],[106.53717,38.45668],[106.5297,38.42408],[106.51558,38.40713],[106.45143,38.38395],[106.44002,38.37208],[106.46094,38.35674],[106.48415,38.30495],[106.51573,38.29498],[106.54692,38.26397],[106.61842,38.23303],[106.7231,38.20325],[106.77024,38.17161],[106.88446,38.14604],[106.90299,38.13977],[106.92259,38.13675]]},"properties":{}},{"type":"Feature","geometry":{"type":"LineString","coordinates":[[122.47971,41.05554],[122.52502,41.07935],[122.6033,41.14247],[122.65961,41.23238],[122.79144,41.50858],[123.05237,41.81431],[123.28857,42.15271],[123.3387,42.13897],[123.75412,42.36768],[123.82278,42.56016],[123.84338,42.75306],[123.92578,42.90414],[124.09195,42.99661],[124.26636,43.00264],[124.44214,42.94235],[124.44489,42.81051],[124.51904,42.68647],[124.52454,42.51868],[124.60693,42.33215],[124.51355,42.25495],[124.53827,42.13693],[124.45587,42.06357],[124.48334,41.93293],[124.39819,41.74673],[124.43665,41.66881],[124.98596,41.50446],[124.93103,41.34382],[124.9585,41.19519],[124.84314,40.99648],[124.56299,40.76806],[124.50531,40.58058],[124.58771,40.37166],[124.51512,40.22178]]},"properties":{}},{"type":"Feature","geometry":{"type":"LineString","coordinates":[[101.53152,38.43297],[101.43308,38.48218],[101.40752,38.53667],[101.36321,38.58705],[101.32605,38.61721],[101.26508,38.6493],[101.18607,38.72378],[101.13387,38.75792],[101.06675,38.81963],[101.02532,38.82837],[100.99022,38.81482],[100.93556,38.81984],[100.71613,38.89344],[100.64816,38.9829],[100.62103,38.99998],[100.57915,39.04745],[100.45658,39.10076],[100.43839,39.11514],[100.40817,39.12207],[100.35221,39.1837],[100.36206,39.1934],[100.33539,39.20891],[100.29382,39.26371],[100.29222,39.3406],[100.26183,39.34173],[100.22982,39.36357],[100.21454,39.38579],[100.09624,39.38438],[100.13111,39.43957]]},"properties":{}},{"type":"Feature","geometry":{"type":"LineString","coordinates":[[99.05126,39.80838],[99.08765,39.79954],[99.15422,39.79886],[99.21863,39.79592],[99.32849,39.76526],[99.41621,39.78866],[99.42122,39.79604],[99.41565,39.78826],[99.32703,39.76524],[99.20486,39.79858],[99.08518,39.79988],[98.90399,39.85834],[98.87513,39.84198],[98.80693,39.83108],[98.77432,39.8221],[98.72891,39.8155],[98.69084,39.82028],[98.63593,39.84284],[98.48601,39.86877],[98.42365,39.9087],[98.38485,39.91851],[98.20664,39.82459],[98.17719,39.84578],[98.16906,39.85453],[98.2193,39.80638],[98.21469,39.80094],[98.21928,39.80406],[98.21519,39.80188],[98.20044,39.74336]]},"properties":{}},{"type":"Feature","geometry":{"type":"LineString","coordinates":[[100.09624,39.38438],[100.05549,39.37912],[99.99069,39.40566],[99.97237,39.39462],[99.96934,39.3845],[99.96239,39.38707],[99.96248,39.37841],[99.95017,39.38393],[99.92595,39.37473],[99.89892,39.39599],[99.88363,39.3913],[99.89067,39.39573],[99.84865,39.41191],[99.85063,39.40173],[99.87104,39.391],[99.81007,39.41407],[99.77131,39.42954],[99.7302,39.48533],[99.6929,39.5146],[99.68179,39.53771],[99.67608,39.5219],[99.66499,39.52568],[99.69513,39.49243],[99.7182,39.48342],[99.69984,39.48998]]},"properties":{}},{"type":"Feature","geometry":{"type":"LineString","coordinates":[[102.61612,38.31326],[102.59496,38.30301],[102.59717,38.28629],[102.57849,38.28327],[102.54192,38.25294],[102.48004,38.24984],[102.28355,38.29576],[102.04788,38.31499],[102.00394,38.33344],[101.97136,38.32223],[101.95245,38.32769],[101.92077,38.32164],[101.90318,38.33232],[101.91146,38.32697],[101.79251,38.35919],[101.71865,38.34827],[101.70303,38.35741],[101.74802,38.35555],[101.74108,38.37011],[101.69955,38.3938],[101.58937,38.40504],[101.63311,38.39307],[101.66083,38.39912],[101.70305,38.35714]]},"properties":{}},{"type":"Feature","geometry":{"type":"LineString","coordinates":[[99.68179,39.53771],[99.69091,39.55174],[99.66793,39.55353],[99.6681,39.57573],[99.64494,39.63156],[99.65648,39.64355],[99.65518,39.65649],[99.58806,39.70667],[99.54744,39.72529],[99.51375,39.76463],[99.50243,39.76871],[99.49073,39.78572],[99.49737,39.78738],[99.48506,39.78469],[99.49157,39.78662],[99.48176,39.79318],[99.47414,39.79819],[99.48307,39.7916],[99.47647,39.79072],[99.46915,39.79485],[99.50247,39.76617]]},"properties":{}},{"type":"Feature","geometry":{"type":"LineString","coordinates":[[113.94178,39.13126],[113.96669,39.11902],[114.00609,39.12359],[114.00238,39.09849],[114.01221,39.07301],[114.03234,39.05099],[113.84857,38.99731],[113.82729,38.93057],[113.89114,38.80574],[113.84857,38.74391],[113.6364,38.60507],[113.54507,38.41917],[113.88702,38.10755],[113.93784,37.98317],[113.99208,37.81738],[114.1301,37.71153],[114.1143,37.52933],[113.79158,37.10557],[113.82797,36.8571]]},"properties":{}},{"type":"Feature","geometry":{"type":"LineString","coordinates":[[114.06505,40.68049],[114.05812,40.63591],[114.03441,40.60744],[113.99652,40.59801],[114.00262,40.59079],[113.99022,40.58339],[114.00329,40.55426],[113.9788,40.51997],[113.98938,40.50402],[113.98182,40.47979],[114.07895,40.49943],[114.10241,40.53987],[114.07332,40.54847],[114.07791,40.55739],[114.06798,40.56178],[114.07106,40.57975],[114.04919,40.58966],[114.03466,40.60786]]},"properties":{}},{"type":"Feature","geometry":{"type":"LineString","coordinates":[[113.82416,39.41678],[113.85522,39.39219],[113.85475,39.37379],[113.88228,39.37261],[113.89324,39.36183],[113.88469,39.34752],[113.90454,39.32742],[113.93143,39.31164],[113.948,39.31453],[113.97201,39.30233],[113.96158,39.26187],[113.94995,39.25063],[113.96981,39.22248],[113.92934,39.20915],[113.92816,39.18758],[113.91149,39.18799],[113.88323,39.15904]]},"properties":{}},{"type":"Feature","geometry":{"type":"LineString","coordinates":[[115.96335,40.32491],[115.94825,40.31607],[115.94895,40.30938],[115.93872,40.31134],[115.92784,40.3017],[115.95359,40.27102],[115.93718,40.26748],[115.90936,40.24384],[115.89398,40.25121],[115.87753,40.23765],[115.86117,40.24849],[115.858,40.26153],[115.86797,40.26897],[115.90329,40.27386],[115.93386,40.29014]]},"properties":{}},{"type":"Feature","geometry":{"type":"LineString","coordinates":[[115.4729,39.99531],[115.50936,40.00331],[115.49117,39.97652],[115.47131,39.97681],[115.47463,39.96658],[115.45083,39.94941],[115.41897,39.94896],[115.40382,39.9256],[115.37387,39.92659],[115.36906,39.9099],[115.34209,39.89181],[115.34778,39.8832],[115.35694,39.88445],[115.35911,39.86301],[115.35286,39.85841]]},"properties":{}},{"type":"Feature","geometry":{"type":"LineString","coordinates":[[111.82853,39.62038],[111.77499,39.58637],[111.70911,39.60494],[111.69095,39.62435],[111.64757,39.63763],[111.65483,39.63714],[111.63345,39.644],[111.61751,39.62957],[111.58234,39.64204],[111.56012,39.64024],[111.55557,39.65079],[111.52017,39.65985],[111.48557,39.6576],[111.44084,39.64111],[111.43603,39.6371]]},"properties":{}},{"type":"Feature","geometry":{"type":"LineString","coordinates":[[106.70022,38.20326],[106.70486,38.20099],[106.70024,38.20323],[106.71274,38.19701],[106.71752,38.20069],[106.72121,38.19749],[106.76857,38.1705],[106.88026,38.14568],[106.88096,38.14502],[106.83743,38.15621],[106.81221,38.16143],[106.75494,38.17623],[106.82195,38.164],[106.7998,38.16812]]},"properties":{}},{"type":"Feature","geometry":{"type":"LineString","coordinates":[[116.15799,40.75468],[116.15384,40.78619],[116.12635,40.79994],[116.10311,40.82515],[116.11128,40.86725],[116.04786,40.9143],[116.05224,40.89609],[116.04188,40.88455],[116.04597,40.85978],[116.03228,40.85402],[116.03065,40.83502],[116.01826,40.83096],[116.02849,40.81608]]},"properties":{}},{"type":"Feature","geometry":{"type":"LineString","coordinates":[[115.85978,40.25232],[115.83116,40.24531],[115.79351,40.25882],[115.78784,40.24703],[115.802,40.23169],[115.79847,40.22186],[115.78683,40.21844],[115.7811,40.17756],[115.74873,40.16262],[115.76909,40.18883],[115.78168,40.18862]]},"properties":{}},{"type":"Feature","geometry":{"type":"LineString","coordinates":[[113.66665,39.55229],[113.66979,39.54026],[113.71249,39.51818],[113.71171,39.49967],[113.74179,39.50156],[113.75905,39.5345],[113.74826,39.54721],[113.74103,39.58059],[113.72206,39.59402],[113.70721,39.59435]]},"properties":{}},{"type":"Feature","geometry":{"type":"LineString","coordinates":[[114.12725,40.74513],[114.10997,40.7335],[114.08744,40.73984],[114.05558,40.72192],[114.05375,40.70182],[114.06505,40.68049],[114.09832,40.68427],[114.1568,40.7142]]},"properties":{}},{"type":"Feature","geometry":{"type":"LineString","coordinates":[[113.30172,40.3255],[113.28624,40.32217],[113.27308,40.29531],[113.24162,40.27563],[113.14037,40.26575],[113.09001,40.24984],[113.00385,40.24696],[112.84566,40.20167]]},"properties":{}},{"type":"Feature","geometry":{"type":"LineString","coordinates":[[106.56828,39.14244],[106.53099,39.10848],[106.47732,39.07549],[106.44956,39.07006],[106.43299,39.07489],[106.4346,38.99597],[106.46284,38.98417],[106.52232,38.97716]]},"properties":{}},{"type":"Feature","geometry":{"type":"LineString","coordinates":[[113.25424,39.39137],[113.26247,39.40785],[113.28862,39.44968],[113.32061,39.45828],[113.33702,39.47334],[113.32859,39.48309],[113.35758,39.50051]]},"properties":{}},{"type":"Feature","geometry":{"type":"LineString","coordinates":[[115.26196,39.87975],[115.25188,39.8569],[115.25568,39.85061],[115.2871,39.84016],[115.29596,39.81824],[115.31117,39.81131]]},"properties":{}},{"type":"Feature","geometry":{"type":"LineString","coordinates":[[113.87289,38.05526],[113.87578,38.04551],[113.86501,38.03396],[113.87509,38.02805],[113.86647,38.00864],[113.77551,37.96596]]},"properties":{}},{"type":"Feature","geometry":{"type":"LineString","coordinates":[[117.17136,40.69173],[117.1569,40.68125],[117.16756,40.68775],[117.11886,40.67817],[117.112,40.68919]]},"properties":{}},{"type":"Feature","geometry":{"type":"LineString","coordinates":[[111.85023,39.52968],[111.83891,39.52948],[111.84203,39.52181],[111.85168,39.52421],[111.84018,39.52608]]},"properties":{}},{"type":"Feature","geometry":{"type":"LineString","coordinates":[[113.55677,38.32337],[113.54162,38.31247],[113.53366,38.28498],[113.53469,38.26487],[113.54377,38.25904]]},"properties":{}},{"type":"Feature","geometry":{"type":"LineString","coordinates":[[107.40019,37.78931],[107.39383,37.78073],[107.40434,37.77609],[107.41038,37.7846],[107.40008,37.78918]]},"properties":{}},{"type":"Feature","geometry":{"type":"LineString","coordinates":[[118.2697,40.43215],[118.24257,40.462],[118.23161,40.46261],[118.22579,40.45232]]},"properties":{}},{"type":"Feature","geometry":{"type":"LineString","coordinates":[[113.50025,39.50549],[113.51605,39.53294],[113.53962,39.53455],[113.55508,39.57017]]},"properties":{}},{"type":"Feature","geometry":{"type":"LineString","coordinates":[[106.6421,39.20526],[106.68188,39.18324],[106.74123,39.20266],[106.77947,39.20146]]},"properties":{}},{"type":"Feature","geometry":{"type":"LineString","coordinates":[[99.45949,39.73334],[99.41826,39.7894],[99.46157,39.73053],[99.42982,39.718]]},"properties":{}},{"type":"Feature","geometry":{"type":"LineString","coordinates":[[119.74444,40.12274],[119.73854,40.12116],[119.74382,40.11837]]},"properties":{}},{"type":"Feature","geometry":{"type":"LineString","coordinates":[[115.695,40.06426],[115.71454,40.06849],[115.72242,40.07974]]},"properties":{}},{"type":"Feature","geometry":{"type":"LineString","coordinates":[[115.56978,40.07201],[115.57351,40.06001],[115.56177,40.04859]]},"properties":{}},{"type":"Feature","geometry":{"type":"LineString","coordinates":[[111.39437,39.49083],[111.36715,39.4774],[111.36165,39.45248]]},"properties":{}},{"type":"Feature","geometry":{"type":"LineString","coordinates":[[113.74684,39.50715],[113.75555,39.4999],[113.78405,39.50948]]},"properties":{}},{"type":"Feature","geometry":{"type":"LineString","coordinates":[[113.76708,38.92575],[113.76613,38.9102],[113.77302,38.90468]]},"properties":{}},{"type":"Feature","geometry":{"type":"LineString","coordinates":[[113.87764,37.967],[113.88396,37.95044],[113.87254,37.94188]]},"properties":{}},{"type":"Feature","geometry":{"type":"LineString","coordinates":[[113.88443,37.89572],[113.9071,37.89431],[113.91541,37.88014]]},"properties":{}},{"type":"Feature","geometry":{"type":"LineString","coordinates":[[108.7914,37.52262],[108.79983,37.51934],[108.79143,37.52263]]},"properties":{}},{"type":"Feature","geometry":{"type":"LineString","coordinates":[[107.79703,37.53041],[107.80241,37.52619],[107.79703,37.53036]]},"properties":{}},{"type":"Feature","geometry":{"type":"LineString","coordinates":[[107.2268,37.93918],[107.23126,37.93616],[107.2268,37.93917]]},"properties":{}},{"type":"Feature","geometry":{"type":"LineString","coordinates":[[107.12351,38.00747],[107.11621,38.01659],[107.11531,38.01755]]},"properties":{}},{"type":"Feature","geometry":{"type":"LineString","coordinates":[[101.58937,38.40504],[101.53152,38.43297],[101.63004,38.402]]},"properties":{}},{"type":"Feature","geometry":{"type":"LineString","coordinates":[[115.93217,41.13671],[115.9639,41.12989]]},"properties":{}},{"type":"Feature","geometry":{"type":"LineString","coordinates":[[111.87953,39.48675],[111.90946,39.47901]]},"properties":{}},{"type":"Feature","geometry":{"type":"LineString","coordinates":[[107.2231,37.99681],[107.26575,37.97471]]},"properties":{}},{"type":"Feature","geometry":{"type":"LineString","coordinates":[[106.51952,38.27767],[106.51952,38.27765]]},"properties":{}},{"type":"Feature","geometry":{"type":"LineString","coordinates":[[106.43368,38.36847],[106.43365,38.36844]]},"properties":{}},{"type":"Feature","geometry":{"type":"LineString","coordinates":[[102.75923,38.17611],[102.7524,38.20855]]},"properties":{}}]}