{"type": "FeatureCollection", "name": "astana_omsk_railway", "features": [{"type": "Feature", "properties": {"name": "astana_omsk_railway", "source": "OpenStreetMap via Overpass", "rail_km": 756.2}, "geometry": {"type": "LineString", "coordinates": [[73.386262, 54.93848], [73.386044, 54.938111], [73.385975, 54.937983], [73.385551, 54.937324], [73.385337, 54.936992], [73.38521, 54.936682], [73.384783, 54.935959], [73.38467, 54.935721], [73.384392, 54.935312], [73.384315, 54.935149], [73.384283, 54.93509], [73.38411, 54.934752], [73.384066, 54.934675], [73.38375, 54.93419], [73.383577, 54.933948], [73.383062, 54.933292], [73.38277, 54.932976], [73.382474, 54.932674], [73.381873, 54.932117], [73.381346, 54.931699], [73.380564, 54.931164], [73.379842, 54.930721], [73.379157, 54.930335], [73.37891, 54.930213], [73.377831, 54.929737], [73.376916, 54.929394], [73.375887, 54.929043], [73.375377, 54.928875], [73.374518, 54.928659], [73.373339, 54.928444], [73.372553, 54.928346], [73.37206, 54.928296], [73.371398, 54.928247], [73.370971, 54.928226], [73.370763, 54.928221], [73.370579, 54.928217], [73.370346, 54.928212], [73.369686, 54.928225], [73.369109, 54.928259], [73.368426, 54.928303], [73.367658, 54.928408], [73.366076, 54.928746], [73.362337, 54.929874], [73.36225, 54.929901], [73.359366, 54.93076], [73.357817, 54.931243], [73.347654, 54.934275], [73.346197, 54.934714], [73.344834, 54.935128], [73.343632, 54.935485], [73.34313, 54.935635], [73.342552, 54.93581], [73.341702, 54.936011], [73.340809, 54.93628], [73.339573, 54.936588], [73.338908, 54.936728], [73.338258, 54.93685], [73.337547, 54.93694], [73.336794, 54.937034], [73.336149, 54.937106], [73.334272, 54.937216], [73.316755, 54.938201], [73.31369, 54.938368], [73.313199, 54.938399], [73.309729, 54.938597], [73.309483, 54.93861], [73.306107, 54.938848], [73.302424, 54.939046], [73.300449, 54.939157], [73.284461, 54.940082], [73.280328, 54.940302], [73.269273, 54.940917], [73.267526, 54.941037], [73.263628, 54.941215], [73.263277, 54.941236], [73.24821, 54.942082], [73.233114, 54.942926], [73.232911, 54.942937], [73.220026, 54.943646], [73.219346, 54.943683], [73.21906, 54.943697], [73.217775, 54.943764], [73.217505, 54.943777], [73.188994, 54.945348], [73.170668, 54.946365], [73.165084, 54.946671], [73.164946, 54.946679], [73.163716, 54.946749], [73.148408, 54.947586], [73.148227, 54.947595], [73.144372, 54.947796], [73.138293, 54.948129], [73.135682, 54.948271], [73.13475, 54.948321], [73.087085, 54.950949], [73.078153, 54.951433], [73.075642, 54.951568], [73.070963, 54.951827], [73.067708, 54.952001], [73.061939, 54.952316], [73.05914, 54.952452], [73.05851, 54.952483], [73.05815, 54.952494], [73.05768, 54.952517], [73.056939, 54.952548], [73.051227, 54.952853], [73.043145, 54.953292], [73.038051, 54.953571], [73.037751, 54.953587], [73.037371, 54.953608], [73.036122, 54.953675], [73.033232, 54.95387], [73.026213, 54.95425], [73.012839, 54.954977], [73.004197, 54.955458], [72.991719, 54.956128], [72.985899, 54.956443], [72.980091, 54.956744], [72.968471, 54.957351], [72.960915, 54.957755], [72.951214, 54.95826], [72.941943, 54.958762], [72.93547, 54.959093], [72.931338, 54.959295], [72.925618, 54.959609], [72.916015, 54.960143], [72.908505, 54.96054], [72.898646, 54.961057], [72.896142, 54.961192], [72.889075, 54.961573], [72.882243, 54.96193], [72.881181, 54.961965], [72.879649, 54.961979], [72.873682, 54.961882], [72.87221, 54.961858], [72.865334, 54.961741], [72.843032, 54.961362], [72.827042, 54.961077], [72.807549, 54.960742], [72.80088, 54.960624], [72.800709, 54.960622], [72.786018, 54.960362], [72.764437, 54.959988], [72.72932, 54.959349], [72.713692, 54.959064], [72.701685, 54.958839], [72.694495, 54.958714], [72.674353, 54.958337], [72.670358, 54.958256], [72.664109, 54.958154], [72.662018, 54.958117], [72.659933, 54.958073], [72.658077, 54.958036], [72.655299, 54.95798], [72.652603, 54.957929], [72.650955, 54.957918], [72.650238, 54.9579], [72.64994, 54.957894], [72.649066, 54.957882], [72.648237, 54.957866], [72.639711, 54.957713], [72.632582, 54.957573], [72.63152, 54.957551], [72.629587, 54.957515], [72.629326, 54.95751], [72.62912, 54.957506], [72.612022, 54.957185], [72.601247, 54.956981], [72.595305, 54.956866], [72.561542, 54.956236], [72.481469, 54.954638], [72.470956, 54.954349], [72.462896, 54.954125], [72.444987, 54.953579], [72.43914, 54.953399], [72.437687, 54.953355], [72.412254, 54.952603], [72.404835, 54.952372], [72.39306, 54.951981], [72.384477, 54.951706], [72.379917, 54.951546], [72.367976, 54.951161], [72.360723, 54.950921], [72.352644, 54.950665], [72.340982, 54.950296], [72.332206, 54.950021], [72.326734, 54.949852], [72.321, 54.949686], [72.319139, 54.949628], [72.318923, 54.94962], [72.317873, 54.949585], [72.317125, 54.949597], [72.316884, 54.949593], [72.315452, 54.949549], [72.312757, 54.949457], [72.309353, 54.949348], [72.306599, 54.949254], [72.297065, 54.948961], [72.296669, 54.948945], [72.293986, 54.948852], [72.292424, 54.948804], [72.249003, 54.947371], [72.220451, 54.946424], [72.188074, 54.945339], [72.145457, 54.943904], [72.131021, 54.943388], [72.130646, 54.943375], [72.129751, 54.943343], [72.123502, 54.943119], [72.116478, 54.942879], [72.11566, 54.942851], [72.113403, 54.942774], [72.110978, 54.942691], [72.1068, 54.942553], [72.099955, 54.942284], [72.093328, 54.942058], [72.088096, 54.941883], [72.072725, 54.941222], [72.064838, 54.941065], [72.051833, 54.940538], [72.02739, 54.939765], [71.999099, 54.938807], [71.967823, 54.937642], [71.954084, 54.937167], [71.949634, 54.936975], [71.947265, 54.936883], [71.947072, 54.936877], [71.945204, 54.936817], [71.940671, 54.936644], [71.936929, 54.936511], [71.934794, 54.936438], [71.933678, 54.936401], [71.925797, 54.936121], [71.925291, 54.936104], [71.922179, 54.936003], [71.920814, 54.935959], [71.920289, 54.935941], [71.880109, 54.934474], [71.849952, 54.933494], [71.835498, 54.933038], [71.822643, 54.932625], [71.797684, 54.931903], [71.772688, 54.931147], [71.748737, 54.930424], [71.7136, 54.929384], [71.646556, 54.927251], [71.608183, 54.92607], [71.548885, 54.924109], [71.536431, 54.923708], [71.535043, 54.923673], [71.474013, 54.92164], [71.44348, 54.920609], [71.431346, 54.920212], [71.422301, 54.919911], [71.421716, 54.919881], [71.42109, 54.919839], [71.420137, 54.919763], [71.39993, 54.918096], [71.368634, 54.915503], [71.348591, 54.913841], [71.320592, 54.911503], [71.31699, 54.911181], [71.31567, 54.911062], [71.314087, 54.91096], [71.312532, 54.910908], [71.311998, 54.910897], [71.311087, 54.91088], [71.309842, 54.910853], [71.309566, 54.910847], [71.303773, 54.910722], [71.297836, 54.910602], [71.29719, 54.910588], [71.295227, 54.910544], [71.292824, 54.91049], [71.276667, 54.91012], [71.275347, 54.910098], [71.274804, 54.910089], [71.273365, 54.91007], [71.273106, 54.910066], [71.272613, 54.910049], [71.27156, 54.910013], [71.270497, 54.909984], [71.2684, 54.909953], [71.262702, 54.909826], [71.261562, 54.909801], [71.25713, 54.909703], [71.252781, 54.909602], [71.252056, 54.90958], [71.250039, 54.909535], [71.248643, 54.909498], [71.248478, 54.909492], [71.241069, 54.909328], [71.23897, 54.909279], [71.187883, 54.908077], [71.15007, 54.907221], [71.102552, 54.9061], [71.071941, 54.905252], [71.063371, 54.905112], [71.05672, 54.90493], [71.032653, 54.904383], [71.025191, 54.904172], [71.003259, 54.903625], [70.988933, 54.903298], [70.97998, 54.903069], [70.95623, 54.902456], [70.916259, 54.901426], [70.838162, 54.899359], [70.834266, 54.899244], [70.83299, 54.899165], [70.832541, 54.899146], [70.831107, 54.899092], [70.829759, 54.899051], [70.817891, 54.898735], [70.815574, 54.898673], [70.813438, 54.898625], [70.812467, 54.898593], [70.811244, 54.898559], [70.81085, 54.89855], [70.809833, 54.89852], [70.799519, 54.898299], [70.721946, 54.896216], [70.684695, 54.895197], [70.66382, 54.894629], [70.66275, 54.894631], [70.661603, 54.894652], [70.660095, 54.894722], [70.65838, 54.894832], [70.657327, 54.894932], [70.655782, 54.895103], [70.654086, 54.895349], [70.652277, 54.895697], [70.651302, 54.895903], [70.650406, 54.896113], [70.648248, 54.896667], [70.642351, 54.898244], [70.633535, 54.900585], [70.631133, 54.901242], [70.617822, 54.90479], [70.60587, 54.907953], [70.593877, 54.911157], [70.5916, 54.911701], [70.588909, 54.912204], [70.586888, 54.912494], [70.584274, 54.912746], [70.583347, 54.912816], [70.582384, 54.912865], [70.580949, 54.912898], [70.579432, 54.912893], [70.577717, 54.912863], [70.574369, 54.912722], [70.561288, 54.912005], [70.46155, 54.906782], [70.458024, 54.906599], [70.455281, 54.906466], [70.453119, 54.906327], [70.448685, 54.906092], [70.445813, 54.905932], [70.442982, 54.905805], [70.438482, 54.905548], [70.433551, 54.9053], [70.432368, 54.905243], [70.431854, 54.905214], [70.402865, 54.903643], [70.379541, 54.902398], [70.361906, 54.901419], [70.333542, 54.899845], [70.28228, 54.897067], [70.182323, 54.8915], [70.143161, 54.889317], [70.133541, 54.888797], [70.125081, 54.888303], [70.124329, 54.88825], [70.121468, 54.888117], [70.110393, 54.88752], [70.106794, 54.887289], [70.101458, 54.88697], [70.099967, 54.886892], [70.094675, 54.886601], [70.064514, 54.884828], [70.044348, 54.883681], [70.033992, 54.883107], [70.014665, 54.881976], [70.003197, 54.881292], [69.979622, 54.879941], [69.969032, 54.879336], [69.931502, 54.8771], [69.931313, 54.877087], [69.915502, 54.876149], [69.906302, 54.875609], [69.901493, 54.875359], [69.89573, 54.87498], [69.882723, 54.874211], [69.869756, 54.873431], [69.863898, 54.873121], [69.828742, 54.87099], [69.793661, 54.868877], [69.78499, 54.868548], [69.776613, 54.86824], [69.768279, 54.867944], [69.750631, 54.867363], [69.740163, 54.866946], [69.724453, 54.866376], [69.72055, 54.866183], [69.719482, 54.866146], [69.718688, 54.86612], [69.717778, 54.86609], [69.706765, 54.865676], [69.706707, 54.865674], [69.700225, 54.865431], [69.699696, 54.865418], [69.699513, 54.865413], [69.698572, 54.865384], [69.697335, 54.865325], [69.696568, 54.86531], [69.695573, 54.865293], [69.69457, 54.865274], [69.692942, 54.865212], [69.690847, 54.865137], [69.689785, 54.865096], [69.688664, 54.865056], [69.686698, 54.864984], [69.685222, 54.864925], [69.683244, 54.864858], [69.681237, 54.86478], [69.678604, 54.864685], [69.676954, 54.864626], [69.674693, 54.864538], [69.672838, 54.864467], [69.670552, 54.864383], [69.668393, 54.8643], [69.666669, 54.864243], [69.664532, 54.864159], [69.662122, 54.864067], [69.660175, 54.863994], [69.657733, 54.8639], [69.656208, 54.863845], [69.654166, 54.863764], [69.650283, 54.863617], [69.64782, 54.863534], [69.645608, 54.863454], [69.64106, 54.863283], [69.637429, 54.863145], [69.635202, 54.863065], [69.632842, 54.86298], [69.631005, 54.862904], [69.629678, 54.862851], [69.62783, 54.862774], [69.62587, 54.862705], [69.623081, 54.862617], [69.62118, 54.862542], [69.61762, 54.862414], [69.615326, 54.862322], [69.613716, 54.862259], [69.611398, 54.862173], [69.609837, 54.862112], [69.607324, 54.862016], [69.605427, 54.861949], [69.603247, 54.861862], [69.600993, 54.861778], [69.597015, 54.861623], [69.595163, 54.861562], [69.593366, 54.861489], [69.591833, 54.861426], [69.590237, 54.861364], [69.58731, 54.861248], [69.585909, 54.861208], [69.583396, 54.861106], [69.581761, 54.861045], [69.579184, 54.860945], [69.577421, 54.86088], [69.575616, 54.860808], [69.574936, 54.860782], [69.572449, 54.860684], [69.570141, 54.860594], [69.568241, 54.860525], [69.566046, 54.860431], [69.564036, 54.860362], [69.562419, 54.860295], [69.561293, 54.860256], [69.559004, 54.860169], [69.55734, 54.860101], [69.555266, 54.86002], [69.553256, 54.859945], [69.551341, 54.859871], [69.548099, 54.859747], [69.546365, 54.859678], [69.543852, 54.859576], [69.542316, 54.859521], [69.541208, 54.859468], [69.539849, 54.859417], [69.53888, 54.859378], [69.537744, 54.859325], [69.535001, 54.859239], [69.532045, 54.859127], [69.529304, 54.859013], [69.526295, 54.858899], [69.524776, 54.858834], [69.522319, 54.858732], [69.520576, 54.858664], [69.517599, 54.858556], [69.512562, 54.858356], [69.509965, 54.85826], [69.507669, 54.858164], [69.505674, 54.858084], [69.503716, 54.858007], [69.500846, 54.857895], [69.498947, 54.857815], [69.497171, 54.857741], [69.493899, 54.857618], [69.490476, 54.857476], [69.487467, 54.857368], [69.484822, 54.857253], [69.482612, 54.857173], [69.482379, 54.857165], [69.48126, 54.857139], [69.47883, 54.857136], [69.476716, 54.857133], [69.473417, 54.857127], [69.470998, 54.85713], [69.468235, 54.857124], [69.466202, 54.857127], [69.464158, 54.857127], [69.461739, 54.857114], [69.459009, 54.857124], [69.456128, 54.857127], [69.453381, 54.857127], [69.451423, 54.857115], [69.448875, 54.857124], [69.440512, 54.857122], [69.433983, 54.857111], [69.431124, 54.857105], [69.4276, 54.857108], [69.425036, 54.857105], [69.422579, 54.857108], [69.419296, 54.857093], [69.41708, 54.857093], [69.414725, 54.857093], [69.411024, 54.857099], [69.408154, 54.857099], [69.405177, 54.857102], [69.402038, 54.857093], [69.399463, 54.857087], [69.393874, 54.857074], [69.392114, 54.857077], [69.387619, 54.857077], [69.384153, 54.857071], [69.38086, 54.857068], [69.378145, 54.857068], [69.371866, 54.857063], [69.366923, 54.857056], [69.363956, 54.857056], [69.34668, 54.857023], [69.314487, 54.856984], [69.296146, 54.856972], [69.279219, 54.856966], [69.275251, 54.856956], [69.261788, 54.856941], [69.261667, 54.856941], [69.254772, 54.856932], [69.254295, 54.856915], [69.253524, 54.85687], [69.252649, 54.856793], [69.252032, 54.856702], [69.251429, 54.856583], [69.250831, 54.856416], [69.25035, 54.85622], [69.249873, 54.855995], [69.249393, 54.85571], [69.248931, 54.855412], [69.24847, 54.855122], [69.248028, 54.854866], [69.247531, 54.854644], [69.247003, 54.854449], [69.246445, 54.854287], [69.245839, 54.85416], [69.245211, 54.854077], [69.244602, 54.854041], [69.244018, 54.85404], [69.24343, 54.85408], [69.242942, 54.854134], [69.242363, 54.854237], [69.241901, 54.854352], [69.241405, 54.854511], [69.240979, 54.854691], [69.240665, 54.854858], [69.240375, 54.85505], [69.240086, 54.855258], [69.239748, 54.855582], [69.239408, 54.85589], [69.2391, 54.85622], [69.23945, 54.855747], [69.239657, 54.855436], [69.239853, 54.855059], [69.239998, 54.854714], [69.240098, 54.854268], [69.240158, 54.853902], [69.240133, 54.853276], [69.240028, 54.852808], [69.239896, 54.852412], [69.23966, 54.851997], [69.239381, 54.851562], [69.239023, 54.851158], [69.238724, 54.850831], [69.238329, 54.850522], [69.237928, 54.850209], [69.23719, 54.849755], [69.236117, 54.849123], [69.232815, 54.847141], [69.22318, 54.841361], [69.221688, 54.840442], [69.220527, 54.8396], [69.220074, 54.83918], [69.219623, 54.838642], [69.219028, 54.837715], [69.218593, 54.836693], [69.218377, 54.835563], [69.218327, 54.834587], [69.218598, 54.833496], [69.218883, 54.832846], [69.219271, 54.832212], [69.22042, 54.830575], [69.221305, 54.829438], [69.222476, 54.827971], [69.223429, 54.826855], [69.224597, 54.825712], [69.226726, 54.824012], [69.229252, 54.822329], [69.232884, 54.819907], [69.236403, 54.817527], [69.241387, 54.814164], [69.24632, 54.810884], [69.253757, 54.805917], [69.256595, 54.804037], [69.257493, 54.803429], [69.261211, 54.800953], [69.262421, 54.800147], [69.26366, 54.799281], [69.26523, 54.798085], [69.266127, 54.797293], [69.267007, 54.796473], [69.267801, 54.795626], [69.268449, 54.794764], [69.268912, 54.794135], [69.269357, 54.793452], [69.270122, 54.792092], [69.270503, 54.791337], [69.270713, 54.790902], [69.271014, 54.790342], [69.271184, 54.790008], [69.27348, 54.785594], [69.275633, 54.781503], [69.275853, 54.781044], [69.276092, 54.780638], [69.280425, 54.772086], [69.293329, 54.747056], [69.299226, 54.735623], [69.304504, 54.725333], [69.30723, 54.720016], [69.310083, 54.714458], [69.315805, 54.703278], [69.333762, 54.667831], [69.342763, 54.650175], [69.353427, 54.629134], [69.360377, 54.615927], [69.360553, 54.615592], [69.360896, 54.614924], [69.362257, 54.612315], [69.36296, 54.61097], [69.364126, 54.608666], [69.364689, 54.607586], [69.365445, 54.606147], [69.365596, 54.60586], [69.365784, 54.605515], [69.365889, 54.605302], [69.366, 54.605075], [69.366315, 54.604473], [69.369622, 54.59816], [69.37009, 54.59736], [69.370405, 54.596906], [69.370868, 54.596266], [69.37135, 54.595617], [69.373237, 54.593145], [69.392164, 54.568028], [69.4016, 54.5555], [69.41104, 54.542987], [69.4122, 54.541429], [69.41339, 54.539875], [69.415687, 54.536842], [69.417835, 54.533985], [69.418532, 54.533046], [69.422564, 54.527698], [69.423976, 54.525821], [69.425048, 54.524434], [69.426484, 54.522539], [69.426766, 54.522147], [69.427051, 54.521794], [69.428211, 54.520205], [69.428865, 54.519316], [69.429794, 54.518063], [69.430717, 54.516826], [69.433957, 54.512596], [69.434562, 54.511769], [69.435853, 54.510078], [69.436965, 54.508635], [69.438649, 54.506401], [69.460627, 54.477204], [69.471113, 54.463266], [69.472445, 54.461884], [69.47492, 54.459814], [69.487228, 54.449775], [69.488159, 54.449014], [69.493307, 54.444806], [69.495566, 54.442968], [69.496932, 54.441867], [69.497545, 54.441385], [69.500097, 54.439306], [69.501357, 54.43827], [69.502498, 54.43726], [69.503276, 54.436434], [69.503991, 54.435617], [69.50515, 54.433976], [69.50661, 54.431349], [69.511006, 54.42312], [69.512778, 54.419916], [69.513783, 54.418558], [69.515398, 54.416536], [69.516296, 54.415419], [69.517131, 54.414189], [69.517843, 54.412753], [69.518765, 54.410401], [69.52046, 54.405897], [69.520963, 54.404724], [69.521516, 54.403645], [69.525935, 54.395516], [69.530557, 54.386909], [69.53413, 54.380215], [69.537581, 54.373869], [69.539129, 54.371014], [69.540947, 54.367636], [69.546153, 54.357979], [69.546392, 54.357537], [69.548355, 54.353916], [69.55175, 54.347595], [69.551937, 54.347247], [69.552442, 54.346312], [69.575331, 54.303815], [69.581274, 54.292776], [69.633684, 54.195241], [69.633884, 54.194864], [69.636025, 54.190907], [69.636251, 54.190502], [69.639405, 54.184606], [69.642028, 54.179645], [69.642248, 54.179209], [69.643316, 54.177243], [69.647281, 54.169873], [69.66744, 54.132303], [69.688, 54.09469], [69.715701, 54.043475], [69.727794, 54.021426], [69.732919, 54.011888], [69.733762, 54.010379], [69.733909, 54.010109], [69.734779, 54.008494], [69.739287, 54.000217], [69.739478, 53.999865], [69.754461, 53.972253], [69.771437, 53.94111], [69.79474, 53.897928], [69.79577, 53.895399], [69.796114, 53.892871], [69.796114, 53.889836], [69.795599, 53.887003], [69.794054, 53.884474], [69.791822, 53.881843], [69.781175, 53.868447], [69.779654, 53.866795], [69.777831, 53.865205], [69.774867, 53.863069], [69.768706, 53.858591], [69.76645, 53.856955], [69.755345, 53.848899], [69.751805, 53.846391], [69.750522, 53.84545], [69.750092, 53.845133], [69.749645, 53.844822], [69.749177, 53.844482], [69.744428, 53.84102], [69.738173, 53.836479], [69.737186, 53.835761], [69.736906, 53.835556], [69.735343, 53.834415], [69.733698, 53.833214], [69.731181, 53.831404], [69.724139, 53.826256], [69.705992, 53.813026], [69.696904, 53.806416], [69.687794, 53.799821], [69.664324, 53.782721], [69.652635, 53.774196], [69.646793, 53.769923], [69.645341, 53.768861], [69.643913, 53.767784], [69.643237, 53.767218], [69.642587, 53.766617], [69.641971, 53.766011], [69.641404, 53.7654], [69.64079, 53.764653], [69.640225, 53.763901], [69.639316, 53.762416], [69.638012, 53.759834], [69.628556, 53.741109], [69.62441, 53.732902], [69.619099, 53.722389], [69.616901, 53.717988], [69.616016, 53.716251], [69.614055, 53.712297], [69.610608, 53.705416], [69.61037, 53.704954], [69.609718, 53.703651], [69.600446, 53.684874], [69.597849, 53.679606], [69.597609, 53.679118], [69.586641, 53.657718], [69.575487, 53.636072], [69.562605, 53.61111], [69.557176, 53.603312], [69.532774, 53.568475], [69.53167, 53.566836], [69.531563, 53.566684], [69.531281, 53.566285], [69.528789, 53.562736], [69.523842, 53.555655], [69.52355, 53.555248], [69.522206, 53.553331], [69.521173, 53.551884], [69.520478, 53.550866], [69.518281, 53.547719], [69.517021, 53.545845], [69.515236, 53.543499], [69.513553, 53.541335], [69.511584, 53.538808], [69.510042, 53.536827], [69.507513, 53.53361], [69.505351, 53.530825], [69.503522, 53.52848], [69.501841, 53.526314], [69.500517, 53.524617], [69.499861, 53.523884], [69.499208, 53.52294], [69.498597, 53.522155], [69.498172, 53.521546], [69.497854, 53.520989], [69.497608, 53.520479], [69.497438, 53.519984], [69.497366, 53.519731], [69.497319, 53.519493], [69.497247, 53.519062], [69.497202, 53.518544], [69.497206, 53.518216], [69.497229, 53.517869], [69.497266, 53.517502], [69.49731, 53.517244], [69.497395, 53.516913], [69.49748, 53.516602], [69.497641, 53.516202], [69.497839, 53.51579], [69.498069, 53.515385], [69.498347, 53.515003], [69.498658, 53.514634], [69.49894, 53.514335], [69.499262, 53.514034], [69.500032, 53.513355], [69.500763, 53.51272], [69.501476, 53.512147], [69.502232, 53.511615], [69.503012, 53.51108], [69.504503, 53.510054], [69.505978, 53.50905], [69.507317, 53.508128], [69.508584, 53.507262], [69.509642, 53.506564], [69.510639, 53.506025], [69.512288, 53.505274], [69.514186, 53.504442], [69.515079, 53.50397], [69.515677, 53.503624], [69.516292, 53.503213], [69.516978, 53.502683], [69.517928, 53.501913], [69.518951, 53.501086], [69.521578, 53.498964], [69.524739, 53.496402], [69.525326, 53.495916], [69.525818, 53.495446], [69.526236, 53.494992], [69.526519, 53.494644], [69.526725, 53.494362], [69.526975, 53.493944], [69.527187, 53.493569], [69.527458, 53.492949], [69.527543, 53.49272], [69.527653, 53.49235], [69.527744, 53.491892], [69.527804, 53.491415], [69.527809, 53.490552], [69.527756, 53.490125], [69.527654, 53.489633], [69.52755, 53.489268], [69.527344, 53.488726], [69.526997, 53.488026], [69.526517, 53.487219], [69.526032, 53.486443], [69.525577, 53.485823], [69.525064, 53.485232], [69.524646, 53.484825], [69.524299, 53.484521], [69.522045, 53.482717], [69.519974, 53.481069], [69.515154, 53.477244], [69.508743, 53.472137], [69.506466, 53.470313], [69.505214, 53.469356], [69.504744, 53.469028], [69.504452, 53.468866], [69.503754, 53.468471], [69.502838, 53.468058], [69.502043, 53.467738], [69.499672, 53.466977], [69.499247, 53.46686], [69.498825, 53.466763], [69.498247, 53.466645], [69.497699, 53.466563], [69.496083, 53.466383], [69.494983, 53.466273], [69.494391, 53.466199], [69.493781, 53.4661], [69.493234, 53.465979], [69.492756, 53.465854], [69.492176, 53.465688], [69.491645, 53.4655], [69.490866, 53.465166], [69.490484, 53.46498], [69.490199, 53.46483], [69.489643, 53.464499], [69.48911, 53.464137], [69.488662, 53.463775], [69.48827, 53.463391], [69.48796, 53.463029], [69.487782, 53.462772], [69.487475, 53.462207], [69.487298, 53.461694], [69.487193, 53.461199], [69.486946, 53.458963], [69.486694, 53.456197], [69.486661, 53.455837], [69.486527, 53.454376], [69.48645, 53.453587], [69.486337, 53.452985], [69.486178, 53.45248], [69.485732, 53.45149], [69.484653, 53.449327], [69.483473, 53.446977], [69.483117, 53.446267], [69.482772, 53.445539], [69.482502, 53.444786], [69.48244, 53.444497], [69.482409, 53.44415], [69.482396, 53.443795], [69.482423, 53.442651], [69.482433, 53.442434], [69.482454, 53.442], [69.482497, 53.440413], [69.482504, 53.44012], [69.482568, 53.437673], [69.482668, 53.43401], [69.482762, 53.431309], [69.482795, 53.430853], [69.482822, 53.429712], [69.482846, 53.428709], [69.482862, 53.427548], [69.482766, 53.426747], [69.482529, 53.425948], [69.482267, 53.425287], [69.481807, 53.424502], [69.481412, 53.423968], [69.480898, 53.423389], [69.480364, 53.422876], [69.480038, 53.42259], [69.479455, 53.422131], [69.478526, 53.421513], [69.477114, 53.420638], [69.466598, 53.414169], [69.465661, 53.413587], [69.464703, 53.412973], [69.464325, 53.412663], [69.463912, 53.412276], [69.463581, 53.41189], [69.46328, 53.411481], [69.463134, 53.411233], [69.463003, 53.41097], [69.462885, 53.410681], [69.462748, 53.410284], [69.462617, 53.409862], [69.462132, 53.408191], [69.461784, 53.406986], [69.46144, 53.405781], [69.461063, 53.404588], [69.460804, 53.403994], [69.460493, 53.403429], [69.458776, 53.401183], [69.456922, 53.398981], [69.453069, 53.394517], [69.449027, 53.389742], [69.448339, 53.388904], [69.447635, 53.388088], [69.447005, 53.387445], [69.446943, 53.387378], [69.43695, 53.375356], [69.4365, 53.374814], [69.434543, 53.372454], [69.424856, 53.360924], [69.41794, 53.352573], [69.411667, 53.345022], [69.410979, 53.344179], [69.408362, 53.341057], [69.404988, 53.337009], [69.404674, 53.336615], [69.404358, 53.33616], [69.404053, 53.335648], [69.403934, 53.335405], [69.403771, 53.335038], [69.403616, 53.334599], [69.40352, 53.334209], [69.400182, 53.319358], [69.400025, 53.318653], [69.399902, 53.318099], [69.39985, 53.31787], [69.399639, 53.316948], [69.399541, 53.316505], [69.399469, 53.316128], [69.399415, 53.315831], [69.399382, 53.315562], [69.399361, 53.315286], [69.399383, 53.314869], [69.399426, 53.314582], [69.399504, 53.314275], [69.39973, 53.313581], [69.399994, 53.312755], [69.400283, 53.312157], [69.400524, 53.311443], [69.400645, 53.311107], [69.400766, 53.310778], [69.400911, 53.310428], [69.401116, 53.310031], [69.401352, 53.309635], [69.401638, 53.309178], [69.402124, 53.30857], [69.403448, 53.306823], [69.404423, 53.305555], [69.405374, 53.304325], [69.405833, 53.303739], [69.406167, 53.303245], [69.406913, 53.302116], [69.407228, 53.301643], [69.407622, 53.301039], [69.407706, 53.30091], [69.407995, 53.300563], [69.408358, 53.300199], [69.408844, 53.299722], [69.409269, 53.299185], [69.409778, 53.298579], [69.409794, 53.298558], [69.410398, 53.297744], [69.411015, 53.296931], [69.411314, 53.296533], [69.411418, 53.296401], [69.411703, 53.296013], [69.411937, 53.295724], [69.412167, 53.295444], [69.41255, 53.295075], [69.412749, 53.294903], [69.413391, 53.294441], [69.413976, 53.294045], [69.414496, 53.293724], [69.415938, 53.292915], [69.416435, 53.292664], [69.416736, 53.292534], [69.417117, 53.292326], [69.417869, 53.29191], [69.418741, 53.291427], [69.419536, 53.290985], [69.431893, 53.284171], [69.432119, 53.284048], [69.432407, 53.283867], [69.43269, 53.283681], [69.432938, 53.283524], [69.432998, 53.283492], [69.433896, 53.282927], [69.434757, 53.282461], [69.434892, 53.282386], [69.43557, 53.282013], [69.435866, 53.281847], [69.437218, 53.281106], [69.437891, 53.280737], [69.438875, 53.280184], [69.440985, 53.279019], [69.446529, 53.275949], [69.447164, 53.275628], [69.447895, 53.275308], [69.448772, 53.274974], [69.449735, 53.274652], [69.450346, 53.274471], [69.517251, 53.255707], [69.59535, 53.233744], [69.597961, 53.232927], [69.600547, 53.23185], [69.603116, 53.230545], [69.613569, 53.225207], [69.616486, 53.223723], [69.619329, 53.222293], [69.62343, 53.220245], [69.629344, 53.217191], [69.641375, 53.210738], [69.6484, 53.206494], [69.66344, 53.195807], [69.679705, 53.184722], [69.695969, 53.173711], [69.704335, 53.166536], [69.713129, 53.159837], [69.718441, 53.155113], [69.720278, 53.153608], [69.72132, 53.15188], [69.722115, 53.149827], [69.723764, 53.144626], [69.725045, 53.140195], [69.726081, 53.137966], [69.727906, 53.135959], [69.731074, 53.133913], [69.743283, 53.127503], [69.752077, 53.123435], [69.755872, 53.121231], [69.758074, 53.118588], [69.759716, 53.116873], [69.761838, 53.11589], [69.782075, 53.110337], [69.805465, 53.104097], [69.823707, 53.099026], [69.837872, 53.095117], [69.839196, 53.094757], [69.845318, 53.093076], [69.851399, 53.091403], [69.858218, 53.089519], [69.859349, 53.089211], [69.860104, 53.089006], [69.861394, 53.088655], [69.865009, 53.087672], [69.866722, 53.0872], [69.879077, 53.083796], [69.879639, 53.083642], [69.880453, 53.083418], [69.888664, 53.081155], [69.907771, 53.076003], [69.913371, 53.074381], [69.925019, 53.070326], [69.936164, 53.066092], [69.942407, 53.063871], [69.945948, 53.062972], [69.949044, 53.062522], [69.952454, 53.061889], [69.954923, 53.060738], [69.956338, 53.058851], [69.956486, 53.058691], [69.95668, 53.058367], [69.956845, 53.05805], [69.957021, 53.057574], [69.957123, 53.057068], [69.957146, 53.056668], [69.957118, 53.056221], [69.956669, 53.05274], [69.956132, 53.049265], [69.956061, 53.048907], [69.955974, 53.048558], [69.955815, 53.0481], [69.955624, 53.047678], [69.955409, 53.047266], [69.95516, 53.046865], [69.954905, 53.046498], [69.954631, 53.04615], [69.95415, 53.045631], [69.952751, 53.044223], [69.950078, 53.04162], [69.948887, 53.040478], [69.948583, 53.040197], [69.948301, 53.039891], [69.948059, 53.039579], [69.947807, 53.039275], [69.947601, 53.038911], [69.947413, 53.038436], [69.947247, 53.037891], [69.94721, 53.037508], [69.947205, 53.037159], [69.947234, 53.036794], [69.947322, 53.036465], [69.947504, 53.035942], [69.947802, 53.035377], [69.948235, 53.034805], [69.948688, 53.034312], [69.949421, 53.033711], [69.950274, 53.033187], [69.951119, 53.032751], [69.951819, 53.032458], [69.952748, 53.03216], [69.954251, 53.031866], [69.955014, 53.031724], [69.962144, 53.030296], [69.963485, 53.030011], [70.026827, 53.014804], [70.027615, 53.014565], [70.028629, 53.014196], [70.029558, 53.013742], [70.030443, 53.013147], [70.031155, 53.012519], [70.031823, 53.011689], [70.03216, 53.010915], [70.032351, 53.010138], [70.032303, 53.008299], [70.032415, 53.007173], [70.032842, 53.005973], [70.033348, 53.005227], [70.033973, 53.004462], [70.034985, 53.003596], [70.035667, 53.003121], [70.03644, 53.00268], [70.042779, 52.999471], [70.043295, 52.99922], [70.043865, 52.998979], [70.044505, 52.998741], [70.05074, 52.996785], [70.054859, 52.995521], [70.067928, 52.991513], [70.068756, 52.991237], [70.069562, 52.990924], [70.070446, 52.990509], [70.07129, 52.990051], [70.079031, 52.984981], [70.079636, 52.984556], [70.080203, 52.984094], [70.080652, 52.983614], [70.081047, 52.983095], [70.08148, 52.981864], [70.08153, 52.980082], [70.081354, 52.979552], [70.080878, 52.978121], [70.079878, 52.975772], [70.078279, 52.972222], [70.077873, 52.97104], [70.077838, 52.969633], [70.077831, 52.965458], [70.077931, 52.961577], [70.078381, 52.960107], [70.078655, 52.959536], [70.078811, 52.959265], [70.078993, 52.958987], [70.079166, 52.958753], [70.079353, 52.958527], [70.079763, 52.958079], [70.079971, 52.957877], [70.080201, 52.957672], [70.080441, 52.957471], [70.080701, 52.95727], [70.082848, 52.95575], [70.083932, 52.954992], [70.084473, 52.954609], [70.085002, 52.954243], [70.08529, 52.954039], [70.085535, 52.953865], [70.086081, 52.953482], [70.087154, 52.952728], [70.089338, 52.951204], [70.09391, 52.94835], [70.104206, 52.941001], [70.114346, 52.933666], [70.119557, 52.929999], [70.121031, 52.929009], [70.12265, 52.92818], [70.127639, 52.926254], [70.129774, 52.925444], [70.130877, 52.925046], [70.132001, 52.92472], [70.134095, 52.924265], [70.140199, 52.923428], [70.143362, 52.923038], [70.146524, 52.922739], [70.14932, 52.922698], [70.152162, 52.922864], [70.156243, 52.92302], [70.160722, 52.923229], [70.162509, 52.923309], [70.163435, 52.923304], [70.164333, 52.923262], [70.16522, 52.923186], [70.165957, 52.923099], [70.167081, 52.92295], [70.16773, 52.922864], [70.170154, 52.92255], [70.170236, 52.922539], [70.171572, 52.922422], [70.17823, 52.921567], [70.179577, 52.921384], [70.181686, 52.921112], [70.185738, 52.920589], [70.186318, 52.920538], [70.187069, 52.920482], [70.188285, 52.920391], [70.188473, 52.920387], [70.189673, 52.920318], [70.189853, 52.920318], [70.191062, 52.92028], [70.191239, 52.920276], [70.191837, 52.920266], [70.193833, 52.920248], [70.194492, 52.920276], [70.194964, 52.920321], [70.195656, 52.920424], [70.196815, 52.920626], [70.19717, 52.920694], [70.200221, 52.921292], [70.20086, 52.921412], [70.207589, 52.922713], [70.208735, 52.922851], [70.209911, 52.922919], [70.211154, 52.922872], [70.212389, 52.922756], [70.213591, 52.922583], [70.214767, 52.922353], [70.220466, 52.920761], [70.221768, 52.920274], [70.222996, 52.919719], [70.224094, 52.919106], [70.225079, 52.918457], [70.226208, 52.91747], [70.227119, 52.916441], [70.227753, 52.915354], [70.228186, 52.914234], [70.229529, 52.908164], [70.229527, 52.904436], [70.227221, 52.899171], [70.224438, 52.886998], [70.222646, 52.882069], [70.222593, 52.878156], [70.223489, 52.875484], [70.229128, 52.867881], [70.237667, 52.857253], [70.245204, 52.847928], [70.248261, 52.844299], [70.254477, 52.836235], [70.258909, 52.830681], [70.263341, 52.825134], [70.265825, 52.822022], [70.268315, 52.818916], [70.273282, 52.812688], [70.277982, 52.806816], [70.280318, 52.803866], [70.281703, 52.802099], [70.282168, 52.801507], [70.282711, 52.800814], [70.282747, 52.800768], [70.282951, 52.800513], [70.288073, 52.794088], [70.288331, 52.793764], [70.289458, 52.792358], [70.290495, 52.791055], [70.290571, 52.79096], [70.291017, 52.790402], [70.292293, 52.788806], [70.295478, 52.784816], [70.297011, 52.782901], [70.29715, 52.782728], [70.358234, 52.706361], [70.363222, 52.700035], [70.372191, 52.688801], [70.376677, 52.683167], [70.381077, 52.67754], [70.381246, 52.677322], [70.382262, 52.676111], [70.382766, 52.675517], [70.383252, 52.67493], [70.393242, 52.662388], [70.396846, 52.657865], [70.40046, 52.653331], [70.404347, 52.648438], [70.405139, 52.647435], [70.405924, 52.646428], [70.406447, 52.645763], [70.406556, 52.645622], [70.406567, 52.645609], [70.40706, 52.644862], [70.407417, 52.644412], [70.407816, 52.643892], [70.408029, 52.643635], [70.40816, 52.643467], [70.408406, 52.643114], [70.408498, 52.642959], [70.408659, 52.642717], [70.408724, 52.6426], [70.408788, 52.64245], [70.408875, 52.64224], [70.409001, 52.641945], [70.409113, 52.641696], [70.409197, 52.641503], [70.409268, 52.641341], [70.409367, 52.641065], [70.409434, 52.640858], [70.409526, 52.640488], [70.409608, 52.640108], [70.409689, 52.639714], [70.409754, 52.639372], [70.409845, 52.638851], [70.409893, 52.638625], [70.409992, 52.638052], [70.410134, 52.637256], [70.410354, 52.636037], [70.410564, 52.634906], [70.410773, 52.633775], [70.410993, 52.632628], [70.411073, 52.632298], [70.411182, 52.631969], [70.411336, 52.631533], [70.411387, 52.631254], [70.411516, 52.630599], [70.411595, 52.630219], [70.411724, 52.62988], [70.411763, 52.629655], [70.411991, 52.628901], [70.412012, 52.628789], [70.412237, 52.628042], [70.412261, 52.627918], [70.41234, 52.627497], [70.412692, 52.625571], [70.413064, 52.623541], [70.414037, 52.618293], [70.414422, 52.616201], [70.41481, 52.614083], [70.415194, 52.612002], [70.415581, 52.60988], [70.416354, 52.60567], [70.416549, 52.604601], [70.416657, 52.604089], [70.416738, 52.603552], [70.417132, 52.601423], [70.417311, 52.600455], [70.417523, 52.599298], [70.417715, 52.59824], [70.417886, 52.597189], [70.417928, 52.596727], [70.417956, 52.59623], [70.418014, 52.595245], [70.418127, 52.59327], [70.418374, 52.589047], [70.4186, 52.584965], [70.4188, 52.580848], [70.419607, 52.561898], [70.419631, 52.561385], [70.419667, 52.560868], [70.419731, 52.560352], [70.419767, 52.560098], [70.419805, 52.559835], [70.419968, 52.558818], [70.420137, 52.557782], [70.420797, 52.553668], [70.421444, 52.549559], [70.421764, 52.547494], [70.421926, 52.546456], [70.422002, 52.545943], [70.422103, 52.545447], [70.422204, 52.545107], [70.422264, 52.544932], [70.422329, 52.544767], [70.422476, 52.544426], [70.422639, 52.544089], [70.42304, 52.54342], [70.423452, 52.542764], [70.424289, 52.541439], [70.425151, 52.540113], [70.426511, 52.53798], [70.427885, 52.535849], [70.429243, 52.533712], [70.43061, 52.531586], [70.43598, 52.523136], [70.438095, 52.519878], [70.440198, 52.516591], [70.441641, 52.514329], [70.443097, 52.512059], [70.445998, 52.507509], [70.446423, 52.506834], [70.44686, 52.506158], [70.447064, 52.505824], [70.447281, 52.505489], [70.447749, 52.504829], [70.448733, 52.503522], [70.448984, 52.50319], [70.449253, 52.502847], [70.449716, 52.502171], [70.451331, 52.49967], [70.452969, 52.497157], [70.456205, 52.492118], [70.462734, 52.482046], [70.46895, 52.472375], [70.471092, 52.469068], [70.471591, 52.468264], [70.472033, 52.46723], [70.472214, 52.466617], [70.484762, 52.424157], [70.484893, 52.423835], [70.485121, 52.423276], [70.485383, 52.422716], [70.485729, 52.422034], [70.486231, 52.421219], [70.516504, 52.376344], [70.53437, 52.349758], [70.541819, 52.33872], [70.557428, 52.319521], [70.573789, 52.299426], [70.577838, 52.294474], [70.580082, 52.29171], [70.586539, 52.283779], [70.587396, 52.282724], [70.58791, 52.282089], [70.588007, 52.281954], [70.588707, 52.281112], [70.597771, 52.269983], [70.598478, 52.269101], [70.598868, 52.268614], [70.599115, 52.268199], [70.604462, 52.26167], [70.637142, 52.221407], [70.648053, 52.207998], [70.655098, 52.1993], [70.657325, 52.196211], [70.660407, 52.191807], [70.66268, 52.188942], [70.664965, 52.186136], [70.698574, 52.144125], [70.70155, 52.140028], [70.701982, 52.13947], [70.710759, 52.128945], [70.711706, 52.12744], [70.712437, 52.125771], [70.712934, 52.124135], [70.713161, 52.122466], [70.713278, 52.12034], [70.71343, 52.119574], [70.713717, 52.118814], [70.714136, 52.117934], [70.718637, 52.110772], [70.719034, 52.11], [70.719417, 52.109118], [70.729381, 52.078011], [70.729912, 52.076549], [70.730402, 52.075477], [70.730953, 52.074578], [70.732018, 52.073222], [70.733188, 52.072105], [70.734658, 52.070952], [70.736368, 52.069863], [70.73809, 52.069079], [70.739664, 52.068408], [70.741795, 52.067647], [70.743375, 52.067241], [70.754649, 52.064711], [70.756505, 52.064391], [70.758029, 52.064175], [70.759475, 52.06403], [70.761105, 52.063916], [70.776275, 52.063291], [70.776515, 52.063276], [70.777549, 52.063226], [70.778445, 52.063141], [70.779423, 52.063014], [70.78033, 52.06288], [70.781437, 52.06263], [70.782479, 52.062338], [70.79953, 52.056464], [70.801448, 52.055904], [70.802943, 52.055604], [70.80433, 52.05542], [70.80578, 52.055294], [70.80774, 52.055293], [70.833103, 52.056422], [70.835379, 52.056554], [70.837717, 52.056648], [70.839171, 52.056633], [70.840823, 52.056582], [70.842096, 52.05651], [70.843794, 52.056336], [70.84507, 52.056162], [70.846601, 52.055915], [70.848324, 52.055554], [70.85736, 52.053439], [70.858247, 52.053203], [70.859226, 52.052872], [70.860776, 52.052232], [70.861692, 52.051751], [70.862697, 52.051154], [70.891193, 52.033555], [70.892606, 52.032631], [70.893641, 52.031888], [70.89735, 52.029008], [70.898307, 52.028396], [70.899286, 52.027839], [70.900192, 52.027428], [70.901362, 52.02706], [70.902103, 52.026889], [70.902757, 52.026775], [70.903589, 52.026679], [70.904441, 52.02662], [70.905711, 52.026568], [70.906593, 52.026502], [70.907333, 52.026406], [70.913184, 52.02547], [70.915825, 52.025033], [70.918434, 52.024721], [70.927222, 52.023655], [70.928972, 52.023432], [70.929978, 52.023313], [70.93109, 52.023123], [70.931655, 52.022979], [70.932233, 52.022811], [70.932849, 52.022574], [70.93342, 52.022336], [70.933976, 52.022041], [70.934516, 52.021715], [70.935119, 52.021301], [70.935617, 52.020873], [70.93609, 52.020415], [70.936503, 52.019935], [70.936789, 52.019498], [70.937062, 52.019026], [70.937174, 52.018791], [70.937621, 52.017906], [70.937659, 52.017824], [70.937903, 52.017345], [70.938047, 52.016936], [70.938115, 52.016781], [70.938294, 52.016396], [70.938471, 52.016016], [70.938592, 52.015726], [70.938732, 52.015338], [70.938888, 52.014887], [70.939019, 52.014475], [70.939391, 52.013248], [70.941406, 52.00666], [70.941508, 52.006373], [70.941746, 52.005783], [70.941797, 52.005618], [70.942179, 52.00472], [70.942334, 52.004231], [70.942356, 52.004167], [70.942595, 52.003375], [70.942606, 52.003338], [70.942714, 52.002987], [70.943008, 52.002033], [70.943304, 52.000991], [70.943529, 52.000238], [70.944412, 51.997352], [70.94498, 51.995655], [70.945767, 51.993783], [70.946423, 51.992148], [70.947862, 51.98856], [70.9489, 51.98611], [70.949295, 51.985104], [70.94951, 51.984505], [70.949785, 51.983715], [70.95011, 51.982724], [70.950679, 51.980996], [70.951134, 51.979614], [70.951655, 51.978051], [70.952216, 51.976318], [70.952581, 51.975251], [70.953086, 51.973704], [70.95333, 51.972927], [70.953695, 51.971895], [70.954045, 51.970803], [70.954509, 51.969381], [70.954842, 51.968399], [70.955232, 51.967197], [70.955834, 51.965333], [70.956305, 51.963965], [70.956867, 51.962177], [70.957606, 51.959972], [70.95833, 51.957728], [70.959005, 51.955718], [70.959444, 51.95437], [70.960078, 51.952386], [70.960973, 51.94962], [70.961908, 51.946783], [70.962721, 51.944272], [70.963696, 51.941224], [70.964672, 51.938197], [70.965599, 51.935325], [70.966404, 51.932768], [70.966925, 51.931183], [70.967128, 51.930727], [70.967949, 51.929007], [70.968851, 51.927187], [70.969933, 51.924991], [70.971234, 51.922334], [70.972771, 51.919219], [70.97386, 51.917003], [70.974413, 51.915844], [70.974755, 51.915162], [70.975755, 51.913146], [70.97643, 51.911741], [70.977389, 51.909795], [70.978495, 51.907533], [70.979893, 51.904659], [70.981446, 51.901503], [70.982577, 51.89916], [70.983699, 51.896837], [70.985024, 51.894123], [70.985914, 51.892321], [70.986679, 51.89075], [70.986898, 51.890273], [70.987223, 51.88936], [70.987354, 51.888647], [70.987362, 51.887714], [70.987232, 51.88662], [70.987102, 51.886073], [70.986906, 51.885631], [70.986386, 51.884623], [70.985866, 51.883925], [70.985191, 51.883207], [70.984744, 51.882786], [70.983735, 51.881968], [70.983312, 51.881661], [70.981085, 51.88004], [70.979589, 51.878941], [70.978044, 51.877857], [70.975604, 51.87603], [70.975116, 51.875579], [70.974857, 51.875341], [70.974644, 51.875112], [70.973896, 51.874068], [70.973343, 51.873029], [70.973034, 51.87209], [70.972888, 51.870895], [70.972961, 51.870057], [70.973489, 51.86706], [70.973855, 51.865036], [70.974197, 51.863133], [70.974579, 51.860974], [70.97488, 51.859342], [70.975229, 51.857379], [70.975563, 51.85552], [70.975847, 51.853979], [70.976181, 51.852105], [70.976441, 51.850789], [70.976709, 51.849333], [70.977002, 51.847705], [70.977246, 51.846329], [70.97749, 51.844928], [70.977839, 51.842974], [70.978165, 51.841316], [70.978376, 51.84004], [70.978612, 51.838764], [70.978848, 51.837438], [70.979035, 51.836372], [70.979173, 51.835533], [70.979352, 51.833885], [70.979539, 51.832147], [70.979742, 51.830494], [70.979905, 51.829026], [70.980018, 51.827891], [70.980205, 51.826067], [70.980384, 51.824383], [70.980514, 51.823026], [70.980628, 51.82181], [70.980775, 51.820347], [70.980889, 51.819156], [70.981124, 51.816804], [70.981352, 51.81423], [70.981444, 51.812977], [70.981566, 51.811655], [70.98172, 51.810057], [70.981834, 51.808563], [70.981981, 51.807161], [70.982111, 51.805984], [70.982241, 51.804632], [70.982452, 51.802249], [70.982639, 51.800222], [70.982794, 51.798684], [70.982843, 51.79813], [70.982916, 51.797794], [70.983078, 51.797286], [70.983395, 51.796632], [70.983786, 51.796104], [70.984046, 51.795848], [70.984363, 51.795526], [70.984981, 51.795058], [70.985518, 51.794681], [70.986339, 51.794258], [70.987437, 51.793831], [70.988315, 51.793595], [70.989307, 51.793368], [70.990201, 51.793268], [70.991128, 51.793228], [70.992998, 51.793268], [70.994738, 51.793323], [70.996901, 51.793409], [70.998682, 51.793469], [71.000267, 51.793519], [71.001202, 51.793544], [71.002804, 51.793595], [71.004698, 51.793595], [71.005528, 51.793534], [71.00678, 51.793328], [71.007959, 51.793036], [71.008414, 51.792876], [71.009301, 51.792518], [71.009748, 51.792287], [71.01013, 51.792071], [71.011138, 51.791337], [71.011675, 51.790814], [71.012041, 51.790331], [71.012358, 51.789777], [71.012504, 51.789451], [71.012707, 51.788817], [71.013325, 51.786393], [71.013667, 51.785085], [71.014179, 51.783108], [71.014667, 51.781212], [71.015147, 51.779491], [71.015496, 51.778158], [71.015862, 51.776755], [71.016199, 51.775338], [71.016495, 51.773871], [71.016705, 51.773237], [71.016863, 51.77257], [71.017304, 51.770998], [71.017572, 51.769851], [71.01788, 51.768896], [71.018107, 51.767929], [71.018159, 51.767373], [71.018121, 51.766421], [71.017867, 51.764837], [71.017652, 51.763466], [71.017403, 51.762024], [71.017143, 51.76066], [71.016883, 51.75909], [71.016623, 51.757555], [71.016476, 51.756669], [71.016395, 51.755441], [71.016444, 51.754167], [71.016606, 51.753156], [71.016981, 51.751666], [71.017493, 51.750322], [71.018322, 51.748394], [71.018818, 51.747241], [71.019412, 51.745816], [71.019875, 51.744749], [71.020322, 51.743692], [71.02081, 51.742524], [71.021062, 51.741909], [71.021314, 51.741285], [71.021615, 51.7406], [71.021818, 51.739956], [71.021932, 51.739397], [71.021989, 51.738914], [71.022014, 51.738415], [71.021938, 51.73762], [71.021794, 51.736908], [71.021631, 51.736369], [71.0212, 51.735478], [71.020981, 51.7351], [71.020395, 51.734325], [71.01968, 51.733559], [71.018745, 51.732774], [71.017769, 51.732104], [71.016549, 51.731409], [71.01607, 51.731178], [71.015045, 51.73076], [71.013614, 51.730236], [71.012029, 51.729571], [71.011622, 51.729395], [71.010971, 51.729042], [71.010349, 51.728695], [71.009744, 51.728252], [71.00941, 51.72801], [71.008841, 51.727536], [71.007207, 51.725834], [71.006451, 51.725079], [71.006109, 51.724711], [71.005182, 51.723699], [71.00467, 51.723089], [71.004475, 51.722802], [71.00415, 51.722218], [71.004028, 51.721996], [71.003906, 51.721689], [71.003605, 51.720888], [71.003223, 51.719785], [71.002849, 51.718682], [71.002434, 51.717503], [71.001987, 51.716138], [71.001605, 51.715045], [71.001076, 51.713538], [71.000648, 51.712223], [71.000247, 51.711149], [71.00022, 51.711047], [70.999714, 51.70963], [70.999388, 51.70864], [70.999324, 51.708465], [70.999137, 51.707743], [70.999082, 51.707571], [70.998783, 51.706707], [70.998591, 51.706185], [70.998146, 51.704805], [70.997962, 51.704272], [70.997857, 51.703888], [70.997758, 51.703333], [70.997729, 51.702959], [70.997735, 51.702687], [70.997753, 51.702419], [70.997773, 51.702135], [70.997812, 51.701782], [70.997876, 51.70138], [70.997934, 51.701122], [70.998007, 51.700869], [70.998116, 51.70054], [70.998326, 51.700034], [70.99851, 51.699684], [70.998731, 51.699294], [70.999184, 51.698555], [70.999551, 51.697968], [70.999775, 51.697616], [71.000022, 51.697287], [71.00024, 51.696977], [71.000307, 51.696862], [71.000445, 51.696644], [71.000718, 51.696241], [71.000804, 51.696139], [71.001265, 51.69547], [71.00152, 51.69516], [71.001606, 51.695054], [71.002211, 51.694309], [71.002447, 51.694012], [71.002902, 51.693441], [71.003113, 51.693203], [71.003345, 51.692962], [71.003657, 51.692656], [71.004248, 51.692177], [71.004687, 51.691875], [71.004967, 51.691688], [71.005367, 51.691449], [71.005729, 51.691256], [71.006146, 51.691057], [71.006614, 51.690853], [71.007358, 51.690571], [71.009781, 51.689852], [71.014488, 51.688451], [71.019123, 51.6871], [71.020278, 51.686772], [71.021384, 51.686419], [71.021969, 51.686203], [71.022481, 51.685996], [71.022993, 51.685744], [71.023449, 51.685517], [71.023831, 51.6853], [71.024229, 51.685068], [71.025002, 51.684489], [71.025316, 51.684211], [71.025628, 51.683899], [71.026184, 51.683269], [71.026433, 51.682894], [71.026645, 51.682561], [71.026837, 51.68219], [71.027008, 51.681812], [71.027108, 51.681524], [71.027227, 51.681108], [71.027304, 51.680395], [71.027279, 51.679437], [71.027271, 51.679287], [71.027236, 51.678728], [71.027198, 51.677809], [71.027209, 51.677017], [71.027293, 51.676291], [71.027437, 51.675494], [71.027651, 51.674854], [71.027968, 51.674182], [71.028659, 51.672921], [71.029537, 51.671343], [71.029796, 51.670882], [71.030415, 51.669805], [71.064368, 51.607852], [71.06483, 51.607146], [71.065396, 51.606415], [71.066143, 51.605558], [71.071085, 51.60028], [71.071545, 51.599822], [71.072129, 51.599311], [71.072694, 51.598881], [71.073355, 51.59845], [71.074044, 51.598047], [71.074805, 51.597662], [71.075619, 51.5973], [71.076433, 51.596996], [71.085131, 51.594054], [71.08605, 51.593674], [71.086812, 51.593308], [71.087574, 51.592889], [71.088404, 51.592383], [71.089193, 51.591895], [71.097253, 51.58692], [71.097895, 51.586493], [71.098425, 51.586076], [71.098997, 51.585568], [71.099606, 51.584922], [71.100075, 51.58434], [71.100458, 51.583765], [71.1007, 51.583308], [71.100878, 51.582878], [71.101235, 51.581778], [71.101357, 51.580822], [71.101318, 51.57994], [71.101147, 51.579037], [71.100805, 51.578182], [71.100583, 51.577705], [71.100257, 51.577183], [71.099648, 51.576374], [71.085577, 51.558294], [71.084924, 51.557467], [71.084559, 51.556968], [71.084246, 51.556415], [71.083978, 51.555818], [71.083206, 51.553196], [71.082975, 51.55229], [71.082843, 51.551133], [71.082816, 51.550113], [71.082941, 51.548989], [71.083162, 51.547882], [71.083327, 51.54727], [71.083504, 51.546783], [71.083682, 51.546303], [71.083942, 51.545671], [71.1005, 51.511256], [71.100759, 51.510742], [71.101029, 51.51027], [71.10162, 51.509497], [71.102133, 51.508962], [71.102844, 51.508325], [71.103933, 51.507449], [71.104648, 51.506937], [71.105516, 51.506392], [71.106247, 51.506012], [71.106924, 51.505701], [71.119055, 51.500428], [71.120615, 51.499746], [71.122155, 51.499069], [71.124771, 51.498115], [71.125757, 51.497866], [71.12691, 51.497632], [71.128163, 51.497441], [71.129738, 51.497355], [71.131131, 51.497352], [71.132801, 51.497447], [71.139235, 51.498214], [71.146297, 51.499071], [71.148647, 51.499361], [71.150419, 51.49954], [71.15181, 51.499624], [71.153135, 51.499644], [71.153818, 51.499631], [71.155298, 51.499583], [71.156423, 51.499486], [71.157859, 51.49931], [71.15935, 51.499066], [71.160282, 51.498876], [71.161214, 51.498646], [71.162118, 51.498383], [71.163028, 51.498083], [71.164087, 51.49766], [71.164886, 51.497309], [71.165949, 51.496798], [71.167131, 51.496095], [71.168154, 51.495361], [71.168764, 51.494842], [71.169141, 51.494479], [71.169467, 51.494136], [71.170105, 51.493384], [71.170383, 51.493018], [71.171119, 51.492014], [71.172115, 51.490638], [71.173425, 51.48883], [71.174827, 51.486926], [71.175909, 51.48547], [71.178101, 51.482392], [71.179963, 51.479834], [71.180571, 51.478985], [71.181147, 51.478183], [71.181719, 51.477414], [71.182456, 51.4764], [71.183067, 51.475555], [71.183665, 51.474729], [71.184285, 51.473883], [71.184977, 51.472932], [71.185364, 51.472407], [71.185853, 51.471742], [71.186337, 51.471036], [71.186697, 51.470451], [71.186974, 51.469965], [71.18719, 51.469529], [71.187364, 51.469164], [71.187516, 51.468835], [71.187768, 51.468161], [71.187943, 51.467577], [71.188189, 51.466393], [71.189261, 51.461115], [71.18934, 51.460685], [71.189507, 51.460455], [71.189579, 51.460116], [71.189747, 51.459417], [71.189891, 51.458833], [71.190288, 51.456711], [71.190711, 51.454628], [71.191172, 51.452545], [71.191783, 51.449407], [71.19194, 51.448687], [71.192165, 51.447664], [71.192326, 51.447059], [71.192461, 51.446647], [71.192617, 51.446218], [71.193128, 51.444879], [71.193444, 51.444102], [71.193759, 51.443482], [71.19411, 51.442951], [71.194428, 51.442499], [71.195049, 51.441915], [71.195547, 51.441532], [71.202161, 51.436869], [71.204119, 51.435485], [71.207089, 51.43339], [71.209351, 51.431793], [71.218638, 51.425227], [71.224007, 51.421438], [71.231076, 51.416435], [71.232371, 51.415522], [71.234929, 51.413718], [71.235727, 51.413142], [71.2363, 51.4127], [71.236696, 51.412371], [71.237211, 51.411927], [71.237746, 51.411433], [71.238957, 51.41026], [71.240189, 51.409058], [71.241145, 51.40813], [71.243278, 51.40608], [71.248732, 51.400782], [71.25248, 51.397136], [71.253815, 51.395853], [71.254351, 51.395332], [71.254977, 51.394698], [71.255363, 51.394271], [71.255643, 51.393946], [71.255984, 51.393522], [71.256289, 51.393134], [71.256578, 51.392735], [71.25693, 51.392215], [71.259132, 51.3889], [71.264079, 51.381501], [71.266596, 51.377729], [71.268883, 51.374309], [71.274226, 51.36629], [71.278306, 51.360171], [71.290754, 51.34148], [71.295464, 51.334373], [71.298969, 51.329077], [71.30008, 51.327408], [71.303194, 51.3227], [71.304711, 51.320425], [71.306252, 51.318101], [71.307319, 51.316481], [71.310739, 51.311312], [71.312406, 51.308792], [71.313665, 51.306872], [71.315572, 51.303986], [71.31689, 51.30197], [71.317703, 51.300724], [71.31855, 51.299453], [71.319399, 51.298155], [71.320187, 51.296982], [71.320842, 51.295985], [71.321345, 51.295218], [71.322301, 51.293758], [71.324809, 51.290082], [71.326092, 51.288131], [71.327255, 51.286367], [71.328458, 51.284523], [71.329549, 51.282869], [71.330573, 51.281315], [71.331947, 51.27922], [71.335897, 51.273221], [71.337403, 51.270917], [71.339312, 51.268027], [71.340992, 51.265445], [71.34265, 51.2629], [71.345062, 51.259237], [71.346408, 51.257198], [71.347816, 51.25506], [71.349218, 51.252916], [71.349843, 51.251932], [71.350102, 51.251483], [71.351662, 51.249159], [71.354636, 51.244537], [71.35498, 51.244034], [71.355364, 51.243425], [71.355839, 51.242696], [71.356421, 51.241849], [71.35678, 51.241303], [71.362486, 51.232532], [71.363402, 51.231109], [71.363735, 51.230628], [71.363878, 51.230401], [71.365252, 51.228281], [71.36699, 51.225606], [71.37263, 51.217008], [71.373381, 51.215821], [71.373786, 51.215226], [71.37413, 51.214841], [71.374637, 51.21426], [71.374841, 51.214036], [71.375034, 51.213848], [71.375221, 51.213678], [71.375446, 51.213487], [71.375699, 51.21329], [71.375942, 51.213121], [71.376151, 51.212986], [71.3764, 51.212837], [71.376776, 51.212632], [71.377006, 51.212515], [71.377282, 51.212393], [71.377577, 51.212272], [71.377954, 51.212125], [71.378409, 51.21196], [71.382841, 51.210445], [71.382994, 51.210386], [71.383961, 51.209998], [71.384438, 51.209832], [71.384751, 51.209716], [71.385779, 51.209306], [71.386597, 51.208982], [71.386979, 51.208799], [71.387396, 51.208572], [71.388058, 51.208137], [71.388191, 51.208048], [71.388699, 51.207703], [71.388793, 51.207636], [71.389326, 51.207259], [71.390563, 51.206356], [71.392137, 51.205059], [71.39743, 51.201301], [71.398877, 51.200277], [71.399044, 51.200156], [71.399216, 51.200042], [71.399468, 51.199855], [71.39978, 51.199605], [71.399959, 51.199475], [71.400167, 51.199338], [71.400379, 51.199212], [71.400522, 51.199141], [71.401242, 51.198786], [71.40156, 51.198657], [71.402007, 51.198474], [71.40229, 51.198371], [71.402466, 51.198315], [71.403523, 51.197927], [71.404054, 51.197761], [71.405074, 51.197377], [71.405184, 51.197339], [71.406924, 51.196731], [71.407859, 51.19642], [71.409897, 51.195777], [71.413332, 51.194696], [71.41394, 51.194505], [71.414306, 51.1944], [71.414696, 51.194304], [71.415287, 51.194152], [71.416378, 51.193804], [71.420653, 51.192451], [71.422022, 51.192016], [71.421005, 51.192284], [71.420547, 51.19243], [71.420288, 51.192515], [71.420153, 51.192552], [71.419944, 51.192594], [71.419692, 51.192618], [71.418828, 51.192701], [71.418522, 51.192732], [71.418167, 51.192753], [71.417562, 51.192743], [71.417099, 51.192743], [71.416717, 51.192747], [71.416423, 51.192776], [71.41611, 51.192843], [71.415759, 51.192945], [71.413084, 51.193811]]}}]}