{"type": "FeatureCollection", "name": "trans_siberian_railway", "features": [{"type": "Feature", "geometry": {"type": "LineString", "coordinates": [[37.6601435213654, 55.7758473547737], [37.6601435213654, 55.7943802477959], [37.6491571254406, 55.8129043260145], [37.657394676596, 55.8314195916867], [37.6683810725208, 55.8499260470723], [37.7013402602951, 55.8622587905096], [37.7342994480695, 55.8792086622831], [37.7452858439943, 55.8976923688397], [37.7617699294579, 55.9161672732287], [37.780993876538, 55.934633377722], [37.8029666683876, 55.9530906845936], [37.8221906154677, 55.9715391961207], [37.8414235457007, 55.9899789145825], [37.8551498032421, 56.0099466116719], [37.8661361991669, 56.0283680179814], [37.8743827334751, 56.0467806382701], [37.8853691293999, 56.0667139704784], [37.8963555253247, 56.0851082957095], [37.910081782866, 56.1050268270582], [37.9238170235602, 56.1234028647995], [37.9375522642544, 56.1417701283778], [37.9540273665651, 56.1616593490968], [37.9732513136453, 56.1800083399708], [37.9924842438783, 56.1998727721341], [38.0117081909584, 56.2182035027105], [38.0281832932692, 56.2365254710487], [38.0501560851188, 56.2563656323108], [38.0721288769683, 56.2746693528299], [38.0968505135873, 56.292964318259], [38.1298097013616, 56.303631093256], [38.162768889136, 56.3112505309216], [38.1957280769103, 56.326484847409], [38.2286872646847, 56.3447500397698], [38.261646452459, 56.3614937473446], [38.2946056402334, 56.3782251301825], [38.3275648280077, 56.3843079004586], [38.3605240157821, 56.3843079004586], [38.3934832035564, 56.3843079004586], [38.4291912361002, 56.3858296845316], [38.4648902854911, 56.3858296845316], [38.4978494732654, 56.3858296845316], [38.5308086610397, 56.3858296845316], [38.5637678488141, 56.3858296845316], [38.6022247261273, 56.3858296845316], [38.637932758671, 56.3858296845316], [38.6708829632925, 56.3873464349516], [38.7093398406057, 56.3888680976244], [38.74229902838, 56.3995080915533], [38.7752582161543, 56.4177432940345], [38.8082174039287, 56.4253399583299], [38.8329390405477, 56.443562783738], [38.8384277469336, 56.4617768756402], [38.846665298089, 56.4799822363822], [38.8604005387832, 56.5012132708191], [38.8768846242468, 56.5375724940798], [38.8988574160964, 56.5739017898777], [38.964775791645, 56.5981019489297], [39.0306941671937, 56.6011283519625], [39.0966035595896, 56.6222866173323], [39.1625219351383, 56.6404149562697], [39.2064675188374, 56.6766455126183], [39.228440310687, 56.7128412560874], [39.228440310687, 56.7490022056962], [39.2339380002258, 56.7851283805011], [39.2504131025365, 56.8212197995957], [39.3053450821604, 56.85727648211], [39.3383042699348, 56.8932984472109], [39.321829167624, 56.9292857141019], [39.3108427716993, 56.9652383020225], [39.3108427716993, 57.0011562302484], [39.3108427716993, 57.0370395180913], [39.3108427716993, 57.0728881848985], [39.3108427716993, 57.1087022500532], [39.3108427716993, 57.1444817329735], [39.3108427716993, 57.1802266531132], [39.3767611472479, 57.2099876984978], [39.4426795227966, 57.2397247667811], [39.4866251064958, 57.2753776148779], [39.5140866047313, 57.3109959718223], [39.5525434820445, 57.3465750103155], [39.5635298779692, 57.3821244485298], [39.58000498028, 57.4176394545384], [39.6294482535179, 57.453120048059], [39.6733938372171, 57.488566248843], [39.6953666290666, 57.5239780766757], [39.7338145232269, 57.5593555513751], [39.7997328987756, 57.5858685327392], [39.8491671888607, 57.6211859349056], [39.8986104620987, 57.6564690386114], [39.9645288376474, 57.6799720628948], [39.9974880254217, 57.715198046831], [40.0249495236572, 57.7503849920679], [40.0524200050456, 57.7855425102753], [40.0853791928199, 57.8206658233589], [40.1293247765191, 57.855754951411], [40.1403111724439, 57.8908099145558], [40.1512975683686, 57.9258307329488], [40.1567862747546, 57.9608174267774], [40.1457998788298, 58.0277823258507], [40.1457998788298, 58.0975228349028], [40.2007318584537, 58.1671225064473], [40.2776366299272, 58.2365909890273], [40.4094733810246, 58.2712743052846], [40.541310132122, 58.3059236988296], [40.6731468832193, 58.3232356809962], [40.8049836343167, 58.3347722950703], [40.9478067813389, 58.3347722950703], [41.0906299283611, 58.3520701570292], [41.2224576963056, 58.4039129410131], [41.354294447403, 58.4556795762388], [41.4861311985004, 58.4729182114026], [41.6179679495977, 58.4499314861484], [41.7498047006951, 58.426929731391], [41.8816414517925, 58.426929731391], [42.0134782028899, 58.426929731391], [42.1453149539873, 58.4096685485313], [42.2771517050846, 58.3463051441363], [42.408988456182, 58.3405391901817], [42.5408252072794, 58.3405391901817], [42.6836393711487, 58.3463051441363], [42.8154761222461, 58.3693595502907], [42.9473128733435, 58.3751207998896], [43.0791496244409, 58.3808811089033], [43.2109863755383, 58.3808811089033], [43.3428231266356, 58.3808811089033], [43.4856462736578, 58.3693595502907], [43.6174830247552, 58.3578342289557], [43.7493197758526, 58.3463051441363], [43.8811565269499, 58.3463051441363], [44.0129932780473, 58.3347722950703], [44.1558074419166, 58.3347722950703], [44.3206033807884, 58.3347722950703], [44.4634265278105, 58.3347722950703], [44.5952632789079, 58.3347722950703], [44.7380864259301, 58.3347722950703], [44.8699231770275, 58.3347722950703], [45.0127463240496, 58.3405391901817], [45.144583075147, 58.3520701570292], [45.2874062221692, 58.3578342289557], [45.4192429732665, 58.3578342289557], [45.5730525162135, 58.3635973600111], [45.704880284158, 58.3693595502907], [45.8806626189545, 58.3751207998896], [46.0344721619015, 58.3751207998896], [46.1882817048484, 58.3751207998896], [46.3311048518706, 58.3751207998896], [46.462941602968, 58.3751207998896], [46.6167511459149, 58.3693595502907], [46.7485878970123, 58.3693595502907], [46.8804246481097, 58.3635973600111], [47.0232477951318, 58.3578342289557], [47.1660619590012, 58.3405391901817], [47.3088851060233, 58.3405391901817], [47.4407218571207, 58.3290044587068], [47.5725586082181, 58.3290044587068], [47.7043953593155, 58.2828278713105], [47.8582049022624, 58.2712743052846], [47.9900416533598, 58.2712743052846], [48.1218784044572, 58.2712743052846], [48.2537151555546, 58.2886032411144], [48.3855519066519, 58.2943776689055], [48.539352466446, 58.3001511547789], [48.6711892175434, 58.3290044587068], [48.8030259686408, 58.3405391901817], [48.9348627197382, 58.3751207998896], [49.0776858667603, 58.3808811089033], [49.1985362219329, 58.4499314861484], [49.3303729730303, 58.4901483959149], [49.4622097241277, 58.5073701323609], [49.5940464752251, 58.5073701323609], [49.7258832263225, 58.4958899132766], [49.8577199774198, 58.4901483959149], [49.9895477453644, 58.4844059398792], [50.1323708923865, 58.4671729387702], [50.2751940394087, 58.43843248784], [50.4070307905061, 58.43843248784], [50.4509763742052, 58.43843248784], [50.560840333453, 58.43843248784], [50.6926770845504, 58.444182456714], [50.8355002315726, 58.4556795762388], [50.96733698267, 58.4556795762388], [51.0991737337673, 58.426929731391], [51.2419968807895, 58.4154232160367], [51.3848200278117, 58.4039129410131], [51.527634191681, 58.3808811089033], [51.6594709427784, 58.3520701570292], [51.8022940898005, 58.3290044587068], [51.9451172368227, 58.2828278713105], [52.0989267797696, 58.2423738983507], [52.2417499267918, 58.2076622975135], [52.3735866778892, 58.1671225064473], [52.5054234289866, 58.1497341521282], [52.6372601800839, 58.1381371946426], [52.7690969311813, 58.1207346746166], [52.9009246991259, 58.0510442944039], [52.9888158665241, 57.9812129620579], [53.0767070339224, 57.9112452595974], [53.2085437850198, 57.8878923596665], [53.3623533279667, 57.8937320071838], [53.5051764749889, 57.8937320071838], [53.6370132260862, 57.8937320071838], [53.7798363731084, 57.8937320071838], [53.9226595201306, 57.9054084570558], [54.0544962712279, 57.9287499787659], [54.1973194182501, 57.9870374460994], [54.3291471861946, 58.0510442944039], [54.460983937292, 58.0684808386644], [54.5928206883894, 58.0684808386644], [54.7356438354116, 58.1265364592575], [54.867480586509, 58.1555312143947], [54.9993173376063, 58.1960842181878], [55.1311540887037, 58.2365909890273], [55.2739772357259, 58.2365909890273], [55.4277867786728, 58.2134499221184], [55.5815963216198, 58.1729167364225], [55.7134330727172, 58.1497341521282], [55.8452608406617, 58.1149319452178], [55.9880839876839, 58.0684808386644], [56.1199207387812, 58.004505217072], [56.2517574898786, 57.934582989315], [56.3396486572769, 57.8586798925324], [56.4055670328256, 57.7826164184216], [56.4604990124495, 57.7122614571506], [56.5044445961486, 57.6417695083965], [56.6252949513212, 57.5711404123422], [56.7681180983434, 57.5298767075574], [56.8999548494407, 57.4944706066242], [57.0317916005381, 57.4590301360402], [57.1746147475603, 57.4117226771593], [57.3174289114296, 57.3880460067912], [57.4602520584518, 57.3880460067912], [57.5920888095491, 57.3880460067912], [57.7349119565713, 57.3880460067912], [57.8777351035935, 57.4117226771593], [58.0205582506156, 57.4058049437863], [58.1743677935626, 57.3643540346794], [58.30620454466, 57.3287873729786], [58.4490276916821, 57.3109959718223], [58.5808644427795, 57.293191103519], [58.7236786066488, 57.2872542319084], [58.8555153577462, 57.2516128830397], [58.9873521088436, 57.2218854024301], [59.119188859941, 57.1861807809007], [59.2620120069631, 57.1504416193307], [59.3938487580605, 57.1087022500532], [59.5366719050827, 57.0549681779138], [59.6685086561801, 57.0191022030093], [59.8003454072774, 56.9891874373923], [59.9321821583748, 56.9712270297956], [60.0640189094722, 56.9532579580788], [60.2068330733415, 56.9412737623432], [60.3496562203637, 56.9232902450686], [60.4814929714611, 56.8872971964778], [60.6133297225584, 56.8512694464738], [60.7451664736558, 56.8272316584267], [60.887989620678, 56.7851283805011], [61.0527855595497, 56.7490022056962], [61.1846223106471, 56.7309260789341], [61.3164590617445, 56.7309260789341], [61.4592822087666, 56.7369524206355], [61.6130827685607, 56.7490022056962], [61.7449195196581, 56.7670696387567], [61.8877426666803, 56.7791097654741], [62.0305658137025, 56.7851283805011], [62.1843753566494, 56.8152069758595], [62.3271985036715, 56.8272316584267], [62.4590352547689, 56.8452614463762], [62.5908720058663, 56.85727648211], [62.7227087569637, 56.8932984472109], [62.8545455080611, 56.911296416731], [62.9863822591585, 56.9172938126414], [63.1511692148773, 56.9412737623432], [63.2939923618995, 56.95924861148], [63.4258291129969, 56.9772147948887], [63.5686522600191, 57.0071391832823], [63.7114754070412, 57.048992919519], [63.8433121581386, 57.0788595981262], [63.9861353051608, 57.0788595981262], [64.1179720562581, 57.0788595981262], [64.2717815992051, 57.0788595981262], [64.4036183503025, 57.0788595981262], [64.535446118247, 57.0788595981262], [64.689255661194, 57.0788595981262], [64.8210924122913, 57.0788595981262], [64.9639155593135, 57.0788595981262], [65.1177251022604, 57.0788595981262], [65.2495618533578, 57.0907995414696], [65.3813986044552, 57.1265963130776], [65.5132353555526, 57.1325590799371], [65.64507210665, 57.102735641263], [65.7659224618226, 57.0131211741728], [65.7988816495969, 56.9412737623432], [65.842827233296, 56.8692876603531], [65.9087456088447, 56.7971627143343], [66.0405733767893, 56.7369524206355], [66.1724101278866, 56.6947477347749], [66.3152332749088, 56.6464558006949], [66.4470700260062, 56.592053361634], [66.5898931730283, 56.5496861345744], [66.7327163200505, 56.5315191743292], [66.8755394670727, 56.5193997209175], [67.0183626140948, 56.507276390299], [67.161185761117, 56.4951491817761], [67.3149953040639, 56.4890841230826], [67.4578094679333, 56.4830180946518], [67.5896462190306, 56.4526734033909], [67.7434557619776, 56.434454946219], [67.9082517008493, 56.4162277543695], [68.0400884519467, 56.4162277543695], [68.1719252030441, 56.4162277543695], [68.325734745991, 56.4162277543695], [68.4575714970884, 56.404071439381], [68.6003946441106, 56.3371422652121], [68.732231395208, 56.2761955144853], [68.8860319550021, 56.2517895815609], [69.0728006857234, 56.2029310009372], [69.2485830205199, 56.1662461684316], [69.4133789593916, 56.13564868195], [69.545215710489, 56.111153148021], [69.7100116493607, 56.0743805931027], [69.8418484004581, 56.0621152709999], [69.9846715474802, 56.0437099694491], [70.1274946945024, 56.0130149454826], [70.2593314455998, 55.982295510608], [70.4131320053939, 55.9453999514707], [70.5669415483408, 55.90231066105], [70.709764695363, 55.8591734508122], [70.8416014464604, 55.8098150676842], [70.9954109894073, 55.7418449543389], [71.1272477405047, 55.7047254290621], [71.2590844916021, 55.6613687966636], [71.412894034549, 55.6055539038157], [71.5447307856464, 55.5558738946147], [71.6765675367438, 55.5185726201831], [71.8193817006131, 55.4750097340065], [71.9512184517105, 55.4126934195377], [72.0830552028079, 55.3752563801243], [72.2148919539052, 55.3440317608663], [72.3467287050026, 55.3065296988698], [72.4126470805513, 55.262732434439], [72.5444838316487, 55.2314190823716], [72.6873069786708, 55.1938104929911], [72.8191437297682, 55.1247690844668], [72.9509804808656, 55.0556081022091], [73.0938036278878, 55.0052340412299], [73.2256403789852, 54.9674119292474], [73.3574681469297, 54.9484875066169], [73.544236877651, 54.954796637826], [73.6760736287484, 54.954796637826], [73.8079103798458, 54.9611047786765], [73.9397471309431, 54.9737180896178], [74.0715838820405, 54.9800232598666], [74.247366216837, 54.9926306303163], [74.401175759784, 55.0178334932412], [74.5439989068061, 55.0493148072372], [74.7527314462241, 55.0996334769439], [74.961472968795, 55.1373309586305], [75.1152825117419, 55.1436104135927], [75.2471192628393, 55.1624428509616], [75.3899424098615, 55.1687183545122], [75.5217791609589, 55.1812663987359], [75.6865750998306, 55.2000810590813], [75.818411850928, 55.2063506379202], [75.9722213938749, 55.2063506379202], [76.1040581449723, 55.2126192295882], [76.2578587047664, 55.2376837261608], [76.3896954558638, 55.2689921451921], [76.5435049988107, 55.3002759050957], [76.6863281458329, 55.3440317608663], [76.8401376887798, 55.3752563801243], [76.982960835802, 55.3877393323449], [77.1367703787489, 55.3877393323449], [77.2686071298463, 55.3877393323449], [77.4224166727933, 55.3877393323449], [77.5652398198154, 55.3877393323449], [77.69706758776, 55.3877393323449], [77.8838363184813, 55.3877393323449], [78.0156730695786, 55.3877393323449], [78.1804690084504, 55.3814983486877], [78.3123057595477, 55.3752563801243], [78.4551289065699, 55.3690134265732], [78.5869656576673, 55.3690134265732], [78.7407752006142, 55.3690134265732], [78.8945847435612, 55.3690134265732], [79.0374078905833, 55.3690134265732], [79.1692356585279, 55.3627694879531], [79.3010724096253, 55.3315350159746], [79.4329091607226, 55.3127825067637], [79.5757323077448, 55.2940211253606], [79.718555454767, 55.2815086076836], [79.8613786017891, 55.2689921451921], [80.0042017488113, 55.2502100535144], [80.1580112917582, 55.2251534517335], [80.32280723063, 55.2188868341658], [80.4656303776521, 55.2126192295882], [80.630417333371, 55.2000810590813], [80.7622540844684, 55.1687183545122], [80.8501452518666, 55.0870597423068], [80.981982002964, 55.0744820529017], [81.1138187540614, 55.0744820529017], [81.2456555051588, 55.0744820529017], [81.3774922562562, 55.0807713919901], [81.5093290073536, 55.0807713919901], [81.6411657584509, 55.0681917249617], [81.7949753013979, 55.0619004080908], [81.9268120524953, 55.0493148072372], [82.0586398204398, 55.0493148072372], [82.1904765715372, 55.0430205230955], [82.3223133226346, 55.0430205230955], [82.4541500737319, 55.0367252497045], [82.5969732207541, 55.0241317348567], [82.7288099718515, 55.0115342620587], [82.8606467229489, 55.0115342620587], [82.9101600001003, 55.0397600002217], [83.0913610373693, 55.1059188614238], [83.1902386006923, 55.1875389395695], [83.3220753517897, 55.262732434439], [83.464889515659, 55.2752508695801], [83.618699058606, 55.2940211253606], [83.7615222056281, 55.3190343288585], [83.8823725608007, 55.393979331177], [83.9922365200485, 55.4687825304791], [84.1240732711459, 55.4999087121128], [84.2559100222433, 55.5247919565469], [84.4097195651903, 55.5620873340535], [84.5525427122124, 55.5993473403772], [84.6953658592346, 55.6427726662644], [84.827202610332, 55.6861499006218], [84.9590303782765, 55.7232870726023], [85.0908671293739, 55.7665750751995], [85.2227038804713, 55.8159882919443], [85.3545406315686, 55.8406713985213], [85.486377382666, 55.877666696211], [85.6182141337634, 55.9084692071607], [85.7610372807856, 55.9700008992343], [85.9038604278077, 56.0130149454826], [86.0466835748299, 56.0498460458654], [86.1785203259273, 56.0621152709999], [86.3103570770246, 56.1050268270582], [86.4421848449692, 56.1172784939064], [86.5850079919913, 56.1172784939064], [86.7717767227126, 56.1172784939064], [86.9145998697348, 56.1172784939064], [87.0464366208322, 56.1172784939064], [87.2332053515535, 56.1172784939064], [87.3650421026509, 56.1172784939064], [87.4968788537482, 56.1172784939064], [87.66167479262, 56.13564868195], [87.8044889564893, 56.13564868195], [87.969284895361, 56.1478906001546], [88.1780264179319, 56.1540100973655], [88.4087407323523, 56.1540100973655], [88.5955094630736, 56.1540100973655], [88.7383326100957, 56.1540100973655], [88.9141149448922, 56.1601286200961], [89.0569380919144, 56.1662461684316], [89.1887748430118, 56.1784783422595], [89.3315890068811, 56.1784783422595], [89.4744121539033, 56.1907066195333], [89.6062489050007, 56.1968192971762], [89.7600584479476, 56.2151514871563], [89.891895199045, 56.2151514871563], [90.0347183460671, 56.239580776782], [90.1775414930893, 56.2456856657694], [90.3643102238106, 56.2517895815609], [90.5291061626823, 56.2639944938996], [90.6719293097045, 56.2639944938996], [90.8257298694986, 56.2639944938996], [90.9795394124455, 56.2700954906186], [91.1443353513173, 56.2700954906186], [91.2871584983394, 56.2517895815609], [91.4409680412864, 56.2273680788759], [91.5837911883085, 56.1907066195333], [91.7266143353307, 56.1417701283778], [91.8804238782776, 56.1050268270582], [92.0342334212246, 56.0866420128536], [92.1880339810187, 56.0743805931027], [92.3308571280408, 56.0621152709999], [92.4626938791382, 56.0559811463541], [92.6055170261604, 56.0437099694491], [92.7373537772578, 56.0252958837853], [92.8691905283551, 56.0130149454826], [93.0010272794525, 55.9638521280471], [93.1328640305499, 55.9269389786005], [93.2647007816473, 55.8961511369838], [93.3965375327447, 55.8715032594818], [93.5283742838421, 55.8468397279683], [93.6711884477114, 55.8406713985213], [93.8140115947335, 55.8406713985213], [93.9458483458309, 55.8406713985213], [94.0996578887779, 55.8406713985213], [94.2314946398752, 55.8406713985213], [94.3743177868974, 55.853007078704], [94.5061545379948, 55.877666696211], [94.594045705393, 55.9330936137304], [94.7368688524152, 55.9515516542497], [94.8796919994374, 55.957702379747], [95.0115287505348, 55.957702379747], [95.1433565184793, 55.9945862145441], [95.2751932695767, 56.0743805931027], [95.3740708328997, 56.1478906001546], [95.5059075839971, 56.1968192971762], [95.6377443350945, 56.2456856657694], [95.8025402739662, 56.2578925242423], [95.9343770250636, 56.2578925242423], [96.0772001720857, 56.2578925242423], [96.2200233191079, 56.2578925242423], [96.3628464661301, 56.2578925242423], [96.5056696131522, 56.2578925242423], [96.6594701729463, 56.2517895815609], [96.7913069240437, 56.2151514871563], [96.9341300710659, 56.1723627424576], [97.0879396140128, 56.1417701283778], [97.230762761035, 56.111153148021], [97.3625995121324, 56.0805117907296], [97.4944362632297, 56.0621152709999], [97.6482458061767, 56.0498460458654], [97.7910689531988, 56.0130149454826], [97.9229057042962, 55.9700008992343], [98.0547334722408, 55.9146267753998], [98.1536110355638, 55.8406713985213], [98.2195294111125, 55.7542119746994], [98.3513661622099, 55.6799560961594], [98.494189309232, 55.6365719933219], [98.6150396644046, 55.5620873340535], [98.6370124562542, 55.4812359538517], [98.7029308318029, 55.4002183452655], [98.746876415502, 55.3252851652351], [98.746876415502, 55.2439473831815], [98.8127947910507, 55.1561663596782], [98.8787131665994, 55.0744820529017], [98.9336451462233, 54.9926306303163], [99.0544955013959, 54.9169269924292], [99.2083050443429, 54.8600608083576], [99.4060601709889, 54.803109146429], [99.5488743348582, 54.7714346093599], [99.6916974818804, 54.7270485646516], [99.8235342329778, 54.7080110779348], [99.9773437759247, 54.7016632623091], [100.120166922947, 54.7016632623091], [100.284962861819, 54.6953144531941], [100.416799612916, 54.6762620641381], [100.548636364013, 54.6254119604876], [100.680473115111, 54.5935983296576], [100.823296262133, 54.510766473685], [100.955124030077, 54.4660950098812], [101.0979471771, 54.4533227686541], [101.229783928197, 54.4469351533506], [101.361620679294, 54.3894017612363], [101.493457430392, 54.3125649094569], [101.614307785564, 54.2291627832764], [101.746144536662, 54.1520263402625], [101.888967683684, 54.0940795131907], [102.009818038857, 54.0166962593305], [102.141654789954, 53.9391635110486], [102.262505145126, 53.855006798397], [102.361373725297, 53.7706805119662], [102.43827849677, 53.6861844930974], [102.515183268244, 53.6015185842873], [102.614060831567, 53.5232145125823], [102.71293839489, 53.4382214539537], [102.811815958213, 53.3596151338414], [102.910693521536, 53.2677241529816], [102.976611897084, 53.1888029408815], [103.086475856332, 53.1097415984987], [103.185353419655, 53.0305292333875], [103.328176566677, 52.9511711114875], [103.438040525925, 52.8716671171154], [103.547904485173, 52.7920171354976], [103.646782048496, 52.7055647808291], [103.778618799594, 52.6456126306645], [103.910446567538, 52.5922527423424], [104.009324130861, 52.5054041515469], [104.097215298259, 52.4250836190905], [104.141160881958, 52.3446164756122], [104.207079257507, 52.2572836631719], [104.174120069733, 52.1697730342481], [104.042283318635, 52.0888409206191], [103.987351339012, 52.0077617498159], [103.921432963463, 51.9265354172855], [103.855514587914, 51.8451618194675], [103.82255540014, 51.7636408538004], [103.756646007744, 51.6819724187295], [103.82255540014, 51.6001564137136], [103.965378547162, 51.5865060587967], [104.119188090109, 51.5796793429706], [104.262011237131, 51.538697507269], [104.393847988228, 51.5250286880026], [104.536671135251, 51.4703123619959], [104.679494282273, 51.456623015997], [104.81133103337, 51.456623015997], [104.943167784468, 51.456623015997], [105.096977327414, 51.463468202306], [105.228814078512, 51.5045177631346], [105.360641846456, 51.538697507269], [105.492478597554, 51.5660228342974], [105.624315348651, 51.6206242551099], [105.745165703824, 51.6479003562215], [105.877002454921, 51.6955940697848], [106.008839206019, 51.7500396916139], [106.140675957116, 51.8180045434864], [106.261526312289, 51.9062058279752], [106.349417479687, 51.9874689671575], [106.492240626709, 52.000998510967], [106.646050169656, 52.0077617498159], [106.7778779376, 52.0145239667077], [106.931687480547, 52.048319723922], [107.063524231645, 52.0618308752208], [107.206347378667, 52.0820899412678], [107.338184129764, 52.1023398156897], [107.470020880862, 52.0145239667077], [107.513966464561, 51.9333099016238], [107.645803215658, 51.8723027212348], [107.777639966756, 51.8723027212348], [107.909476717853, 51.8858670329711], [108.04131346895, 51.8926476542598], [108.173150220048, 51.9197599102711], [108.315964383917, 51.8587343168915], [108.41484194724, 51.7704398987239], [108.491746718714, 51.6751600560429], [108.568651490187, 51.5933317490253], [108.700488241284, 51.538697507269], [108.777393012758, 51.4497768030128], [108.821338596457, 51.367547754501], [108.865284180156, 51.2782932646933], [108.997120931253, 51.216399918193], [109.139944078276, 51.216399918193], [109.271780829373, 51.216399918193], [109.40361758047, 51.216399918193], [109.546440727493, 51.2507953942741], [109.689254891362, 51.319509227806], [109.843064434309, 51.374406291119], [109.974901185406, 51.4086779617829], [110.106737936504, 51.4360812967939], [110.271533875375, 51.4360812967939], [110.403370626473, 51.4360812967939], [110.53520737757, 51.4360812967939], [110.667044128667, 51.4360812967939], [110.80986727569, 51.4360812967939], [110.963676818637, 51.4703123619959], [111.106490982506, 51.5113557642953], [111.238327733603, 51.5933317490253], [111.370164484701, 51.6274448182104], [111.567919611347, 51.6547168186537], [111.710742758369, 51.6683466685067], [111.853565905391, 51.6955940697848], [112.007375448338, 51.7500396916139], [112.139212199435, 51.7976258386522], [112.271048950533, 51.8451618194675], [112.40288570163, 51.8451618194675], [112.534722452728, 51.8451618194675], [112.666550220672, 51.8451618194675], [112.809373367694, 51.8383740357024], [112.963182910641, 51.8247953977708], [113.095019661739, 51.8723027212348], [113.226856412836, 51.9536272191785], [113.358693163933, 52.0077617498159], [113.490529915031, 52.0145239667077], [113.622366666128, 51.9671669852625], [113.743217021301, 51.8790853886492], [113.842094584624, 51.7976258386522], [113.940972147947, 51.7160188614431], [114.083786311816, 51.6751600560429], [114.215623062913, 51.6751600560429], [114.347459814011, 51.6751600560429], [114.479296565108, 51.6683466685067], [114.600146920281, 51.5865060587967], [114.62211971213, 51.5523622225489], [114.753956463228, 51.5455303778789], [114.89677961025, 51.5455303778789], [115.028616361347, 51.5523622225489], [115.171439508369, 51.5796793429706], [115.303276259467, 51.6274448182104], [115.446099406489, 51.6751600560429], [115.577927174434, 51.7024033582695], [115.720750321456, 51.7364344325853], [115.852587072553, 51.8044197639859], [115.98442382365, 51.8451618194675], [116.116260574748, 51.8723027212348], [116.25908372177, 51.8926476542598], [116.390920472867, 51.9062058279752], [116.522757223965, 51.9333099016238], [116.676566766912, 52.000998510967], [116.808403518009, 52.0820899412678], [116.951217681878, 52.14281199623], [117.061081641126, 52.2438317095515], [117.072068037051, 52.3446164756122], [117.083054432976, 52.4317825950168], [117.127000016675, 52.5187766607864], [117.170945600374, 52.6055988123758], [117.192918392224, 52.6922491905451], [117.192918392224, 52.7787279373488], [117.236863975923, 52.8584022612685], [117.324755143321, 52.9379305789025], [117.401659914794, 53.0173130048721], [117.489551082193, 53.0965496547094], [117.632374229215, 53.1624689234488], [117.764210980312, 53.1756406448508], [117.950979711034, 53.2019665787907], [118.082816462131, 53.2085468820535], [118.214653213228, 53.2282817298951], [118.346489964326, 53.2611529405837], [118.489304128195, 53.3202575068401], [118.632127275217, 53.3989364445436], [118.741991234465, 53.4774701771335], [118.862841589638, 53.5623846675241], [118.994678340735, 53.6471290398763], [119.082569508133, 53.7317034499861], [119.192433467381, 53.8096214179077], [119.346243010328, 53.8679650183179], [119.48906615735, 53.9003430125045], [119.631889304372, 53.8873948240009], [119.774712451395, 53.81610805482], [119.917526615264, 53.7511965014519], [120.071336158211, 53.7382021384779], [120.203172909308, 53.7382021384779], [120.356982452255, 53.7446998222759], [120.499805599277, 53.7771731733727], [120.642628746299, 53.8225936879024], [120.774465497397, 53.8485261833792], [120.906302248494, 53.8938694197328], [121.049125395516, 53.9391635110486], [121.191948542539, 53.9650237934376], [121.323776310483, 54.0037841537528], [121.466599457505, 54.0425084522186], [121.598436208603, 54.0876359744022], [121.7302729597, 54.0940795131907], [121.862109710797, 54.0682993531768], [121.993946461895, 54.0489537231109], [122.125783212992, 54.0489537231109], [122.268606360014, 54.0425084522186], [122.411429507036, 54.029604358623], [122.554252654059, 54.029604358623], [122.708062197006, 54.029604358623], [122.83988996495, 54.029604358623], [122.971726716047, 54.029604358623], [123.11454986307, 54.0360569060962], [123.246386614167, 54.0554032675714], [123.389209761189, 54.0682993531768], [123.532032908211, 54.0682993531768], [123.674856055233, 54.0682993531768], [123.806692806331, 54.0682993531768], [123.938529557428, 54.0425084522186], [124.08135270445, 53.9844084823167], [124.213180472395, 53.9197577737866], [124.334030827568, 53.8420445648932], [124.465867578665, 53.7706805119662], [124.608690725687, 53.7576921760777], [124.740527476784, 53.7382021384779], [124.70756828901, 53.6601515463006], [124.839405040108, 53.6341025106748], [124.971241791205, 53.6341025106748], [125.137778294991, 53.6406162781583], [125.267874481174, 53.6406162781583], [125.410697628196, 53.6015185842873], [125.553520775218, 53.5558588253193], [125.696334939088, 53.4840081042294], [125.81718529426, 53.3989364445436], [125.960008441282, 53.3530580517109], [126.09184519238, 53.2939989057313], [126.223681943477, 53.248007486254], [126.300586714951, 53.1558815465105], [126.355518694575, 53.0767541524103], [126.454396257898, 52.9908683992876], [126.520314633446, 52.9048115163768], [126.630178592694, 52.7986602126519], [126.707083364168, 52.7122210527772], [126.794974531566, 52.6189408167637], [126.860892907115, 52.5388277954728], [126.959770470438, 52.4384805528737], [127.047661637836, 52.358037852134], [127.157516613931, 52.2707315380069], [127.300339760953, 52.2236461303145], [127.443162907975, 52.1562945564804], [127.574999659073, 52.0888409206191], [127.739795597944, 52.0145239667077], [127.871632349042, 51.9400833633456], [127.93755072459, 51.8587343168915], [128.025441891989, 51.7568407847832], [128.091360267537, 51.6683466685067], [128.157278643086, 51.5728516014899], [128.201224226785, 51.4703123619959], [128.201224226785, 51.3812638003905], [128.201224226785, 51.2920360309598], [128.223197018635, 51.2095177373561], [128.300101790108, 51.1268513157354], [128.377006561582, 51.0440366725879], [128.475884124905, 50.9541534381145], [128.585739101, 50.8640960246374], [128.695603060247, 50.7808114086161], [128.761521435796, 50.683458203746], [128.83842620727, 50.599851511005], [128.915330978743, 50.5160960296549], [129.014208542066, 50.432197396389], [129.135058897239, 50.3411329241983], [129.200977272787, 50.2569181548569], [129.29985483611, 50.1655171957942], [129.464650774982, 50.0668895420312], [129.585501130155, 49.9821898043821], [129.684378693478, 49.8973406775844], [129.750297069026, 49.8052521193474], [129.882133820124, 49.7413956933229], [130.013961588068, 49.6703454100723], [130.057907171768, 49.5849478726057], [130.112839151391, 49.4922707304787], [130.20073031879, 49.3922616692687], [130.332567069887, 49.320701717068], [130.475390216909, 49.2418654914697], [130.618213363931, 49.2059891750635], [130.761036510954, 49.1557185677686], [130.892873262051, 49.1125888285169], [131.002737221299, 49.0262167541628], [131.134573972396, 48.9541253061728], [131.277397119418, 48.9252595167253], [131.44219305829, 48.9252595167253], [131.585007222159, 48.939694498188], [131.727830369181, 48.9541253061728], [131.859667120279, 48.961339145202], [132.002490267301, 48.961339145202], [132.178272602098, 48.961339145202], [132.332082145044, 48.961339145202], [132.463918896142, 48.961339145202], [132.595755647239, 48.946910423847], [132.782524377961, 48.9108203614941], [132.914361129058, 48.8313303887219], [133.068161688852, 48.7661991887045], [133.221971231799, 48.7299786424644], [133.364794378821, 48.7082337822151], [133.496631129918, 48.6864795214472], [133.540576713618, 48.6792260120269], [133.672413464715, 48.657459215794], [133.804250215812, 48.6429427946551], [133.93608696691, 48.6356830168887], [134.078910113932, 48.6284221942792], [134.210746865029, 48.6138974143961], [134.342583616127, 48.5993684547364], [134.485397779996, 48.5921083490004], [134.639207322943, 48.5775731208822], [134.782030469965, 48.5775731208822], [134.913867221063, 48.5557624402868], [135.04570397216, 48.4684256400394], [135.089649555859, 48.3809382729795], [135.089649555859, 48.278679304731], [135.089649555859, 48.1762152377257], [135.067676764009, 48.0882255897208], [135.02373118031, 48.0000851450546], [134.935840012912, 47.9117938542328], [134.79301686589, 47.8233516691083], [134.738084886266, 47.7347585428884], [134.694139302567, 47.6460144301429], [134.683152906642, 47.5497106026823], [134.639207322943, 47.4606518050572], [134.595261739244, 47.3714418894927], [134.54032975962, 47.2746272357902], [134.419479404447, 47.1701668506974], [134.353570012051, 47.0804655343324], [134.309624428352, 46.9756227984739], [134.287651636503, 46.8705741040108], [134.287651636503, 46.7728444262808], [134.276665240578, 46.682474722397], [134.265678844653, 46.576858201618], [134.254692448728, 46.4861604064407], [134.210746865029, 46.3877335277741], [134.16680128133, 46.273943114278], [134.056937322082, 46.182740317494], [133.925100570985, 46.0913859728645], [133.881154987286, 45.9922477264258], [133.837209403587, 45.9005775972323], [133.738331840264, 45.8010972113239], [133.628467881016, 45.6937654892362], [133.529590317693, 45.5939218027825], [133.441699150295, 45.4861920416965], [133.331835191047, 45.3859724340393], [133.243944023649, 45.2933040445481], [133.210984835874, 45.1849992302172], [133.167039252175, 45.076487970889], [133.145066460325, 44.9755426600983], [133.123093668476, 44.8666332493628], [133.068161688852, 44.7731180107048], [132.969284125529, 44.6716386776216], [132.837456357584, 44.5778138590301], [132.683646814637, 44.4995053344001], [132.552699395671, 44.4289440325778], [132.55819708521, 44.4034386806934], [132.555448240441, 44.3779222041932], [132.544461844516, 44.3543601421225], [132.511502656742, 44.3327548659689], [132.489529864892, 44.3091746396494], [132.470305917812, 44.2836170921236], [132.453830815501, 44.2600171214799], [132.451081970732, 44.2364076741729], [132.445584281193, 44.2127887504076], [132.423611489343, 44.1891603503955], [132.393401146338, 44.1655224743547], [132.371428354489, 44.1399089171478], [132.360441958564, 44.1142777940426], [132.332980460329, 44.0906099133815], [132.302761134171, 44.0669325576707], [132.280788342321, 44.0432457271619], [132.247829154547, 44.0274492431736], [132.214869966773, 44.0235026939211], [132.181910778998, 44.0215260909681], [132.146211729607, 44.0195494221138], [132.110503697064, 44.0116485483569], [132.077544509289, 43.9958436427914], [132.044585321515, 43.9760848218641], [132.028110219204, 43.9523616750401], [132.017123823279, 43.9286290547286], [132.017123823279, 43.90488696122], [132.003388582585, 43.8811353948113], [131.984164635505, 43.8553922222324], [131.964931705272, 43.8296379315056], [131.951205447731, 43.8058563683238], [131.967680550041, 43.7820653335508], [131.975918101197, 43.758264827518], [131.978666945966, 43.7324751265755], [131.978666945966, 43.7066678212849], [131.964931705272, 43.6828373264817], [131.956694154117, 43.6570086459134], [131.945707758192, 43.6331584221124], [131.975918101197, 43.6092987292738], [131.953945309347, 43.5854295677774], [131.920986121573, 43.5754861703406], [131.904511019262, 43.5516035975111], [131.904511019262, 43.5277115569694], [131.901762174493, 43.5038100491183], [131.901762174493, 43.4798990743676], [131.918246259956, 43.4559786331334], [131.945707758192, 43.432048725839], [131.959442998886, 43.4081093529143], [131.97317823958, 43.3841605147958], [131.99515103143, 43.360202211927], [132.028110219204, 43.3482162450982], [132.061069406978, 43.3362344447582], [132.069306958134, 43.3122572137463], [132.069306958134, 43.2895238155256], [132.067932535749, 43.2875185348812], [132.06518369098, 43.2845235827354], [132.061069406978, 43.2825225063375], [132.059003281825, 43.2795207683256], [132.05557171744, 43.2765254224344], [132.051448450286, 43.2735233885519], [132.049391308285, 43.2702726532801], [132.049391308285, 43.2665246081941], [132.049391308285, 43.2625212056751], [132.048708588669, 43.25926988279], [132.0480168859, 43.2560249286995], [132.0480168859, 43.2530218836579], [132.047334166284, 43.2500186905275], [132.045277024284, 43.2470218926972], [132.040812397322, 43.2435210797022], [132.036689130167, 43.2415186550973], [132.032224503205, 43.240517418114], [132.028110219204, 43.2397648435369], [132.02398695205, 43.237768839856], [132.019863684896, 43.2357662261933], [132.015749400895, 43.2327621822964], [132.013341915933, 43.2297645355587], [132.010593071164, 43.2267601958206], [132.007161506778, 43.223755708002], [132.002696879816, 43.2220079312796], [131.998582595815, 43.220253558189], [131.994117968853, 43.2197560402144], [131.989311982083, 43.2190032092442], [131.984847355121, 43.2175040659761], [131.980382728159, 43.2157495632905], [131.975576741389, 43.2129998679819], [131.971462457388, 43.2104988469666], [131.966647487465, 43.207244747254], [131.962191843655, 43.204743490241], [131.956694154117, 43.2024909616066], [131.952579870115, 43.2007360270096], [131.948115243153, 43.1987387452514], [131.945025038576, 43.1954840181848], [131.942276193806, 43.1924779892898], [131.939527349037, 43.189222928293], [131.936778504268, 43.1862231409172], [131.933005580074, 43.1829677463442], [131.929574015689, 43.1799611009837], [131.927166530728, 43.1764564364067], [131.92682517092, 43.1734560216858], [131.925792108343, 43.1696954684458], [131.924768028919, 43.1666947215514], [131.92407632615, 43.1634382857612], [131.92407632615, 43.1601816763811], [131.923393606534, 43.1569248934122], [131.922701903766, 43.1539169658199], [131.922360543958, 43.1509154438735], [131.922360543958, 43.1479072204914], [131.921336464534, 43.1446497833455]]}, "properties": {"name": "Trans Siberian Railway", "kind": "route", "distance_km": 8289.470016101126, "description": null}}, {"type": "Feature", "geometry": {"type": "Point", "coordinates": [104.283333019894, 52.2833329910593]}, "properties": {"name": "Irkutsk", "kind": "stop", "description": "Irkutsk was established in the mid-1600s as a fortress in the eastern Russian Empire. Many notable figures were exiled here during Tsarist times and greatly influenced the cultural and intellectual development of the city. Today, Irkutsk is an attractive student city with a population of nearly 620,000 people, home to fascinating historical, architectural and cultural attractions. Many tourists use Irkutsk as a base for venturing to Lake Baikal, which lies just 45 miles away."}}, {"type": "Feature", "geometry": {"type": "Point", "coordinates": [56.3166669675317, 58.000000023726]}, "properties": {"name": "Perm", "kind": "stop", "description": "Perm was once a village founded in the mid-16th century on the western slopes of the Ural Mountains. A century later it had transformed into the most vital military manufacturing hub in Imperial Russia. Here, nearly 1,300km east of Moscow, you will pass through the gateway to Siberia and continue on your journey."}}, {"type": "Feature", "geometry": {"type": "Point", "coordinates": [60.5833329989281, 56.8333329788032]}, "properties": {"name": "Yekaterinburg", "kind": "stop", "description": "Once a closed Soviet city, today Yekaterinburg is Russia’s fourth largest city, home to a thriving culture, art and music scene. The capital of the Urals is located in Sverdlovsk Region, which is rich in natural resources and industry. Yekaterinburg is famous for one of the darkest moments in Russian history: the last Tsar and his family were executed here."}}, {"type": "Feature", "geometry": {"type": "Point", "coordinates": [73.3666669852706, 54.9833330005959]}, "properties": {"name": "Omsk", "kind": "stop", "description": "In spring 1716 one of Peter the Great’s guardsmen, Ivan Buchholz, arrived at the confluence of the mighty River Irtysh and tranquil River Om on the southern border of the Russian Empire. There, he established a fortress town which grew into the Siberian city of Omsk – today one of Siberia’s hubs full of Imperial cultural and historical monuments."}}, {"type": "Feature", "geometry": {"type": "Point", "coordinates": [131.921336464534, 43.1446497833455]}, "properties": {"name": "Vladivostok", "kind": "stop", "description": "The final stop on the Trans-Siberian route is Vladivostok, established in 1860 on the shore of the Golden Horn Bay. Vladivostok became Russia’s most important Pacific port and has undergone rapid development in recent years. As well as exploring this interesting city and its beautiful waterfront, many tourists depart from Vladivostok to other Far Eastern countries such as Japan and Korea."}}, {"type": "Feature", "geometry": {"type": "Point", "coordinates": [92.866666981059, 56.016666999593]}, "properties": {"name": "Krasnoyarsk", "kind": "stop", "description": "Both Russian and foreign tourists alike are drawn to the vibrant northern city of Krasnoyarsk with its interesting religious architecture. Krasnoyarsk Province offers wild rivers, towering mountains, hunting and fishing spots and distinct ethnic culture, providing a unique opportunity for outdoor pursuits and exploration."}}, {"type": "Feature", "geometry": {"type": "Point", "coordinates": [49.6833329957541, 58.5999999781955]}, "properties": {"name": "Kirov", "kind": "stop", "description": "Kirov was the easternmost settlement founded during the era of Kievan Rus’, and lies on the bank of the Vyatka River, a navigable waterway which flows into the Volga. A significant center of agriculture as well as a place of exile for notable political dissidents during Imperial Russian times, today Kirov has a population of over half a million people."}}, {"type": "Feature", "geometry": {"type": "Point", "coordinates": [135.083332962107, 48.483332997903]}, "properties": {"name": "Khabarovsk", "kind": "stop", "description": "Khabarovsk stretches along the Amur River which marks the border between Russia and China. It is the largest city in the Russian Far East and belonged to the Qing Dynasty from the late 17th century to the mid-19th century. It is an interesting city with pretty architecture, a beautiful riverfront, and several interesting museums."}}, {"type": "Feature", "geometry": {"type": "Point", "coordinates": [107.619156040228, 51.8307947627416]}, "properties": {"name": "Ulan Ude", "kind": "stop", "description": "Established in 1666, Ulan-Ude is the capital city of the Republic of Buryatiya. Between the 1400s and 1800s this region belonged to the Mongol Empire, whose eastern influence can still be felt in the city today. Ulan-Ude is the third-largest city in the Russian Far East.\r\n- Just after Ulan-Ude, the Trans-Siberian Railway separates into two different routes:\r\n1) the Trans-Mongolian travels south though the Mongolian capital Ulaanbaatar and terminates in Beijing.\r\n2) the Trans-Siberian continues eastwards to Vladivostok."}}, {"type": "Feature", "geometry": {"type": "Point", "coordinates": [37.6601435213654, 55.7758473547737]}, "properties": {"name": "Moscow", "kind": "stop", "description": "Moscow is the center of Russian politics, finance and culture and home to centuries of historical and cultural landmarks including the Moscow Kremlin, St Basil’s Cathedral, Red Square and the Tretyakov Gallery. Russia’s capital is the most populated city in Europe, with nearly 12 million inhabitants, and offers the rich diversity and exciting atmosphere of a major city."}}, {"type": "Feature", "geometry": {"type": "Point", "coordinates": [65.5353400003229, 57.1535299997731]}, "properties": {"name": "Tyumen", "kind": "stop", "description": "The first Russian settlement established in Siberia, Tyumen became one of Imperial Russia’s most thriving towns and was an important trading center between Russia and China, home to a diverse community of skilled craftsmen. Tyumen was the wealthiest town in Russia before the Soviet period, and is today an important center for Russia’s oil and gas industries."}}, {"type": "Feature", "geometry": {"type": "Point", "coordinates": [82.9101600001003, 55.0397600002217]}, "properties": {"name": "Novosibirsk", "kind": "stop", "description": "Not only is Novosibirsk the most populous city in Siberia, but it is the country’s most significant cultural and scientific hub after the two capitals. Founded in 1893, the capital of Siberia is a must-visit for culture and architecture lovers, and the surrounding region and nearby Altai Mountains offer rich and beautiful nature for outdoorsy travellers."}}, {"type": "Feature", "geometry": {"type": "Point", "coordinates": [103.864790800845, 52.5092018532558]}, "properties": {"name": "Angarsk", "kind": "stop", "description": "This eastern Siberian city was founded in 1948 and is a major industrial center for oil and petrochemicals – it is not the most attractive city along the Trans-Siberian Railway."}}, {"type": "Feature", "geometry": {"type": "Point", "coordinates": [104.138510000267, 51.5152400002491]}, "properties": {"name": "Baikalsk", "kind": "stop", "description": "Baikalsk is a small town on the south-eastern shore of Lake Baikal which attracts tourists with its snowboard and ski resort on Mount Sobolinaya, so-called Pomegranate Beach with red sand, and relatively sunny and warm climate (for Siberia)."}}, {"type": "Feature", "geometry": {"type": "Point", "coordinates": [132.930659999876, 48.7879900001254]}, "properties": {"name": "Birobidzhan", "kind": "stop", "description": "A town in the Jewish Autonomous Region. Birobidzhan’s official language is Yiddish and the town celebrates its Jewish and Yiddish culture and heritage.\r\n- 160km after Birobidzhan, the Jewish Autonomous Region ends and Khabarovsky Province begins. The Trans-Siberian Railway crosses the mighty Amur River here via the longest bridge on the railway route (2.6km long)."}}, {"type": "Feature", "geometry": {"type": "Point", "coordinates": [113.512880000198, 52.0245000001988]}, "properties": {"name": "Chita", "kind": "stop", "description": "Chita was founded in 1653 and is the capital city and industrial and cultural center of the Zabaikalsky Province.\r\n- After passing through Karymskoye 100km eastward of Chita, the Trans-Siberian again splits off in two directions:\r\n1) the Trans-Siberian continues east to Vladivostok\r\n2) the Trans-Manchurian ventures south through Manchuria to China."}}, {"type": "Feature", "geometry": {"type": "Point", "coordinates": [39.8500000169606, 57.6166670006593]}, "properties": {"name": "Yaroslavl", "kind": "stop", "description": "Yaroslavl (Russian: Ярослáвль, IPA: [jɪrɐˈsɫavlʲ]) is a city and the administrative center of Yaroslavl Oblast, Russia, located 250 kilometers (160 mi) northeast of Moscow. The historic part of the city is a World Heritage Site, and is located at the confluence of the Volga and the Kotorosl rivers. It is part of the Golden Ring, a group of historic cities northeast of Moscow that have played an important role in Russian history."}}]}